 2016  9 5 1511 36.0 L  72.284 127.478  0.0  BER  4 0.2 0.2LBER-0.9CBER        1
 GAP=263        0.54       1.5    15.3  4.8  0.8964E+00  0.3439E+02  0.2320E+01E
 ACTION:ARG 20-04-02 17:38 OP:mn   STATUS:               ID:20160905151033     I
 2016-09-05-1510-33M.SIOLA_039                                                 6
 STAT SP IPHASW D HRMM SECON CODA AMPLIT PERI AZIMU VELO AIN AR TRES W  DIS CAZ7
 628  0Z IP     D 1511 39.03    4                         90   -0.0510 17.1 319 
 628  0N ES       1511 41.49                              90    0.0810 17.1 319 
 628  0Z  IAML    1511 41.81        25.5 0.08                          17.1 319 
 627  0Z IP     D 1511 40.38    6                         90   -0.1410 25.2 223 
 627  0N ES       1511 43.74                              90   -0.1910 25.2 223 
 627  0Z  IAML    1511 44.86         4.1 0.30                          25.2 223 
 625  0Z IP     D 1511 44.47   20                         65   -0.11 9 48.3 256 
 625  0Z  IAML    1511 50.11         1.4 0.82                          48.3 256 
 625  0N ES       1511 50.91                              65   -0.17 9 48.3 256 
 626  0Z IP     D 1511 47.70                              65    0.21 8 66.3 229 
 626  0N ES       1511 56.73                              65    0.53 8 66.3 229 
 626  0Z  IAML    1511 57.12         0.7 0.15                          66.3 229 
                                                                                
 2016  9 6 0322 59.3 L  72.407 124.785 11.0  BER  4 0.1 0.7LBER-0.3CBER        1
 GAP=160        0.41       1.1     4.5  6.0  0.1724E+01  0.1047E+02  0.5953E+00E
 ACTION:ARG 20-04-02 17:38 OP:mn   STATUS:               ID:20160906032135     I
 2016-09-06-0321-35M.SIOLA_039                                                 6
 STAT SP IPHASW D HRMM SECON CODA AMPLIT PERI AZIMU VELO AIN AR TRES W  DIS CAZ7
 622  0Z IP     C  323  2.72   12                        117   -0.2110 18.2  77 
 622  0E ES        323  5.60                             117   -0.0610 18.2  77 
 622  0Z  IAML     323  5.91        21.3 0.28                          18.2  77 
 621  0Z IP     D  323  3.87    7                        109   -0.0810 25.1 172 
 621  0N ES        323  7.50                             109    0.0510 25.1 172 
 621  0Z  IAML     323  7.75        16.2 0.25                          25.1 172 
 620  0Z IP     D  323  4.84   22                        105   -0.0510 31.2 332 
 620  0E ES        323  9.27                             105    0.1510 31.2 332 
 620  0Z  IAML     323 10.12         8.5 0.19                          31.2 332 
 623  0Z IP     C  323  5.32                             103   -0.04 9 34.2 105 
 623  0N ES        323 10.19                             103    0.26 9 34.2 105 
 623  0Z  IAML     323 11.66         7.8 0.26                          34.2 105 
                                                                                
 2016  9 6 1514 39.7 L  72.508 125.684 12.1  BER  6 0.1 0.9LBER-0.4CBER        1
 GAP=169        0.29       0.9     2.1  2.1  0.4338E+00  0.4279E+00 -0.2841E+00E
 ACTION:ARG 20-04-02 17:38 OP:mn   STATUS:               ID:20160906151318     I
 2016-09-06-1513-18M.SIOLA_039                                                 6
 STAT SP IPHASW D HRMM SECON CODA AMPLIT PERI AZIMU VELO AIN AR TRES W  DIS CAZ7
 622  0Z IP     C 1514 42.78    7                        127   -0.0510 14.5 240 
 622  0N ES       1514 45.31                             127    0.0710 14.5 240 
 622  0Z  IAML    1514 45.95        16.0 0.13                          14.5 240 
 624  0Z IP     C 1514 43.55    4                        118   -0.0610 20.2 100 
 624  0N ES       1514 46.71                             118    0.1010 20.2 100 
 624  0Z  IAML    1514 46.87       161.8 0.17                          20.2 100 
 623  0Z IP     D 1514 43.56                             117   -0.0910 20.5 173 
 623  0E ES       1514 46.57                             117   -0.1210 20.5 173 
 623  0Z  IAML    1514 46.77        26.6 0.14                          20.5 173 
 625  0Z IP     C 1514 46.57   25                        103   -0.05 9 39.9 159 
 625  0E ES       1514 51.99                             103    0.08 9 39.9 159 
 625  0Z  IAML    1514 53.15         6.1 0.55                          39.9 159 
 621  0Z IP     D 1514 47.54   15                        101    0.11 9 45.1 217 
 621  0N ES       1514 53.37                             101    0.04 9 45.1 217 
 621  0Z  IAML    1514 54.45         6.5 0.39                          45.1 217 
 620  0Z IP     C 1514 47.89   21                        101    0.07 9 47.5 291 
 620  0N ES       1514 53.95                             101   -0.07 9 47.5 291 
 620  0Z  IAML    1514 54.31        10.0 0.36                          47.5 291 
                                                                                
 2016  9 6 2114 13.8 L  72.732 125.212 15.8  BER  4 0.2 0.2LBER 0.1CBER        1
 GAP=225        0.54       6.3    10.4 16.0  0.5429E+02 -0.1454E+03 -0.8282E+02E
 ACTION:ARG 20-04-02 17:38 OP:mn   STATUS:               ID:20160906211249     I
 2016-09-06-2112-49M.SIOLA_039                                                 6
 STAT SP IPHASW D HRMM SECON CODA AMPLIT PERI AZIMU VELO AIN AR TRES W  DIS CAZ7
 620  0Z IP     C 2114 19.41   31                        115   -0.0710 30.0 254 
 620  0E ES       2114 23.73                             115   -0.0310 30.0 254 
 620  0Z  IAML    2114 23.93         3.8 0.17                          30.0 254 
 622  0Z IP     D 2114 19.87   23                        113    0.0210 32.5 174 
 622  0E ES       2114 24.39                             113   -0.0210 32.5 174 
 622  0Z  IAML    2114 24.58         2.2 0.28                          32.5 174 
 624  0Z IP     C 2114 22.17    8                        106    0.34 9 45.5 128 
 624  0E ES       2114 28.08                             106    0.18 9 45.5 128 
 624  0Z  IAML    2114 28.16         2.6 0.17                          45.5 128 
 628  0Z IP     C 2114 26.40   12                         99    0.00 8 74.6 119 
 628  0E ES       2114 35.42                              99   -0.52 8 74.6 119 
 628  0Z  IAML    2114 36.45         1.0 0.18                          74.6 119 
                                                                                
 2016  9 7 0612  2.0 L  70.281 128.268  2.3  BER  4 0.2 1.7LBER 1.0CBER        1
 GAP=326        0.35       6.0    16.4  8.8 -0.1717E+02  0.3942E+02 -0.3330E+02E
 ACTION:ARG 20-04-02 17:38 OP:mn   STATUS:               ID:20160907061107     I
 2016-09-07-0611-07M.SIOLA_033                                                 6
 STAT SP IPHASW D HRMM SECON CODA AMPLIT PERI AZIMU VELO AIN AR TRES W  DIS CAZ7
 631  0Z IP     D  612 23.68   25                         65    0.0410  130 344 
 631  0E ES        612 39.94                              65   -0.1110  130 344 
 631  0Z  IAML     612 40.18        15.9 0.31                           130 344 
 632  0Z IP     C  612 26.18   29                         65   -0.20 9  147  11 
 632  0E ES        612 45.14                              65    0.26 9  147  11 
 632  0Z  IAML     612 46.76        15.5 0.19                           147  11 
 626  0Z IP     D  612 34.17   34                         50    0.31 6  197 337 
 626  0E ES        612 58.26                              50    0.21 6  197 337 
 626  0Z  IAML     612 59.42         7.6 0.50                           197 337 
 630  0Z IP     D  612 34.33   35                         50   -0.02 6  200   1 
 630  0E ES        612 58.46                              50   -0.44 6  200   1 
 630  0Z  IAML     613  0.64         5.7 0.20                           200   1 
                                                                                
 2016  9 7 0612  1.9 L  70.286 128.315  0.1  BER  4 0.2 1.7LBER 1.0CBER        1
 GAP=326        0.30       5.2    14.0  7.6 -0.1234E+02  0.2873E+02 -0.2434E+02E
 ACTION:ARG 20-04-02 17:38 OP:mn   STATUS:               ID:20160907061137     I
 2016-09-07-0611-37M.SIOLA_033                                                 6
 STAT SP IPHASW D HRMM SECON CODA AMPLIT PERI AZIMU VELO AIN AR TRES W  DIS CAZ7
 631  0Z IP     C  612 23.52   26                         65   -0.1510  130 343 
 631  0Z  IAML     612 40.19        16.0 0.31                           130 343 
 631  0E ES        612 40.25                              65    0.0410  130 343 
 632  0Z IP     C  612 26.24   29                         65   -0.03 9  146  11 
 632  0E ES        612 44.78                              65   -0.01 9  146  11 
 632  0Z  IAML     612 46.76        15.1 0.19                           146  11 
 626  0Z IP     D  612 34.40   34                         50    0.39 6  197 336 
 626  0E ES        612 58.25                              50   -0.16 6  197 336 
 626  0Z  IAML     613  0.08         8.2 0.32                           197 336 
 630  0Z IP     C  612 34.41   36                         50    0.02 6  200   0 
 630  0E ES        612 59.22                              50    0.14 6  200   0 
 630  0Z  IAML     613  0.64         5.7 0.20                           200   0 
                                                                                
 2016  9 8 0435 55.6 L  72.085 128.007 17.5  BER  3 0.0 1.2LBER-1.6CBER        1
 GAP=179        0.29       2.3     4.0  3.2 -0.2355E+01  0.8987E+01 -0.1205E+01E
 ACTION:ARG 20-04-02 17:38 OP:mn   STATUS:               ID:20160908043432     I
 2016-09-08-0434-32M.SIOLA_033                                                 6
 STAT SP IPHASW D HRMM SECON CODA AMPLIT PERI AZIMU VELO AIN AR TRES W  DIS CAZ7
 630  0Z IP     C  435 59.02    5                        147   -0.0410 11.0  95 
 630  0E ES        436  1.69                             147    0.0210 11.0  95 
 630  0Z  IAML     436  1.74      1326.2 0.04                          11.0  95 
 629  0Z IP     C  436  1.33                             119    0.01 9 29.6 234 
 629  0N ES        436  5.65                             119   -0.00 9 29.6 234 
 629  0Z  IAML     436  6.01         5.5 0.38                          29.6 234 
 627  0Z IP     C  436  2.20    5                        114    0.04 9 35.4 276 
 627  0N ES        436  7.11                             114   -0.02 9 35.4 276 
 627  0Z  IAML     436  7.26        10.4 0.13                          35.4 276 
                                                                                
 2016  9 9  952  8.0 L                       BER                               1
 ACTION:ARG 20-04-02 17:38 OP:mn   STATUS:               ID:20160909095208     I
 2016-09-09-0952-08M.SIOLA_033                                                 6
 STAT SP IPHASW D HRMM SECON CODA AMPLIT PERI AZIMU VELO AIN AR TRES W  DIS CAZ7
 632  0E ES        953 19.01                                                    
 630  0Z  IAML     952 53.31         1.7 0.18                                   
 631  0Z IP     C  952 48.43   50                                               
 631  0Z  IAML     953 37.25         3.1 0.28                                   
 632  0Z IP     C  952 38.61                                                    
 630  0Z IP     C  952 21.22   35                                               
 621  0Z IP     D  952 49.73   58                                               
 621  0Z  IAML     953 38.71         1.5 0.40                                   
 630  0N ES        952 49.89                                                    
 621  0N ES        953 37.32                                                    
 631  0E ES        953 34.01                                                    
 632  0Z  IAML     953 19.89         2.1 0.11                                   
                                                                                
 2016  910 2115 21.6 L  72.412 126.430 10.9  BER  5 0.1 0.6LBER-0.4CBER        1
 GAP=129        0.31       1.7     2.4  3.3 -0.1179E+01 -0.1753E+01  0.4639E+01E
 ACTION:ARG 20-04-02 17:38 OP:mn   STATUS:               ID:20160910211402     I
 2016-09-10-2114-02M.SIOLA_036                                                 6
 STAT SP IPHASW D HRMM SECON CODA AMPLIT PERI AZIMU VELO AIN AR TRES W  DIS CAZ7
 624  0Z IP     C 2115 23.94                             139   -0.0610 8.80 324 
 624  0N ES       2115 25.78                             139   -0.0310 8.80 324 
 624  0Z  IAML    2115 25.93        50.5 0.15                          8.80 324 
 628  0Z IP     D 2115 26.04    5                        110   -0.07 9 24.2  93 
 628  0N ES       2115 29.63                             110    0.12 9 24.2  93 
 628  0Z  IAML    2115 29.89        28.4 0.17                          24.2  93 
 623  0Z IP     C 2115 26.09   10                        110   -0.07 9 24.6 247 
 623  0N ES       2115 29.73                             110    0.12 9 24.6 247 
 623  0Z  IAML    2115 29.86         4.2 0.06                          24.6 247 
 621  0Z IP     C 2115 31.59   20                         97    0.13 8 58.2 245 
 621  0N ES       2115 38.93                              97    0.00 8 58.2 245 
 621  0Z  IAML    2115 40.38         2.9 0.42                          58.2 245 
 626  0Z IP       2115 31.72   20                         97   -0.04 8 60.0 193 
 626  0Z ES       2115 39.34                              97   -0.11 8 60.0 193 
                                                                                
 2016  911 0928 45.7 L  72.796 134.989 15.6  BER  1 0.0                        1
 GAP=360        0.30      31.5    90.0  0.0 -0.8733E+03 -0.1753E+01  0.4639E+01E
 ACTION:ARG 20-04-02 17:38 OP:mn   STATUS:               ID:20160911092836     I
 2016-09-11-0928-36M.SIOLA_039                                                 6
 STAT SP IPHASW D HRMM SECON CODA AMPLIT PERI AZIMU VELO AIN AR TRES W  DIS CAZ7
 632  0N IP        929 22.37                              51    0.0110  244 239 
 632  0N E         929 22.62                   53.2 24.7      0         244 239 
 632  0N ES        929 50.25                              51   -0.0110  244 239 
                                                                                
 2016  912 0541 13.4 L  72.691 125.744 19.6  BER  5 0.1 1.1LBER-0.2CBER        1
 GAP=276        0.29       2.3     3.8  3.7 -0.1444E+01 -0.8605E+00 -0.4576E+01E
 ACTION:ARG 20-04-02 17:38 OP:mn   STATUS:               ID:20160912053955     I
 2016-09-12-0539-55M.SIOLA_036                                                 6
 STAT SP IPHASW D HRMM SECON CODA AMPLIT PERI AZIMU VELO AIN AR TRES W  DIS CAZ7
 624  0Z IP     D  541 19.41   11                        121    0.0710 29.9 143 
 624  0E ES        541 23.89                             121    0.0610 29.9 143 
 624  0Z  IAML     541 24.32        35.4 0.16                          29.9 143 
 622  0Z IP     D  541 19.57    8                        120    0.0310 31.3 208 
 622  0N ES        541 24.05                             120   -0.1310 31.3 208 
 622  0Z  IAML     541 24.68        66.7 0.14                          31.3 208 
 623  0Z IP     D  541 20.96   11                        114    0.0610 40.8 179 
 623  0E ES        541 26.66                             114    0.0810 40.8 179 
 623  0Z  IAML     541 27.14        25.0 0.19                          40.8 179 
 628  0Z IP     C  541 23.31   19                        107   -0.07 9 57.1 124 
 628  0E ES        541 30.84                             107   -0.11 9 57.1 124 
 628  0Z  IAML     541 31.10         9.0 0.18                          57.1 124 
 625  0Z IP     D  541 23.67   22                        106   -0.00 9 59.0 168 
 625  0E ES        541 31.43                             106   -0.02 9 59.0 168 
 625  0Z  IAML     541 31.97         4.2 0.31                          59.0 168 
                                                                                
 2016  914  4 0  0.0 L                       BER                               1
 ACTION:ARG 20-04-02 17:38 OP:mn   STATUS:               ID:20160914040000     I
 2016-09-14-0400-00M.SIOLA_039                                                 6
 STAT SP IPHASW D HRMM SECON CODA AMPLIT PERI AZIMU VELO AIN AR TRES W  DIS CAZ7
                                                                                
 2016  914 1510 34.6 L  70.845 129.497 13.9  BER  4 0.1 1.4LBER 1.0CBER        1
 GAP=339        0.27       8.9    22.9  5.1  0.1743E+03 -0.9781E+02 -0.3767E+02E
 ACTION:ARG 20-04-02 17:38 OP:mn   STATUS:               ID:20160914150941     I
 2016-09-14-1509-41M.SIOLA_039                                                 6
 STAT SP IPHASW D HRMM SECON CODA AMPLIT PERI AZIMU VELO AIN AR TRES W  DIS CAZ7
 631  0Z IP     D 1510 51.45   28                         96   -0.0610  102 308 
 631  0E ES       1511  4.40                              96    0.0310  102 308 
 631  0Z  IAML    1511  8.20        11.5 0.18                           102 308 
 629  0Z IP     C 1510 58.10   34                         58   -0.00 8  144 328 
 629  0E ES       1511 15.92                              58   -0.05 8  144 328 
 629  0Z  IAML    1511 18.40         3.9 0.14                           144 328 
 627  0Z IP     D 1511  1.49   35                         58    0.13 7  168 329 
 627  0E ES       1511 21.70                              58   -0.01 7  168 329 
 627  0Z  IAML    1511 22.82         7.3 0.22                           168 329 
 626  0Z IP     D 1511  1.64   32                         58    0.00 7  170 315 
 626  0E ES       1511 22.20                              58    0.00 7  170 315 
 626  0Z  IAML    1511 22.70         7.5 0.21                           170 315 
                                                                                
 2016  915 1405 46.1 L  73.000 123.832  0.1  BER  3 0.2 0.9LBER 0.2CBER        1
 GAP=343        0.42       4.6    27.5  4.5  0.7616E+02 -0.6161E+02 -0.6607E+01E
 ACTION:ARG 20-04-02 17:38 OP:mn   STATUS:               ID:20160915140423     I
 2016-09-15-1404-23M.SIOLA_039                                                 6
 STAT SP IPHASW D HRMM SECON CODA AMPLIT PERI AZIMU VELO AIN AR TRES W  DIS CAZ7
 620  0Z IP     C 14 5 53.54   12                         90   -0.0810 42.1 156 
 620  0E ES       14 5 59.14                              90   -0.1910 42.1 156 
 620  0Z  IAML    14 5 59.41        11.2 0.20                          42.1 156 
 622  0Z IP     C 14 5 59.57   18                         65   -0.07 9 79.3 141 
 622  0E ES       14 6 10.02                              65    0.09 9 79.3 141 
 622  0Z  IAML    14 6 11.52         6.5 0.25                          79.3 141 
 621  0Z IP     C 14 6  2.70   27                         65    0.10 8 97.6 158 
 621  0E ES       14 6 15.45                              65    0.31 8 97.6 158 
 621  0Z  IAML    14 6 16.46         3.2 0.16                          97.6 158 
                                                                                
