 2016  822 1318 49.5 L  72.365 127.084 16.5  BER  8 0.1 0.6LBER 1.4CBER        1
 GAP= 98        0.34       1.0     2.7  1.8  0.1007E+01  0.1707E+01  0.7603E+00E
 ACTION:UP  21-01-08 22:12 OP:elen STATUS:               ID:20160822131743     I
 OLDACT:REG 21-01-08 15:24 OP:elen STATUS:               ID:20160822131743     3
 2016-08-22-1317-43M.arct__039                                                 6
 STAT SP IPHASW D HRMM SECON CODA AMPLIT PERI AZIMU VELO AIN AR TRES W  DIS CAZ7
 628  0Z IP       1318 52.33   40                        164    0.0210 4.47  28 
 628  0N ES       1318 54.47                             164    0.0110 4.47  28 
 628  0N  IAML    1318 54.58        79.2 0.14                          4.47  28 
 627  0Z IP       1318 54.86   31                        118    0.02 9 27.9 187 
 627  0E ES       1318 58.85                             118   -0.08 9 27.9 187 
 627  0E  IAML    1318 59.21        13.9 0.14                          27.9 187 
 624  0Z IP       1318 55.20   43                        116    0.06 9 30.0 295 
 624  0N ES       1318 59.45                             116   -0.01 9 30.0 295 
 624  0N  IAML    1319  0.17         9.4 0.19                          30.0 295 
 625  0Z IP       1318 56.77   43                        110    0.22 9 39.4 238 
 625  0N ES       1319  2.17                             110    0.24 9 39.4 238 
 625  0E  IAML    1319  5.64         3.4 0.36                          39.4 238 
 623  0Z IP       1318 57.42   36                        107    0.02 9 45.0 265 
 623  0E ES       1319  3.30                             107   -0.14 9 45.0 265 
 623  0E  IAML    1319  3.64         2.5 0.18                          45.0 265 
 630  0Z IP       1318 58.72   48                        105    0.04 8 53.3 127 
 630  0E ES       1319  5.54                             105   -0.14 8 53.3 127 
 630  0E  IAML    1319  6.59         4.5 0.17                          53.3 127 
 622  0Z IP       1318 59.79   39                        103   -0.01 8 60.4 279 
 622  0N ES       1319  7.38                             103   -0.27 8 60.4 279 
 622  0N  IAML    1319  8.26         2.5 0.11                          60.4 279 
 626  0Z IP       1319  0.46   48                        102    0.07 8 64.2 215 
 626  0N ES       1319  8.56                             102   -0.14 8 64.2 215 
 626  0N  IAML    1319 10.91         1.7 0.06                          64.2 215 
                                                                                
 2016  823 0113 22.8 L  71.942 129.784  5.1  BER  3 0.2 1.4LBER 1.3CBER        1
 GAP=289        0.43       3.8    13.7999.9  0.2212E+02 -0.3290E+04 -0.3608E+04E
 ACTION:UP  21-01-10 14:47 OP:elen STATUS:               ID:20160823011223     I
 OLDACT:REG 21-01-08 15:25 OP:elen STATUS:               ID:20160823011223     3
 2016-08-23-0112-23M.arct__039                                                 6
 STAT SP IPHASW D HRMM SECON CODA AMPLIT PERI AZIMU VELO AIN AR TRES W  DIS CAZ7
 632  0Z IP        113 30.83   39                         90   -0.0810 48.0 212 
 632  0N ES        113 36.95                              90   -0.1310 48.0 212 
 632  0E  IAML     113 38.18        33.0 0.09                          48.0 212 
 627  0Z IP        113 39.10   35                         90    0.04 8 98.5 283 
 627  0N ES        113 51.23                              90   -0.19 8 98.5 283 
 627  0N  IAML     113 52.50        14.0 0.18                          98.5 283 
 631  0Z IP        113 40.85   43                         90    0.30 8  108 237 
 631  0N ES        113 54.28                              90    0.24 8  108 237 
 631  0N  IAML     113 56.74        10.6 0.31                           108 237 
                                                                                
 2016  823 0652 14.0 L  70.933 129.810  6.4  BER  6 0.2 2.9LBER 1.9CBER        1
 GAP=321        0.30       2.9     9.0  3.0 -0.3919E+01 -0.1279E+01  0.3021E+00E
 ACTION:UP  21-01-10 13:37 OP:elen STATUS:               ID:20160823065124     I
 OLDACT:REG 21-01-08 15:26 OP:elen STATUS:               ID:20160823065124     3
 2016-08-23-0651-24M.arct__039                                                 6
 STAT SP IPHASW D HRMM SECON CODA AMPLIT PERI AZIMU VELO AIN AR TRES W  DIS CAZ7
 632  0Z IP        652 26.58   61                         91   -0.0810 76.3 340 
 632  0E ES        652 36.35                              91    0.0510 76.3 340 
 632  0E  IAML     652 38.67       272.6 0.20                          76.3 340 
 631  0Z IP        652 31.42   62                         91   -0.03 9  106 301 
 631  0N ES        652 44.76                              91    0.02 9  106 301 
 631  0E  IAML     652 48.82       731.2 0.27                           106 301 
 628  0Z IP        652 44.23   56                         58   -0.02 5  189 332 
 628  0N ES        653  6.95                              58   -0.31 5  189 332 
 628  0E  IAML     653  8.73        83.3 0.37                           189 332 
 625  0Z IP        652 44.54   57                         58    0.02 5  190 318 
 625  0E ES        653  7.47                              58   -0.26 5  190 318 
 625  0N  IAML     653  9.85       125.5 0.28                           190 318 
 624  0Z IP        652 47.96   63                         58    0.48 4  212 326 
 624  0E ES        653 13.41                              58    0.47 4  212 326 
 624  0E  IAML     653 16.74       144.1 0.25                           212 326 
 622  0Z IP        652 50.28   59                         51    0.29 3  231 319 
 622  0N ES        653 17.41                              51    0.05 3  231 319 
 622  0E  IAML     653 19.90        86.8 0.19                           231 319 
                                                                                
 2016  824 1042 42.9 L                       BER                               1
 ACTION:REG 21-01-08 15:26 OP:elen STATUS:               ID:20160824104242     I
 2016-08-24-1042-42M.arct__039                                                 6
 STAT SP IPHASW D HRMM SECON CODA AMPLIT PERI AZIMU VELO AIN AR TRES W  DIS CAZ7
                                                                                
 2016  824 1259 27.8 D  64.527 126.907 23.2  BER  4 0.2 3.2LBER                1
 GAP=354        2.62     999.9   999.9999.9 -0.9330E+07  0.1641E+08 -0.1083E+09E
 ACTION:UP  21-01-10 20:12 OP:elen STATUS:               ID:20160824130000     I
 OLDACT:REG 21-01-08 15:27 OP:elen STATUS:               ID:20160824130000     3
 2016-08-24-1300-00M.arct__039                                                 6
 STAT SP IPHASW D HRMM SECON CODA AMPLIT PERI AZIMU VELO AIN AR TRES W  DIS CAZ7
 631  0Z IP       13 1  7.30                              53   -0.2910  767   1 
 631  0N ES       13 2 26.33                              56   -0.0310  767   1 
 631  0N  IAML    13 3 12.21         7.8 0.32                           767   1 
 626  0Z IP       13 1 14.46                              53    0.0410  822 358 
 626  0E ES       13 2 38.75                              56    0.1310  822 358 
 626  0E  IAML    13 2 42.03         2.9 0.34                           822 358 
 621  0Z IP       13 1 18.86                              53   -0.0310  858 355 
 621  0N ES       13 2 46.38                              56   -0.2710  858 355 
 621  0E  IAML    13 3  0.67         2.6 0.32                           858 355 
 623  0Z IP       13 1 20.81                              53    0.2910  871 357 
 623  0N ES       13 2 49.73                              56    0.1610  871 357 
 623  0N  IAML    13 2 50.97         1.8 0.39                           871 357 
                                                                                
 2016  824 1510 30.4 L  71.610 130.057  9.7  BER  9 0.3 1.5LBER 1.7CBER        1
 GAP=305        0.44       3.1    10.4  3.6 -0.2843E+01 -0.8355E+01 -0.5869E+01E
 ACTION:UP  21-01-08 17:48 OP:elen STATUS:               ID:20160824150925     I
 OLDACT:REG 21-01-08 15:28 OP:elen STATUS:               ID:20160824150925     3
 2016-08-24-1509-25M.arct__039                                                 6
 STAT SP IPHASW D HRMM SECON CODA AMPLIT PERI AZIMU VELO AIN AR TRES W  DIS CAZ7
 632  0Z IP       1510 36.22   32                        101   -0.2510 34.9 264 
 632  0N ES       1510 40.99                             101   -0.1110 34.9 264 
 632  0E  IAML    1510 41.82        57.3 0.16                          34.9 264 
 631  0Z IP       1510 47.36   47                         93    0.09 7  102 258 
 631  0N ES       1511  0.30                              93    0.18 7  102 258 
 631  0N  IAML    1511  4.84        17.3 0.27                           102 258 
 628  0Z IP       1510 52.42   50                         92    0.10 6  134 313 
 628  0E ES       1511  9.04                              92    0.04 6  134 313 
 628  0N  IAML    1511  9.68        11.8 0.34                           134 313 
 626  0Z IP       1510 54.14   56                         92    0.14 6  144 284 
 626  0N ES       1511 11.96                              92    0.01 6  144 284 
 626  0N  IAML    1511 16.05         4.8 0.22                           144 284 
 625  0Z IP       1510 55.33   54                         92    0.23 6  151 297 
 625  0N ES       1511 14.04                              92    0.15 6  151 297 
 625  0N  IAML    1511 16.35         7.3 0.37                           151 297 
 624  0Z IP       1510 56.49   54                         58   -0.26 5  162 308 
 624  0N ES       1511 16.04                              58   -0.76 5  162 308 
 624  0N  IAML    1511 18.49        10.4 0.23                           162 308 
 623  0Z IP       1510 57.94   60                         58    0.30 5  169 300 
 623  0E ES       1511 18.61                              58    0.25 5  169 300 
 623  0N  IAML    1511 23.33         3.6 0.31                           169 300 
 622  0Z IP       1511  0.26   58                         58   -0.03 4  188 302 
 622  0N ES       1511 22.56                              58   -0.46 4  188 302 
 622  0N  IAML    1511 25.19         6.4 0.26                           188 302 
 621  0Z IP       1511  1.22   61                         58    0.60 4  190 292 
 621  0N ES       1511 24.23                              58    0.63 4  190 292 
 621  0E  IAML    1511 25.52         2.6 0.22                           190 292 
                                                                                
 2016  825 0754 57.1 L  72.347 130.339 14.4  BER  4 0.1 0.7LBER 1.4CBER        1
 GAP=290        0.34       2.6     9.9  3.9  0.1193E+02 -0.8262E+01 -0.5294E+01E
 ACTION:UP  21-01-10 18:50 OP:elen STATUS:               ID:20160825075407     I
 OLDACT:REG 21-01-08 15:29 OP:elen STATUS:               ID:20160825075407     3
 2016-08-25-0754-07M.arct__036                                                 6
 STAT SP IPHASW D HRMM SECON CODA AMPLIT PERI AZIMU VELO AIN AR TRES W  DIS CAZ7
 630  0Z IP        755  9.78   42                         98    0.1010 75.1 247 
 630  0N ES        755 19.45                              98    0.1910 75.1 247 
 630  0N  IAML     755 20.56         2.7 0.18                          75.1 247 
 632  0Z IP        755 13.11   41                         96   -0.03 9 96.7 208 
 632  0N ES        755 25.22                              96   -0.13 9 96.7 208 
 632  0E  IAML     755 28.01         1.6 0.08                          96.7 208 
 628  0Z IP        755 14.91   39                         96   -0.05 9  108 275 
 628  0N ES        755 28.34                              96   -0.22 9  108 275 
 628  0N  IAML     755 29.65         1.9 0.12                           108 275 
 624  0Z IP        755 19.84   42                         58    0.12 7  138 278 
 624  0N ES        755 36.89                              58   -0.05 7  138 278 
 624  0N  IAML     755 38.62         3.4 0.20                           138 278 
                                                                                
 2016  825 1710 26.1 L                       BER                               1
 ACTION:REG 21-01-08 15:31 OP:elen STATUS:               ID:20160825171026     I
 2016-08-25-1710-26M.arct__036                                                 6
 STAT SP IPHASW D HRMM SECON CODA AMPLIT PERI AZIMU VELO AIN AR TRES W  DIS CAZ7
                                                                                
 2016  826  7 2  2.8 L                       BER                               1
 ACTION:REG 21-01-08 15:32 OP:elen STATUS:               ID:20160826070202     I
 2016-08-26-0702-02M.arct__039                                                 6
 STAT SP IPHASW D HRMM SECON CODA AMPLIT PERI AZIMU VELO AIN AR TRES W  DIS CAZ7
                                                                                
 2016  828 1632 37.5 L  73.273 125.160 29.9  BER  3 0.0 1.0LBER 1.3CBER        1
 GAP=340        0.30     139.2   116.0327.3 -0.1583E+05 -0.3728E+05  0.4553E+05E
 ACTION:UP  21-01-10 17:20 OP:elen STATUS:               ID:20160828163141     I
 OLDACT:REG 21-01-08 15:32 OP:elen STATUS:               ID:20160828163141     3
 2016-08-28-1631-41M.arct__036                                                 6
 STAT SP IPHASW D HRMM SECON CODA AMPLIT PERI AZIMU VELO AIN AR TRES W  DIS CAZ7
 622  0Z IP       1632 52.73   35                         67   -0.0310 92.9 177 
 622  0E ES       1633  4.36                              67   -0.0310 92.9 177 
 622  0N  IAML    1633  8.57         4.6 0.27                          92.9 177 
 624  0Z IP       1632 53.20   44                         67   -0.0210 96.2 157 
 624  0N ES       1633  5.17                              67   -0.0210 96.2 157 
 624  0N  IAML    1633  7.65         6.9 0.23                          96.2 157 
 623  0Z IP       1632 54.83   39                         67    0.06 9  108 169 
 623  0E ES       1633  7.99                              67    0.07 9  108 169 
 623  0N  IAML    1633 12.01         3.3 0.23                           108 169 
                                                                                
 2016  828 1751 26.5 L                       BER                               1
 ACTION:REG 21-01-08 15:33 OP:elen STATUS:               ID:20160828175126     I
 2016-08-28-1751-26M.arct__036                                                 6
 STAT SP IPHASW D HRMM SECON CODA AMPLIT PERI AZIMU VELO AIN AR TRES W  DIS CAZ7
                                                                                
 2016  829 1536 44.4 L  71.481 129.562  0.0  BER  3 0.1 0.4LBER 1.2CBER        1
 GAP=334        0.34       5.8    12.0  5.3  0.4135E+02 -0.4039E+02 -0.2293E+02E
 ACTION:UP  21-01-10 17:52 OP:elen STATUS:               ID:20160829153539     I
 OLDACT:REG 21-01-08 15:33 OP:elen STATUS:               ID:20160829153539     3
 2016-08-29-1535-39M.arct__039                                                 6
 STAT SP IPHASW D HRMM SECON CODA AMPLIT PERI AZIMU VELO AIN AR TRES W  DIS CAZ7
 632  0Z IP       1536 47.90   39                         90   -0.1010 20.2 301 
 632  0N ES       1536 50.73                              90   -0.0110 20.2 301 
 632  0E  IAML    1536 52.15        16.3 0.08                          20.2 301 
 630  0Z IP       1536 57.93   32                         65    0.01 8 79.1 327 
 630  0E ES       1537  8.17                              65   -0.02 8 79.1 327 
 630  0N  IAML    1537  9.73         0.8 0.08                          79.1 327 
 625  0Z IP       1537  8.48   39                         65    0.25 6  143 304 
 625  0E ES       1537 26.44                              65    0.11 6  143 304 
 625  0N  IAML    1537 29.64         1.0 0.14                           143 304 
                                                                                
 2016  829 2224 19.0 L  72.203 127.781 19.2  BER  4 0.1 0.8LBER 0.7CBER        1
 GAP=171        0.31       1.1     3.2  3.5  0.1063E+01  0.1479E+01 -0.2770E+00E
 ACTION:UP  21-01-10 18:15 OP:elen STATUS:               ID:20160829222308     I
 OLDACT:REG 21-01-08 15:34 OP:elen STATUS:               ID:20160829222308     3
 2016-08-29-2223-08M.arct__039                                                 6
 STAT SP IPHASW D HRMM SECON CODA AMPLIT PERI AZIMU VELO AIN AR TRES W  DIS CAZ7
 630  0Z IP       2224 24.04   27                        128    0.0210 23.5 127 
 630  0N ES       2224 27.85                             128    0.0210 23.5 127 
 630  0N  IAML    2224 28.01        19.4 0.11                          23.5 127 
 627  0Z IP       2224 24.83   24                        122    0.0910 28.9 251 
 627  0N ES       2224 29.22                             122    0.1110 28.9 251 
 627  0E  IAML    2224 29.60        17.5 0.18                          28.9 251 
 628  0Z IP       2224 24.98   22                        120   -0.0110 30.8 316 
 628  0N ES       2224 29.48                             120   -0.0710 30.8 316 
 628  0N  IAML    2224 29.67        13.1 0.08                          30.8 316 
 629  0Z IP       2224 25.49   28                        117   -0.0410 34.5 208 
 629  0N ES       2224 30.37                             117   -0.1210 34.5 208 
 629  0N  IAML    2224 30.58         7.6 0.22                          34.5 208 
                                                                                
 2016  830 1601 27.0 L  72.018 127.925 11.0  BER  3 0.0 0.9LBER 0.7CBER        1
 GAP=180        0.29       1.9     3.6  4.7 -0.3732E+01  0.1107E+02 -0.2193E+01E
 ACTION:UP  21-01-10 18:29 OP:elen STATUS:               ID:20160830160003     I
 OLDACT:REG 21-01-08 15:34 OP:elen STATUS:               ID:20160830160003     3
 2016-08-30-1600-03M.arct__039                                                 6
 STAT SP IPHASW D HRMM SECON CODA AMPLIT PERI AZIMU VELO AIN AR TRES W  DIS CAZ7
 630  0Z IP       16 1 30.13   30                        123   -0.0110 15.2  65 
 630  0N ES       16 1 32.56                             123    0.0110 15.2  65 
 630  0N  IAML    16 1 33.22       872.2 0.04                          15.2  65 
 629  0Z IP       16 1 31.32   23                        111   -0.0010 23.3 245 
 629  0N ES       16 1 34.63                             111    0.0010 23.3 245 
 629  0N  IAML    16 1 34.87         4.0 0.14                          23.3 245 
 627  0Z IP       16 1 33.03   24                        104    0.02 9 34.3 289 
 627  0N ES       16 1 37.58                             104   -0.01 9 34.3 289 
 627  0N  IAML    16 1 39.41         3.8 0.26                          34.3 289 
                                                                                
 2016  831  321 17.9 L                       BER                               1
 ACTION:REG 21-01-08 15:35 OP:elen STATUS:               ID:20160831032117     I
 2016-08-31-0321-17M.arct__039                                                 6
 STAT SP IPHASW D HRMM SECON CODA AMPLIT PERI AZIMU VELO AIN AR TRES W  DIS CAZ7
                                                                                
