 2016  916 1427 48.3 L  73.269 123.456 12.1  BER  4 0.0 1.7LBER 1.3CBER        1
 GAP=353        0.27      13.3    63.7  2.7  0.8162E+03  0.4423E+02  0.7780E+01E
 ACTION:ARG 20-04-02 17:38 OP:mn   STATUS:               ID:20160916142658     I
 2016-09-16-1426-58M.SIOLA_039                                                 6
 STAT SP IPHASW D HRMM SECON CODA AMPLIT PERI AZIMU VELO AIN AR TRES W  DIS CAZ7
 622  0Z IP     C 1428  6.57   32                         94   -0.0510  111 146 
 622  0E ES       1428 20.53                              94    0.0210  111 146 
 622  0Z  IAML    1428 22.95        16.7 0.26                           111 146 
 623  0Z IP     C 1428  9.76   47                         93    0.06 9  130 143 
 623  0N ES       1428 25.92                              93   -0.02 9  130 143 
 623  0Z  IAML    1428 28.56        10.0 0.34                           130 143 
 625  0Z IP     C 1428 12.99   41                         58    0.06 8  151 143 
 625  0N ES       1428 31.57                              58   -0.04 8  151 143 
 625  0Z  IAML    1428 34.46         7.4 0.34                           151 143 
 626  0Z IP     C 1428 16.42   32                         58   -0.08 7  177 150 
 626  0E ES       1428 37.95                              58    0.05 7  177 150 
 626  0Z  IAML    1428 41.71        18.0 0.55                           177 150 
                                                                                
 2016  916 2310 15.1 L  71.391 129.053 15.6  BER  1 0.0 1.6LBER                1
 GAP=360        0.30       4.5     1.8  0.0  0.2137E+01  0.4423E+02  0.7780E+01E
 ACTION:ARG 20-04-02 17:38 OP:mn   STATUS:               ID:20160916230851     I
 2016-09-16-2308-51M.SIOLA_039                                                 6
 STAT SP IPHASW D HRMM SECON CODA AMPLIT PERI AZIMU VELO AIN AR TRES W  DIS CAZ7
 632  0Z IP     D 2310 19.41                             125    0.0010 20.4   2 
 632  0Z E        2310 19.51                  182.0  5.9      0        20.4   2 
 632  0E ES       2310 22.66                             125   -0.0010 20.4   2 
 632  0Z  IAML    2310 24.03       119.3 0.11                          20.4   2 
                                                                                
 2016  917 2034 22.0 L  72.237 127.124 23.3  BER  4 0.1 0.5LBER-0.8CBER        1
 GAP=280        0.34       4.8     5.5  4.9  0.6663E+00  0.9296E+01  0.1847E+02E
 ACTION:ARG 20-04-02 17:38 OP:mn   STATUS:               ID:20160917203315     I
 2016-09-17-2033-15M.SIOLA_039                                                 6
 STAT SP IPHASW D HRMM SECON CODA AMPLIT PERI AZIMU VELO AIN AR TRES W  DIS CAZ7
 628  0Z IP     D 2034 26.88    5                        141    0.0110 18.2   2 
 628  0E ES       2034 30.51                             141   -0.0610 18.2   2 
 628  0Z  IAML    2034 30.68        12.0 0.09                          18.2   2 
 624  0Z IP     D 2034 29.62    7                        119    0.12 9 39.2 313 
 624  0E ES       2034 35.29                             119    0.08 9 39.2 313 
 624  0Z  IAML    2034 35.98         3.7 0.13                          39.2 313 
 623  0Z IP     C 2034 30.64                             114   -0.05 9 47.4 283 
 623  0E ES       2034 37.41                             114    0.12 9 47.4 283 
 623  0Z  IAML    2034 37.63         1.7 0.22                          47.4 283 
 622  0Z IP     C 2034 33.38   19                        108   -0.03 8 65.5 291 
 622  0E ES       2034 41.87                             108   -0.21 8 65.5 291 
 622  0Z  IAML    2034 47.35         4.3 0.51                          65.5 291 
                                                                                
 2016  920 0154 13.0 L  72.484 126.870 15.7  BER  4 0.9 0.6LBER 0.7CBER        1
 GAP=224       12.05      17.5    62.4 75.8 -0.6101E+03  0.3631E+03 -0.7224E+02E
 ACTION:UP  20-04-15 04:55 OP:alex STATUS:               ID:20160920015258     I
 OLDACT:UP  20-04-05 22:23 OP:alex STATUS:               ID:20160920015258     3
 OLDACT:ARG 20-04-05 21:50 OP:alex STATUS:               ID:20160920015258     3
 2016-09-20-0152-58M.SIOLA_039                                                 6
 STAT SP IPHASW D HRMM SECON CODA AMPLIT PERI AZIMU VELO AIN AR TRES W  DIS CAZ7
 628  0Z EP     C  154 16.69   29                        138    0.2610 13.2 135 
 628  0Z E         154 16.71                  345.0  7.8     30        13.2 135 
 628  0E ES        154 19.95                             138    0.9210 13.2 135 
 628  0Z  IAML     154 20.12         5.1 0.14                          13.2 135 
 628  0N  IAML     154 20.18         8.1 0.12                          13.2 135 
 624  0Z EP     C  154 16.94   23                        126   -0.3110 20.0 268 
 624  0Z E         154 16.95                  158.6  4.9     71        20.0 268 
 624  0E ES        154 20.19                             126   -0.2710 20.0 268 
 624  0N  IAML     154 20.26        23.2 0.21                          20.0 268 
 624  0E  IAML     154 20.32        28.6 0.11                          20.0 268 
 624  0Z  IAML     154 20.57        16.5 0.26                          20.0 268 
 622  0Z EP     C  154 21.45                             104   -0.64 9 52.6 266 
 622  0E ES        154 28.11                             104   -0.88 9 52.6 266 
 630  0Z EP     C  154 24.91                             100    0.51 8 67.3 132 
 630  0E ES        154 33.31                             100    0.25 8 67.3 132 
                                                                                
 2016  920 0712 48.5 L  71.585 129.087 15.6  BER  3 0.8 0.5LBER 1.1CBER        1
 GAP=252        5.19      23.7    30.9 25.0  0.7284E+03  0.5914E+02  0.4335E+02E
 ACTION:UP  20-04-15 05:08 OP:alex STATUS:               ID:20160920071207     I
 OLDACT:UP  20-04-05 22:22 OP:alex STATUS:               ID:20160920071207     3
 OLDACT:ARG 20-04-05 21:50 OP:alex STATUS:               ID:20160920071207     3
 2016-09-20-0712-07M.SIOLA_039                                                 6
 STAT SP IPHASW D HRMM SECON CODA AMPLIT PERI AZIMU VELO AIN AR TRES W  DIS CAZ7
 632  0Z EP     C  712 50.30   34                        175   -0.8210 1.35 202 
 632  0Z E         712 50.31                   19.7  6.6     -2        1.35 202 
 632  0E ES        712 54.08                             175    0.9710 1.35 202 
 632  0Z  IAML     712 54.45        10.4 0.12                          1.35 202 
 631  0Z EP     C  712 57.90   36                        100   -2.19 8 68.5 253 
 631  0Z E         712 57.91                   97.8  5.0     26        68.5 253 
 631  0N ES        713  6.85                             100   -2.04 8 68.5 253 
 627  0Z EP     C  713  5.60   28                         97    1.40 7 94.2 310 
 627  0Z E         713  5.60                  111.6  8.7    -15        94.2 310 
 627  0E ES        713 19.77                              97    3.64 7 94.2 310 
 627  0Z  IAML     713 21.39         2.4 0.18                          94.2 310 
                                                                                
 2016  920 1607 18.3 L  69.237 128.350 16.2  BER  4 0.7 2.6LBER 2.4CBER        1
 GAP=345        1.10     872.7   276.8999.9 -0.1092E+06  0.1347E+06 -0.9286E+06E
 ACTION:UP  20-04-15 05:22 OP:alex STATUS:               ID:20160920160640     I
 OLDACT:UP  20-04-05 22:34 OP:alex STATUS:               ID:20160920160640     3
 OLDACT:ARG 20-04-05 21:50 OP:alex STATUS:               ID:20160920160640     3
 2016-09-20-1606-40M.SIOLA_039                                                 6
 STAT SP IPHASW D HRMM SECON CODA AMPLIT PERI AZIMU VELO AIN AR TRES W  DIS CAZ7
 631  0Z EP     C 16 7 56.34   80                         51    1.2810  245 351 
 631  0Z E        16 7 56.42                  195.4  8.5     26         245 351 
 631  0E ES       16 8 23.34                              51    0.3310  245 351 
 631  0E  IAML    16 8 25.86        64.4 0.23                           245 351 
 631  0Z  IAML    16 8 26.84        39.4 0.59                           245 351 
 631  0N  IAML    16 8 31.22        27.8 0.80                           245 351 
 632  0Z EP     C 16 7 56.71   78                         51   -0.52 7  262   6 
 632  0Z E        16 7 56.76                  184.1  5.6     -1         262   6 
 632  0E ES       16 8 23.88                              51   -2.95 7  262   6 
 632  0Z  IAML    16 8 28.97        44.1 0.78                           262   6 
 629  0Z EP     C 16 8  6.29   80                         51    3.97 0  303 353 
 629  0Z E        16 8  6.31                  187.2  5.9     15         303 353 
 629  0E ES       16 8 37.98                              51    2.20 0  303 353 
 629  0E  IAML    16 8 39.18        32.8 0.50                           303 353 
 629  0Z  IAML    16 8 39.38        17.7 0.63                           303 353 
 629  0N  IAML    16 8 43.77        13.5 0.78                           303 353 
 625  0Z EP     C 16 8 13.64   88                         51    6.93 0  338 347 
 625  0Z E        16 8 13.65                  163.5  5.7      0         338 347 
 625  0E ES       16 8 48.87                              51    5.36 0  338 347 
 625  0Z  IAML    16 8 54.77        24.0 0.35                           338 347 
 625  0E  IAML    16 8 58.26        22.6 0.44                           338 347 
 625  0N  IAML    16 9  3.65        26.2 0.52                           338 347 
                                                                                
 2016  922 1558 52.4 L  72.188 126.724 12.7  BER  3 0.6 0.6LBER 0.3CBER        1
 GAP=270        8.30      29.6    61.6 88.8  0.2292E+03  0.2483E+04  0.7162E+03E
 ACTION:UP  20-04-15 05:29 OP:alex STATUS:               ID:20160922155740     I
 OLDACT:UP  20-04-05 22:45 OP:alex STATUS:               ID:20160922155740     3
 OLDACT:ARG 20-04-05 21:50 OP:alex STATUS:               ID:20160922155740     3
 2016-09-22-1557-40M.SIOLA_039                                                 6
 STAT SP IPHASW D HRMM SECON CODA AMPLIT PERI AZIMU VELO AIN AR TRES W  DIS CAZ7
 628  0Z EP     C 1558 57.73   18                        111    0.2010 27.7  31 
 628  0Z E        1558 57.74                  228.4  5.2     17        27.7  31 
 628  0E ES       1559  0.21                             111   -1.1910 27.7  31 
 628  0Z  IAML    1559  0.52        16.2 0.14                          27.7  31 
 624  0Z EP     C 1558 58.88   21   12.4 0.24            106    0.1410 35.6 335 
 624  0Z E        1558 58.89                  201.0  4.8     47        35.6 335 
 624  0E ES       1559  2.25                             106   -1.2810 35.6 335 
 624  0Z  IAML    1559  2.48        12.4 0.24                          35.6 335 
 622  0Z EP     C 1559  3.69   19                         99    1.79 9 55.6 301 
 622  0Z E        1559  3.69                  139.4  9.0     19        55.6 301 
 622  0E ES       1559  9.84                              99    0.75 9 55.6 301 
 622  0N  IAML    1559 10.22         2.8 0.21                          55.6 301 
 622  0Z  IAML    1559 10.58         2.9 0.60                          55.6 301 
 622  0E  IAML    1559 10.95         3.0 0.12                          55.6 301 
                                                                                
 2016  923 0206  3.9 L  72.616 125.335 10.8  BER  3 0.1 0.2LBER 0.3CBER        1
 GAP=198        0.60       2.1     5.1 11.9  0.1316E+01 -0.6498E+01 -0.1277E+02E
 ACTION:UP  20-04-15 05:46 OP:alex STATUS:               ID:20160923020443     I
 OLDACT:UP  20-04-05 22:54 OP:alex STATUS:               ID:20160923020443     3
 OLDACT:ARG 20-04-05 21:50 OP:alex STATUS:               ID:20160923020443     3
 2016-09-23-0204-43M.SIOLA_039                                                 6
 STAT SP IPHASW D HRMM SECON CODA AMPLIT PERI AZIMU VELO AIN AR TRES W  DIS CAZ7
 622  0Z IP     D  2 6  7.37                             115   -0.2510 19.4 182 
 622  0E IS        2 6 10.34                             115   -0.1310 19.4 182 
 620  0Z EP     C  2 6  9.59   16                        104   -0.1310 33.2 278 
 620  0N ES        2 6 14.47                             104    0.3010 33.2 278 
 620  0Z  IAML     2 6 14.81         2.1 0.14                          33.2 278 
 620  0E  IAML     2 6 14.86         2.3 0.19                          33.2 278 
 624  0Z EP     C  2 6  9.89   24                        103   -0.14 9 35.1 116 
 624  0Z E         2 6  9.91                  297.6 13.4      1        35.1 116 
 624  0E ES        2 6 15.11                             103    0.40 9 35.1 116 
 624  0Z  IAML     2 6 15.22         6.6 0.14                          35.1 116 
 624  0N  IAML     2 6 15.59         2.4 0.18                          35.1 116 
 624  0E  IAML     2 6 15.83         4.3 0.18                          35.1 116 
                                                                                
 2016  924 0948 51.1 L  71.746 129.127  0.6  BER  3 0.2 0.7LBER 0.9CBER        1
 GAP=228        1.58      12.5     9.8 45.0  0.4382E+02 -0.1143E+03 -0.5263E+03E
 ACTION:UP  20-04-15 12:10 OP:alex STATUS:               ID:20160924094805     I
 OLDACT:UP  20-04-05 23:01 OP:alex STATUS:               ID:20160924094805     3
 OLDACT:ARG 20-04-05 21:50 OP:alex STATUS:               ID:20160924094805     3
 2016-09-24-0948-05M.SIOLA_039                                                 6
 STAT SP IPHASW D HRMM SECON CODA AMPLIT PERI AZIMU VELO AIN AR TRES W  DIS CAZ7
 632  0Z IP     C  948 54.34   23                         92   -0.2510 19.3 186 
 632  0Z E         948 54.35                    5.0  5.2      0        19.3 186 
 632  0E IS        948 57.21                              92   -0.0010 19.3 186 
 632  0Z  IAML     948 57.31        16.5 0.18                          19.3 186 
 632  0N  IAML     948 57.39        21.6 0.11                          19.3 186 
 632  0E  IAML     948 57.40        35.8 0.12                          19.3 186 
 628  0Z EP     C  949  8.24                              65    0.29 7 99.7 318 
 628  0E ES        949 20.38                              65   -0.35 7 99.7 318 
 628  0Z  IAML     949 21.13         1.8 0.22                          99.7 318 
 624  0Z EP     C  949 13.13   36                         65    0.74 6  127 311 
 624  0Z E         949 13.14                  114.4  4.5    -13         127 311 
 624  0E ES        949 28.55                              65    0.01 6  127 311 
 624  0Z  IAML     949 30.94         1.9 0.21                           127 311 
                                                                                
 2016  925 1232  2.7 L  72.230 127.684  0.0  BER  3 0.2 0.4LBER 0.8CBER        1
 GAP=172        1.44       2.8     9.4 14.8 -0.4972E+01  0.5601E+02 -0.1021E+02E
 2016-09-25-1230-51M.SIOLA_039                                                 6
 ACTION:UP  20-04-15 12:25 OP:alex STATUS:               ID:20160925123051     I
 OLDACT:UP  20-04-05 23:08 OP:alex STATUS:               ID:20160925123051     3
 OLDACT:DPH 20-04-05 23:04 OP:alex STATUS:               ID:20160925123051     3
 STAT SP IPHASW D HRMM SECON CODA AMPLIT PERI AZIMU VELO AIN AR TRES W  DIS CAZ7
 628  0Z EP     C 1232  6.99   18                         90   -0.3910 26.3 316 
 628  0Z E        1232  7.00                  138.9  6.4      3        26.3 316 
 628  0E ES       1232 10.51                              90   -0.4310 26.3 316 
 628  0Z  IAML    1232 11.87         7.0 0.32                          26.3 316 
 630  0Z EP     C 1232  7.75   30                         90    0.0710 27.9 128 
 630  0Z E        1232  7.76                  306.0  4.2     -2        27.9 128 
 630  0E ES       1232 11.44                              90   -0.0310 27.9 128 
 630  0E  IAML    1232 11.88         5.3 0.09                          27.9 128 
 630  0Z  IAML    1232 11.96         4.7 0.15                          27.9 128 
 630  0N  IAML    1232 12.23         4.1 0.25                          27.9 128 
 624  0Z EP     C 1232 13.07   33                         65    0.75 9 55.0 301 
 624  0Z E        1232 13.08                  111.8 11.8     -6        55.0 301 
 624  0N ES       1232 19.88                              65    0.23 9 55.0 301 
 624  0N  IAML    1232 21.17         4.8 0.26                          55.0 301 
 624  0E  IAML    1232 21.43         3.6 0.30                          55.0 301 
 624  0Z  IAML    1232 21.70         2.4 0.46                          55.0 301 
                                                                                
 2016  925 1911  5.6 L  69.225 127.688 15.6  BER  4 0.7 2.3LBER 2.5CBER        1
 GAP=346        0.88     811.3   213.0992.0  0.1407E+05 -0.1711E+05 -0.8026E+06E
 ACTION:UP  20-04-15 12:36 OP:alex STATUS:               ID:20160925191028     I
 OLDACT:UP  20-04-05 23:20 OP:alex STATUS:               ID:20160925191028     3
 OLDACT:ARG 20-04-05 21:50 OP:alex STATUS:               ID:20160925191028     3
 2016-09-25-1910-28M.SIOLA_039                                                 6
 STAT SP IPHASW D HRMM SECON CODA AMPLIT PERI AZIMU VELO AIN AR TRES W  DIS CAZ7
 631  0Z EP     C 1911 43.28   93                         51    1.0910  243 356 
 631  0Z E        1911 43.29                  192.7  4.7     17         243 356 
 631  0E ES       1912 10.59                              51    0.5610  243 356 
 631  0Z  IAML    1912 11.76        20.9 0.22                           243 356 
 632  0Z EP     C 1911 44.08   95                         51   -1.12 6  267  11 
 632  0Z E        1911 44.10                  186.0  4.9     -5         267  11 
 632  0E ES       1912 11.44                              51   -3.88 6  267  11 
 632  0E  IAML    1912 14.29        21.9 0.25                           267  11 
 632  0Z  IAML    1912 15.95        11.2 0.42                           267  11 
 632  0N  IAML    1912 16.06        14.4 0.32                           267  11 
 630  0Z EP     C 1911 53.97   87                         51    2.31 0  319   4 
 630  0Z E        1911 53.98                  256.0  6.4     71         319   4 
 630  0E ES       1912 27.39                              51    0.69 0  319   4 
 630  0E  IAML    1912 28.10        24.2 0.46                           319   4 
 630  0Z  IAML    1912 28.98        11.2 0.60                           319   4 
 630  0N  IAML    1912 29.21         7.8 0.28                           319   4 
 628  0Z EP     C 1912  1.65   84                         51    5.49 0  355 357 
 628  0Z E        1912  1.66                   69.4  8.3    -99         355 357 
 628  0E ES       1912 38.75                              51    4.14 0  355 357 
 628  0Z  IAML    1912 45.10         9.2 0.42                           355 357 
                                                                                
