 2016  818 1613  9.3 L  72.991 124.878 22.8  BER  6 0.1 1.1LBER 1.0CBER        1
 GAP=295        0.28       2.0     5.0  1.9  0.1492E+01 -0.3156E+01 -0.1002E+01E
 ACTION:ARG 20-05-11 21:31 OP:mn   STATUS:               ID:20160818161147     I
 2016-08-18-1611-47M.arct__039                                                 6
 STAT SP IPHASW D HRMM SECON CODA AMPLIT PERI AZIMU VELO AIN AR TRES W  DIS CAZ7
 620  0Z IP     C 1613 16.96                             117   -0.1610 41.5 205 
 620  0E ES       1613 23.16                             117    0.1110 41.5 205 
 620  0Z  IAML    1613 24.06       191.9 0.08                          41.5 205 
 622  0Z IP     D 1613 20.44   30                        108    0.11 9 62.9 167 
 622  0E ES       1613 28.63                             108   -0.06 9 62.9 167 
 622  0Z  IAML    1613 29.83         3.6 0.20                          62.9 167 
 624  0Z IP     C 1613 22.00   23                        105   -0.00 9 73.8 140 
 624  0E ES       1613 31.70                             105    0.06 9 73.8 140 
 624  0Z  IAML    1613 32.34         9.1 0.30                          73.8 140 
 623  0Z IP     D 1613 22.97   30                        104    0.03 9 79.8 158 
 623  0N ES       1613 33.18                             104   -0.11 9 79.8 158 
 623  0Z  IAML    1613 34.86         4.9 0.65                          79.8 158 
 621  0Z IP     C 1613 24.61   39                        102    0.06 8 90.0 180 
 621  0E ES       1613 36.08                             102   -0.04 8 90.0 180 
 621  0Z  IAML    1613 36.41         5.9 0.35                          90.0 180 
 626  0Z IP     C 1613 30.03   39                         58   -0.03 7  129 162 
 626  0E ES       1613 45.87                              58    0.04 7  129 162 
 626  0Z  IAML    1613 47.36         3.0 0.23                           129 162 
                                                                                
 2016  818 1613  9.1 L  73.003 124.857 23.1  BER  6 0.1 1.4LBER 1.2CBER        1
 GAP=297        0.25       1.9     4.7  1.7  0.1242E+01 -0.2705E+01 -0.8853E+00E
 ACTION:ARG 20-05-11 21:31 OP:mn   STATUS:               ID:20160818161218     I
 2016-08-18-1612-18M.arct__039                                                 6
 STAT SP IPHASW D HRMM SECON CODA AMPLIT PERI AZIMU VELO AIN AR TRES W  DIS CAZ7
 620  0Z IP     C 1613 16.96   50                        117   -0.0910 42.4 204 
 620  0E ES       1613 23.10                             117    0.0010 42.4 204 
 620  0Z  IAML    1613 24.06       187.0 0.08                          42.4 204 
 622  0Z IP     C 1613 20.42   40                        108    0.08 9 64.4 166 
 622  0E ES       1613 28.96                             108    0.08 9 64.4 166 
 622  0Z  IAML    1613 30.04       165.3 0.08                          64.4 166 
 624  0Z IP     C 1613 22.04   32                        105    0.02 9 75.3 141 
 624  0E ES       1613 31.71                             105   -0.13 9 75.3 141 
 624  0Z  IAML    1613 32.34         8.6 0.33                          75.3 141 
 623  0Z IP     D 1613 22.98   31                        104    0.02 8 81.3 158 
 623  0E ES       1613 33.55                             104    0.05 8 81.3 158 
 623  0Z  IAML    1613 34.86         4.7 0.64                          81.3 158 
 621  0Z IP     D 1613 24.62   27                        102    0.07 8 91.4 179 
 621  0N ES       1613 36.22                             102   -0.07 8 91.4 179 
 621  0Z  IAML    1613 36.41         5.9 0.35                          91.4 179 
 626  0Z IP     C 1613 30.01   33                         58   -0.01 7  131 162 
 626  0E ES       1613 45.90                              58   -0.03 7  131 162 
 626  0Z  IAML    1613 47.01         3.6 0.19                           131 162 
                                                                                
 2016  819 0123 17.7 L  72.486 126.372 15.6  BER  1 0.0-0.3LBER-0.1CBER        1
 GAP=360        0.30       5.0    50.0  0.0  0.2481E+03 -0.2705E+01 -0.8853E+00E
 ACTION:ARG 20-05-11 21:31 OP:mn   STATUS:               ID:20160819012156     I
 2016-08-19-0121-56M.arct__039                                                 6
 STAT SP IPHASW D HRMM SECON CODA AMPLIT PERI AZIMU VELO AIN AR TRES W  DIS CAZ7
 624  0Z IP     D  123 20.36   14                        167    0.0410 3.43 252 
 624  0Z E         123 20.43                   71.8 14.0      0        3.43 252 
 624  0N ES        123 22.30                             167   -0.0410 3.43 252 
 624  0Z  IAML     123 23.07         2.7 0.13                          3.43 252 
                                                                                
 2016  819 0935 18.3 L  71.927 127.815 22.9  BER  3 0.0 0.1LBER 0.2CBER        1
 GAP=152        0.30       2.1     5.9  3.7 -0.9396E+01 -0.1344E+02  0.5905E+01E
 ACTION:ARG 20-05-11 21:31 OP:mn   STATUS:               ID:20160819093400     I
 2016-08-19-0934-00M.arct__039                                                 6
 STAT SP IPHASW D HRMM SECON CODA AMPLIT PERI AZIMU VELO AIN AR TRES W  DIS CAZ7
 629  0Z IP     D  935 23.04   15                        142   -0.0310 17.4 271 
 629  0N ES        935 26.69                             142    0.0110 17.4 271 
 629  0Z  IAML     935 26.80         2.6 0.12                          17.4 271 
 630  0Z IP     C  935 23.78   18                        132   -0.0310 24.1  47 
 630  0N ES        935 28.00                             132    0.0210 24.1  47 
 630  0Z  IAML     935 28.26         2.5 0.07                          24.1  47 
 631  0Z IP     C  935 29.29   22                        108    0.08 8 62.2 199 
 631  0E ES        935 37.45                             108   -0.04 8 62.2 199 
 631  0Z  IAML     935 37.65         1.8 0.19                          62.2 199 
                                                                                
 2016  819 0959 27.0 L  71.913 129.832 14.4  BER  4 0.3 3.8LBER-0.1CBER        1
 GAP=274        0.54       4.6    23.6 26.6  0.9052E+02 -0.4633E+03 -0.1039E+03E
 ACTION:ARG 20-05-11 21:31 OP:mn   STATUS:               ID:20160819095819     I
 2016-08-19-0958-19M.arct__039                                                 6
 STAT SP IPHASW D HRMM SECON CODA AMPLIT PERI AZIMU VELO AIN AR TRES W  DIS CAZ7
 632  0Z IP     C  959 34.92                             104   -0.1510 46.3 215 
 632  0N ES        959 41.18                             104   -0.0010 46.3 215 
 632  0Z  IAML     959 42.21      1943.9 0.10                          46.3 215 
 630  0Z IP        959 36.48   14                        102    0.0210 55.1 290 
 630  0N ES        959 43.80                             102    0.1810 55.1 290 
 630  0Z  IAML     959 44.37      5529.0 0.23                          55.1 290 
 627  0Z IP     D  959 44.14                              96    0.37 8  101 284 
 627  0N ES        959 56.54                              96    0.06 8  101 284 
 627  0Z  IAML     959 57.59      3535.2 0.50                           101 284 
 628  0Z IP     D  959 44.82                              96    0.11 8  107 302 
 628  0E ES        959 57.50                              96   -0.63 8  107 302 
 628  0Z  IAML     959 57.92      7787.0 0.28                           107 302 
                                                                                
 2016  819 0959 27.3 L  71.923 129.765 12.1  BER 13 0.4 4.0LBER                1
 GAP=270        0.60       2.2    11.1  5.5  0.1093E+02 -0.9963E+01 -0.3864E+01E
 ACTION:REG 25-04-10 18:57 OP:mn   STATUS:               ID:20160819095900     I
 2016_08_19T09-59-00.mseed                                                     6
 STAT SP IPHASW D HRMM SECON CODA AMPLIT PERI AZIMU VELO AIN AR TRES W  DIS CAZ7
 632  0E IP        959 35.00                             101   -0.2010 45.9 212 
 632  0N ES        959 40.95                             101   -0.2510 45.9 212 
 632  0Z  IAML     959 42.18      3428.0 0.50                          45.9 212 
 630  0Z IP        959 35.80                              99   -0.4510 52.5 289 
 630  0N ES        959 42.95                              99   -0.0910 52.5 289 
 630  0Z  IAML     959 46.27      6335.7 0.50                          52.5 289 
 629  0Z IP        959 41.61                              95    0.17 8 84.9 272 
 629  0N ES        959 52.54                              95    0.36 8 84.9 272 
 629  0Z  IAML     959 54.21      5389.1 0.68                          84.9 272 
 627  0Z IP        959 43.92                              95    0.33 8 98.3 284 
 627  0N ES        959 56.12                              95    0.15 8 98.3 284 
 627  0Z  IAML     959 57.55      6763.1 0.60                          98.3 284 
 628  0Z IP        959 44.91                              94    0.39 8  104 302 
 628  0N ES        959 57.57                              94   -0.04 8  104 302 
 628  0Z  IAML     959 57.77     13247.3 0.30                           104 302 
 631  0Z IP        959 45.27                              94    0.44 8  106 238 
 631  0N ES        959 58.28                              94    0.13 8  106 238 
 631  0Z  IAML    10 0  1.30      2476.7 0.62                           106 238 
 625  0Z IP        959 48.89                              93    0.37 7  129 284 
 625  0N ES       10 0  4.75                              93    0.11 7  129 284 
 626  0Z IP        959 48.58                              93   -0.00 7  129 270 
 626  0N ES       10 0  4.52                              93   -0.24 7  129 270 
 626  0Z  IAML    10 0 10.31      1874.4 0.66                           129 270 
 624  0Z IP        959 49.30                              93   -0.05 7  134 299 
 624  0N ES       10 0  5.26                              93   -0.85 7  134 299 
 624  0Z  IAML    10 0  8.14      5848.4 0.52                           134 299 
 623  0Z IP        959 51.25                              93    0.24 6  144 290 
 623  0N ES       10 0  9.06                              93    0.04 6  144 290 
 623  0Z  IAML    10 0 14.10      3316.0 0.94                           144 290 
 622  0Z  IAML    10 0 18.96      1930.7 0.68                           163 293 
 621  0Z IP        959 55.04                              58    0.45 5  170 282 
 621  0N ES       10 0 15.56                              58    0.24 5  170 282 
 621  0Z  IAML    10 0 16.65      3575.6 0.48                           170 282 
 620  0Z IP        959 58.46                              58   -0.37 4  201 296 
 620  0N ES       10 0 21.35                              58   -1.45 4  201 296 
 620  0Z  IAML    10 0 30.78      4656.0 8.67                           201 296 
                                                                                
 2016  819 1004 43.7 L  71.860 129.815 27.6  BER  3 0.0 0.7LBER 1.0CBER        1
 GAP=284        0.30       2.0    11.5  2.7  0.1194E+02 -0.2189E+01 -0.2936E+01E
 ACTION:ARG 20-05-11 21:31 OP:mn   STATUS:               ID:20160819100343     I
 2016-08-19-1003-43M.arct__039                                                 6
 STAT SP IPHASW D HRMM SECON CODA AMPLIT PERI AZIMU VELO AIN AR TRES W  DIS CAZ7
 632  0Z IP     D 10 4 51.84   27                        116    0.0210 41.2 219 
 632  0E ES       10 4 57.95                             116   -0.0110 41.2 219 
 632  0Z  IAML    10 4 58.97         2.8 0.08                          41.2 219 
 630  0Z IP     C 10 4 53.94   30                        105   -0.07 9 56.8 296 
 630  0N ES       10 5  1.85                             105    0.04 9 56.8 296 
 630  0Z  IAML    10 5  2.80         3.7 0.25                          56.8 296 
 627  0Z IP     D 10 5  0.49   34                         67    0.07 8  102 288 
 627  0N ES       10 5 13.05                              67   -0.04 8  102 288 
 627  0Z  IAML    10 5 16.33         7.2 0.92                           102 288 
                                                                                
 2016  819 1006 33.6 L  71.895 129.827 19.1  BER  4 0.2 0.9LBER 1.2CBER        1
 GAP=277        0.47       4.2    15.6  6.0  0.4234E+02 -0.4761E+02 -0.2018E+02E
 ACTION:ARG 20-05-11 21:31 OP:mn   STATUS:               ID:20160819100554     I
 2016-08-19-1005-54M.arct__039                                                 6
 STAT SP IPHASW D HRMM SECON CODA AMPLIT PERI AZIMU VELO AIN AR TRES W  DIS CAZ7
 632  0Z IP     D 10 6 41.42   34                        111   -0.1410 44.5 217 
 632  0N ES       10 6 47.64                             111    0.0110 44.5 217 
 632  0Z  IAML    10 6 48.60       182.8 0.04                          44.5 217 
 629  0Z IP     D 10 6 48.46   33                        100    0.24 8 87.2 274 
 629  0N ES       10 6 59.65                             100    0.29 8 87.2 274 
 629  0Z  IAML    10 7  0.61         1.2 0.16                          87.2 274 
 627  0Z IP     C 10 6 50.57   37                         99    0.13 8  101 286 
 627  0N ES       10 7  2.80                              99   -0.47 8  101 286 
 627  0Z  IAML    10 7  3.45         1.4 0.18                           101 286 
 624  0Z IP     C 10 6 55.78   37                         58    0.00 6  138 300 
 624  0E ES       10 7 12.61                              58   -0.05 6  138 300 
 624  0Z  IAML    10 7 14.51         1.2 0.15                           138 300 
                                                                                
 2016  819 1048 31.4 L  72.003 129.784 12.0  BER  4 0.1 0.8LBER 1.0CBER        1
 GAP=328        0.29       3.3     8.9  3.6  0.1251E+01 -0.5315E+01  0.1955E+00E
 ACTION:ARG 20-05-11 21:31 OP:mn   STATUS:               ID:20160819104750     I
 2016-08-19-1047-50M.arct__039                                                 6
 STAT SP IPHASW D HRMM SECON CODA AMPLIT PERI AZIMU VELO AIN AR TRES W  DIS CAZ7
 629  0Z IP     C 1048 45.65   27                         95   -0.0110 85.8 266 
 629  0E ES       1048 56.59                              95    0.0810 85.8 266 
 629  0Z  IAML    1048 57.23         1.4 0.16                          85.8 266 
 627  0Z IP     D 1048 47.41   25                         95   -0.08 9 97.2 279 
 627  0N ES       1048 59.64                              95   -0.09 9 97.2 279 
 627  0Z  IAML    1049  1.46         3.7 0.21                          97.2 279 
 628  0Z IP     D 1048 47.99   36                         94   -0.00 9  100 297 
 628  0E ES       1049  0.67                              94    0.06 9  100 297 
 628  0Z  IAML    1049  0.96         4.5 0.30                           100 297 
 621  0Z IP     C 1048 58.74   39                         58    0.20 6  169 279 
 621  0N ES       1049 19.07                              58   -0.11 6  169 279 
 621  0Z  IAML    1049 20.17         1.4 0.12                           169 279 
                                                                                
 2016  819 1053 17.2 L  71.961 129.678 16.4  BER  4 0.1 0.1LBER 0.7CBER        1
 GAP=328        0.29       3.2     9.5  9.2  0.1543E+01 -0.5052E+02  0.3452E+01E
 ACTION:ARG 20-05-11 21:31 OP:mn   STATUS:               ID:20160819105216     I
 2016-08-19-1052-16M.arct__039                                                 6
 STAT SP IPHASW D HRMM SECON CODA AMPLIT PERI AZIMU VELO AIN AR TRES W  DIS CAZ7
 630  0Z IP     C 1053 25.65   21                        106    0.0310 48.3 286 
 630  0N ES       1053 32.03                             106   -0.0110 48.3 286 
 630  0Z  IAML    1053 35.40         0.7 0.06                          48.3 286 
 629  0Z IP     C 1053 30.80   24                         99   -0.11 9 81.9 269 
 629  0N ES       1053 41.38                              99    0.02 9 81.9 269 
 629  0Z  IAML    1053 43.98         0.5 0.09                          81.9 269 
 627  0Z IP     C 1053 32.90   28                         98   -0.01 8 94.4 282 
 627  0E ES       1053 44.96                              98    0.08 8 94.4 282 
 627  0Z  IAML    1053 46.92         1.2 0.19                          94.4 282 
 628  0Z IP     C 1053 33.82   28                         97    0.11 8 99.4 301 
 628  0N ES       1053 46.17                              97   -0.10 8 99.4 301 
 628  0Z  IAML    1053 48.30         0.9 0.17                          99.4 301 
                                                                                
 2016  819 1058  4.7 L  72.076 129.756 13.9  BER  5 0.1 1.8LBER 1.6CBER        1
 GAP=344        0.28       6.9    10.8  2.4  0.3247E+02 -0.4828E-01  0.2243E+01E
 ACTION:ARG 20-05-11 21:31 OP:mn   STATUS:               ID:20160819105706     I
 2016-08-19-1057-06M.arct__039                                                 6
 STAT SP IPHASW D HRMM SECON CODA AMPLIT PERI AZIMU VELO AIN AR TRES W  DIS CAZ7
 624  0Z  IAML    1058 44.16        33.8 0.22                           126 292 
 625  0Z IP     D 1058 25.30   41                         94   -0.0510  126 277 
 625  0N ES       1058 41.01                              94   -0.0610  126 277 
 624  0Z IP     C 1058 25.46   45                         94   -0.0410  126 292 
 624  0N ES       1058 41.25                              94   -0.0810  126 292 
 625  0Z  IAML    1058 43.29        11.5 0.14                           126 277 
 623  0Z IP     D 1058 27.72   46                         58    0.17 9  139 283 
 623  0E ES       1058 45.20                              58    0.26 9  139 283 
 623  0Z  IAML    1058 47.36        17.1 0.20                           139 283 
 622  0Z IP     C 1058 29.94   52                         58    0.01 8  157 287 
 622  0N ES       1058 49.04                              58   -0.08 8  157 287 
 622  0Z  IAML    1058 52.09        12.8 0.20                           157 287 
 621  0Z IP     C 1058 31.27   52                         58   -0.11 8  167 276 
 621  0N ES       1058 51.63                              58   -0.05 8  167 276 
 621  0Z  IAML    1058 53.29        22.8 0.16                           167 276 
                                                                                
