 2016  8 3 0737 54.5 L  72.790 127.098 10.8  BER  4 0.3 0.5LBER 0.4CBER        1
 GAP=294        0.56       4.8     9.9  5.7  0.9980E+01 -0.1449E+02 -0.4655E+01E
 ACTION:ARG 20-05-11 21:31 OP:mn   STATUS:               ID:20160803073638     I
 2016-08-03-0736-38M.arct__036                                                 6
 STAT SP IPHASW D HRMM SECON CODA AMPLIT PERI AZIMU VELO AIN AR TRES W  DIS CAZ7
 628  0Z IP     C  738  1.68   16                        100   -0.3210 43.5 178 
 628  0E ES        738  7.39                             100   -0.2910 43.5 178 
 628  0Z  IAML     738  8.97         2.7 0.20                          43.5 178 
 624  0Z IP     C  738  2.16   24                        100    0.0110 44.5 218 
 624  0E ES        738  8.19                             100    0.2410 44.5 218 
 624  0Z  IAML     738 10.18         3.4 0.63                          44.5 218 
 630  0Z IP     D  738  9.70   23                         94    0.28 8 89.8 152 
 630  0E ES        738 21.11                              94    0.36 8 89.8 152 
 630  0Z  IAML     738 22.14         1.1 0.17                          89.8 152 
 631  0Z IP     D  738 19.63                              58   -0.23 6  155 178 
 631  0E ES        738 39.16                              58    0.04 6  155 178 
 631  0Z  IAML     738 40.04         2.1 0.46                           155 178 
                                                                                
 2016  8 3 1524  6.6 L  71.346 130.508  0.0  BER  4 0.4 1.1LBER 1.4CBER        1
 GAP=351        0.51      33.0    47.6 14.8  0.1302E+04 -0.1257E+03 -0.2790E+03E
 ACTION:ARG 20-05-11 21:31 OP:mn   STATUS:               ID:20160803152327     I
 2016-08-03-1523-27M.arct__036                                                 6
 STAT SP IPHASW D HRMM SECON CODA AMPLIT PERI AZIMU VELO AIN AR TRES W  DIS CAZ7
 632  0Z IP     D 1524 16.23   30                         65   -0.3110 56.9 297 
 632  0N ES       1524 24.20                              65    0.1010 56.9 297 
 632  0Z  IAML    1524 27.19         9.5 0.21                          56.9 297 
 625  0Z IP     C 1524 36.98   44                         65    0.69 5  179 303 
 625  0N ES       1524 58.56                              65   -0.30 5  179 303 
 625  0Z  IAML    1524 59.58         2.2 0.23                           179 303 
 623  0Z IP     C 1524 38.99   42                         50    0.12 4  198 306 
 623  0N ES       1525  3.23                              50   -0.17 4  198 306 
 623  0Z  IAML    1525  4.31         1.7 0.24                           198 306 
 621  0Z IP     D 1524 42.39   51                         50    0.88 3  217 298 
 621  0N ES       1525  8.29                              50    0.25 3  217 298 
 621  0Z  IAML    1525  9.42         3.6 0.44                           217 298 
                                                                                
 2016  8 4 0253  0.1 L  72.661 124.920  4.2  BER  3 0.1 1.6LBER 1.0CBER        1
 GAP=322        0.32      24.7    92.2 74.8 -0.2260E+04 -0.6861E+04  0.1840E+04E
 ACTION:ARG 20-05-11 21:31 OP:mn   STATUS:               ID:20160804025135     I
 2016-08-04-0251-35M.arct__036                                                 6
 STAT SP IPHASW D HRMM SECON CODA AMPLIT PERI AZIMU VELO AIN AR TRES W  DIS CAZ7
 622  0Z IP     D  253  4.96   23                         65   -0.0810 27.8 152 
 622  0E ES        253  8.82                              65    0.0410 27.8 152 
 622  0Z  IAML     253  9.03        46.9 0.14                          27.8 152 
 623  0Z IP     D  253  8.22   30                         65    0.10 9 46.9 143 
 623  0E ES        253 14.15                              65   -0.05 9 46.9 143 
 623  0Z  IAML     253 15.60         8.9 0.22                          46.9 143 
 624  0Z IP     C  253  8.58   44                         65   -0.01 9 49.8 114 
 624  0E ES        253 15.04                              65    0.00 9 49.8 114 
 624  0Z  IAML     253 18.54       674.9 0.08                          49.8 114 
                                                                                
 2016  8 4 1630 59.0 L                       BER                               1
 ACTION:ARG 20-05-11 21:31 OP:mn   STATUS:               ID:20160804163059     I
 2016-08-04-1630-59M.arct__036                                                 6
 STAT SP IPHASW D HRMM SECON CODA AMPLIT PERI AZIMU VELO AIN AR TRES W  DIS CAZ7
                                                                                
 2016  8 5 0730  9.9 L  72.447 125.665  0.0  BER  3 0.5                        1
 GAP=274        1.10       5.8    27.9999.9 -0.1246E+03  0.1571E+06 -0.4355E+05E
 ACTION:ARG 20-05-11 21:31 OP:mn   STATUS:               ID:20160805072846     I
 2016-08-05-0728-46M.arct__036                                                 6
 STAT SP IPHASW D HRMM SECON CODA AMPLIT PERI AZIMU VELO AIN AR TRES W  DIS CAZ7
 623  0Z IP        730 12.00                              90   -0.3410 13.9 167 
 623  0N ES        730 13.64                              90   -0.5810 13.9 167 
 624  0Z IP        730 13.78                              90    0.2110 20.8  81 
 624  0E ES        730 16.08                              90   -0.3110 20.8  81 
 625  0Z IP        730 16.49                              90    0.57 9 34.0 154 
 625  0E ES        730 21.15                              90    0.62 9 34.0 154 
                                                                                
 2016  8 8 0558 18.2 L  72.413 125.381 13.4  BER  3 0.0-0.3LBER-0.4CBER        1
 GAP=198        0.29       1.7     5.2  2.4  0.3039E+01 -0.7987E+01 -0.5172E+00E
 ACTION:ARG 20-05-11 21:31 OP:mn   STATUS:               ID:20160808055650     I
 2016-08-08-0556-50M.arct__039                                                 6
 STAT SP IPHASW D HRMM SECON CODA AMPLIT PERI AZIMU VELO AIN AR TRES W  DIS CAZ7
 622  0Z IP     D  558 20.51   11                        163   -0.0110 3.96 325 
 622  0E ES        558 22.30                             163    0.0010 3.96 325 
 622  0Z  IAML     558 22.42         2.5 0.08                          3.96 325 
 623  0Z IP     C  558 21.70   11                        127    0.0210 16.1 127 
 623  0E ES        558 24.33                             127   -0.0110 16.1 127 
 623  0Z  IAML     558 24.45         1.2 0.29                          16.1 127 
 624  0Z IP     C  558 23.78   12                        110   -0.02 9 30.9  76 
 624  0E ES        558 28.08                             110    0.01 9 30.9  76 
 624  0Z  IAML     558 28.43         2.0 0.32                          30.9  76 
                                                                                
 2016  8 8 2321 58.6 L  70.225 129.595  0.0  BER  4 0.2 2.3LBER 1.8CBER        1
 GAP=335        0.30       5.9    17.2  8.4  0.4434E+01  0.2248E+02 -0.3078E+02E
 ACTION:ARG 20-05-11 21:31 OP:mn   STATUS:               ID:20160808232119     I
 2016-08-08-2321-19M.arct__039                                                 6
 STAT SP IPHASW D HRMM SECON CODA AMPLIT PERI AZIMU VELO AIN AR TRES W  DIS CAZ7
 632  0Z IP     D 2322 23.75   54                         65   -0.0910  152 353 
 632  0E ES       2322 43.03                              65    0.0010  152 353 
 632  0Z  IAML    2322 45.32        41.7 0.24                           152 353 
 631  0Z IP     C 2322 24.68   49                         65    0.0310  157 328 
 631  0E ES       2322 44.34                              65   -0.1210  157 328 
 631  0Z  IAML    2322 45.14        55.6 0.34                           157 328 
 629  0Z IP     D 2322 32.16   51                         50    0.02 6  207 338 
 629  0N ES       2322 58.10                              50    0.47 6  207 338 
 629  0Z  IAML    2323  4.87        13.0 0.37                           207 338 
 630  0Z IP     D 2322 32.77   61                         50    0.06 6  211 348 
 630  0N ES       2322 58.53                              50   -0.11 6  211 348 
 630  0Z  IAML    2323  0.03        33.0 0.20                           211 348 
                                                                                
 2016  8 9 0648 16.8 L  70.428 128.754 15.6  BER  1 0.0 2.7LBER 1.2CBER        1
 GAP=360        0.30       9.8    32.2  0.0  0.2091E+02  0.2248E+02 -0.3078E+02E
 ACTION:ARG 20-05-11 21:31 OP:mn   STATUS:               ID:20160809064725     I
 2016-08-09-0647-25M.arct__036                                                 6
 STAT SP IPHASW D HRMM SECON CODA AMPLIT PERI AZIMU VELO AIN AR TRES W  DIS CAZ7
 629  0Z IP        648 44.52   36                         58   -0.0010  175 343 
 629  0Z E         648 44.61                  162.1 15.5      0         175 343 
 629  0N ES        649  5.57                              58    0.0010  175 343 
 629  0Z  IAML     649  8.82        97.4 0.02                           175 343 
                                                                                
 2016  810  416  6.0 L                       BER                               1
 ACTION:ARG 20-05-11 21:31 OP:mn   STATUS:               ID:20160810041606     I
 2016-08-10-0416-06M.arct__036                                                 6
 STAT SP IPHASW D HRMM SECON CODA AMPLIT PERI AZIMU VELO AIN AR TRES W  DIS CAZ7
                                                                                
 2016  811 1323 48.1 L  72.819 124.016 15.6  BER  1 0.0 1.2LBER 0.1CBER        1
 GAP=360        0.30       3.9     8.0  0.0 -0.2950E+02  0.2248E+02 -0.3078E+02E
 ACTION:ARG 20-05-11 21:31 OP:mn   STATUS:               ID:20160811132222     I
 2016-08-11-1322-22M.arct__039                                                 6
 STAT SP IPHASW D HRMM SECON CODA AMPLIT PERI AZIMU VELO AIN AR TRES W  DIS CAZ7
 620  0Z IP       1323 52.51   16                        124   -0.0010 21.4 149 
 620  0Z E        1323 52.56                  329.6 14.9      0        21.4 149 
 620  0E ES       1323 55.87                             124    0.0010 21.4 149 
 620  0Z  IAML    1323 56.37        43.5 0.20                          21.4 149 
                                                                                
 2016  815 1125 48.3 L  72.384 124.944  9.7  BER  4 0.1 0.8LBER 0.6CBER        1
 GAP=237        0.39       1.9     7.0  4.1 -0.9975E+01 -0.4056E+01  0.1526E+01E
 ACTION:ARG 20-05-11 21:31 OP:mn   STATUS:               ID:20160815112426     I
 2016-08-15-1124-26M.arct__039                                                 6
 STAT SP IPHASW D HRMM SECON CODA AMPLIT PERI AZIMU VELO AIN AR TRES W  DIS CAZ7
 622  0Z IP     C 1125 51.04                             121   -0.1210 14.0  62 
 622  0E ES       1125 53.42                             121    0.0510 14.0  62 
 622  0E  IAML    1125 53.49        37.5 0.14                          14.0  62 
 621  0Z IP     D 1125 52.48   21                        109    0.0910 22.4 185 
 621  0E ES       1125 55.55                             109    0.0310 22.4 185 
 621  0Z  IAML    1125 56.61        18.1 0.17                          22.4 185 
 623  0Z IP     D 1125 53.09   22                        104   -0.22 9 28.3 103 
 623  0N ES       1125 57.09                             104   -0.06 9 28.3 103 
 623  0Z  IAML    1125 57.82         7.2 0.25                          28.3 103 
 624  0Z IP     D 1125 56.19   26                         98    0.07 9 46.0  76 
 624  0E ES       1126  2.29                              98    0.20 9 46.0  76 
 624  0Z  IAML    1126  2.90        13.7 0.26                          46.0  76 
                                                                                
 2016  815 2012  7.7 L  72.035 127.596 17.0  BER  4 0.2 0.5LBER 0.4CBER        1
 GAP=140        0.47       2.0     4.3  5.0  0.1222E+01 -0.4639E+01 -0.6025E+01E
 ACTION:ARG 20-05-11 21:31 OP:mn   STATUS:               ID:20160815201042     I
 2016-08-15-2010-42M.arct__039                                                 6
 STAT SP IPHASW D HRMM SECON CODA AMPLIT PERI AZIMU VELO AIN AR TRES W  DIS CAZ7
 629  0Z IP     D 2012 11.30   17                        137   -0.1810 15.3 220 
 629  0N ES       2012 14.29                             137   -0.0810 15.3 220 
 629  0Z  IAML    2012 14.76         4.8 0.28                          15.3 220 
 627  0Z IP     D 2012 12.69   31                        125    0.2710 23.0 294 
 627  0E ES       2012 16.20                             125    0.1710 23.0 294 
 627  0Z  IAML    2012 16.26        84.6 0.08                          23.0 294 
 630  0Z IP     C 2012 12.89   15                        122    0.1310 25.5  80 
 630  0E ES       2012 16.63                             122    0.0110 25.5  80 
 630  0Z  IAML    2012 16.75         5.1 0.10                          25.5  80 
 628  0Z IP     C 2012 15.29   20                        109   -0.11 9 43.5 340 
 628  0E ES       2012 21.05                             109   -0.23 9 43.5 340 
 628  0Z  IAML    2012 21.45         1.5 0.18                          43.5 340 
                                                                                
 2016  816 0316 55.0 L  72.219 125.919  2.5  BER  5 0.4 0.3LBER 0.2CBER        1
 GAP=147        1.02       2.7    12.3  7.3  0.2317E+02  0.4691E+02  0.1216E+02E
 ACTION:ARG 20-05-11 21:31 OP:mn   STATUS:               ID:20160816031531     I
 2016-08-16-0315-31M.arct__039                                                 6
 STAT SP IPHASW D HRMM SECON CODA AMPLIT PERI AZIMU VELO AIN AR TRES W  DIS CAZ7
 625  0Z IP     C  316 56.40   17                        107   -0.0910 8.13 128 
 625  0E ES        316 58.11                             107    0.4710 8.13 128 
 625  0Z  IAML     316 58.12        10.1 0.10                          8.13 128 
 623  0Z IP     C  316 56.84   19                        101   -0.5210 13.1 336 
 623  0E ES        316 58.81                             101   -0.3610 13.1 336 
 623  0Z  IAML     316 59.55        27.5 0.23                          13.1 336 
 624  0Z IP     C  317  0.27   17                         95   -0.28 9 31.1  23 
 624  0E ES        317  4.93                              95    0.14 9 31.1  23 
 624  0Z  IAML     317  6.14         4.1 0.14                          31.1  23 
 622  0Z IP     D  317  0.93   23                         94    0.18 9 32.3 321 
 622  0E ES        317  6.03                              94    0.88 9 32.3 321 
 622  0Z  IAML     317  8.09         8.0 0.41                          32.3 321 
 626  0Z IP     C  317  1.11   16                         65   -0.42 9 37.1 174 
 626  0E ES        317  6.54                              65    0.03 9 37.1 174 
 626  0Z  IAML     317  7.76         2.8 0.16                          37.1 174 
                                                                                
 2016  817 1747 20.4 L  72.345 130.250 23.1  BER  3 0.0 0.9LBER 1.0CBER        1
 GAP=291        0.29      15.3   217.8107.0  0.3309E+04  0.2328E+05  0.1622E+04E
 ACTION:ARG 20-05-11 21:31 OP:mn   STATUS:               ID:20160817174623     I
 2016-08-17-1746-23M.arct__039                                                 6
 STAT SP IPHASW D HRMM SECON CODA AMPLIT PERI AZIMU VELO AIN AR TRES W  DIS CAZ7
 632  0Z IP     D 1747 36.39   24                         68   -0.0410 95.1 206 
 632  0N ES       1747 48.64                              68    0.0310 95.1 206 
 632  0Z  IAML    1747 51.36         2.8 0.09                          95.1 206 
 628  0Z IP     C 1747 37.85   30                         58    0.0210  105 275 
 628  0E ES       1747 51.07                              58   -0.0110  105 275 
 628  0Z  IAML    1747 56.11         2.3 0.22                           105 275 
 629  0Z IP     D 1747 38.63   39                         58    0.02 9  111 247 
 629  0Z  IAML    1747 49.89         4.8 0.79                           111 247 
 629  0N ES       1747 52.42                              58   -0.02 9  111 247 
                                                                                
 2016  817 1924 55.9 L  71.386 131.060 17.0  BER  4 0.1 1.2LBER 1.4CBER        1
 GAP=322        0.32       4.0    10.7  2.6  0.9298E+01  0.5619E+00  0.4289E+01E
 ACTION:ARG 20-05-11 21:31 OP:mn   STATUS:               ID:20160817192418     I
 2016-08-17-1924-18M.arct__039                                                 6
 STAT SP IPHASW D HRMM SECON CODA AMPLIT PERI AZIMU VELO AIN AR TRES W  DIS CAZ7
 632  0Z IP     D 1925  8.21   39                        101   -0.0810 73.5 287 
 632  0E ES       1925 17.84                             101    0.1110 73.5 287 
 632  0Z  IAML    1925 19.48        34.2 0.19                          73.5 287 
 630  0Z IP     C 1925 16.21   42                         96    0.06 8  123 310 
 630  0E ES       1925 31.41                              96   -0.16 8  123 310 
 630  0Z  IAML    1925 33.20         2.7 0.10                           123 310 
 631  0Z IP     C 1925 17.92                              58   -0.10 7  136 272 
 631  0N ES       1925 34.77                              58   -0.09 7  136 272 
 631  0Z  IAML    1925 35.62         7.1 0.17                           136 272 
 629  0Z IP     D 1925 19.50   42                         58    0.24 7  145 296 
 629  0N ES       1925 37.09                              58    0.05 7  145 296 
 629  0Z  IAML    1925 39.59         1.8 0.14                           145 296 
                                                                                
 2016  817 2255 40.0 L                       BER                               1
 ACTION:ARG 20-05-11 21:31 OP:mn   STATUS:               ID:20160817225540     I
 2016-08-17-2255-40M.arct__039                                                 6
 STAT SP IPHASW D HRMM SECON CODA AMPLIT PERI AZIMU VELO AIN AR TRES W  DIS CAZ7
                                                                                
 2016  818 1240 37.1 L  72.747 125.035 20.9  BER  4 0.0 0.7LBER 0.8CBER        1
 GAP=240        0.27       1.7     3.7  3.2  0.2369E+01 -0.6219E+01 -0.8476E+00E
 ACTION:ARG 20-05-11 21:31 OP:mn   STATUS:               ID:20160818123912     I
 2016-08-18-1239-12M.arct__039                                                 6
 STAT SP IPHASW D HRMM SECON CODA AMPLIT PERI AZIMU VELO AIN AR TRES W  DIS CAZ7
 620  0Z IP     D 1240 42.55   24                        128    0.0410 25.1 246 
 620  0N ES       1240 46.57                             128   -0.0310 25.1 246 
 620  0Z  IAML    1240 46.95         8.2 0.12                          25.1 246 
 622  0Z IP     D 1240 43.82   24                        119   -0.0610 35.2 165 
 622  0E ES       1240 49.08                             119    0.0710 35.2 165 
 622  0Z  IAML    1240 49.48         7.4 0.27                          35.2 165 
 624  0Z IP     D 1240 46.23   31                        110    0.00 9 51.2 126 
 624  0N ES       1240 53.13                             110   -0.02 9 51.2 126 
 624  0Z  IAML    1240 53.22         8.8 0.12                          51.2 126 
 621  0Z IP     D 1240 48.07   29                        106    0.04 9 63.0 185 
 621  0E ES       1240 56.28                             106   -0.04 9 63.0 185 
 621  0Z  IAML    1240 56.44         2.8 0.53                          63.0 185 
                                                                                
