 2016  820 0309 44.4 L  72.957 123.731 19.7  BER  5 0.1 0.7LBER 1.0CBER        1
 GAP=326        0.36       3.9    11.0  6.7  0.1320E+02 -0.1003E+02 -0.1503E+02E
 ACTION:ARG 20-05-11 21:31 OP:mn   STATUS:               ID:20160820030832     I
 2016-08-20-0308-32M.arct__039                                                 6
 STAT SP IPHASW D HRMM SECON CODA AMPLIT PERI AZIMU VELO AIN AR TRES W  DIS CAZ7
 620  0Z IP     D  3 9 51.69   21                        115   -0.0310 39.5 149 
 620  0E ES        3 9 57.25                             115   -0.0110 39.5 149 
 620  0Z  IAML     3 9 57.48         4.6 0.14                          39.5 149 
 622  0Z IP     D  3 9 57.84   30                        102    0.20 9 77.9 137 
 622  0E ES        310  7.85                             102    0.18 9 77.9 137 
 622  0Z  IAML     310  9.15         3.0 0.21                          77.9 137 
 621  0Z IP     C  310  0.17   42                        100   -0.11 8 94.6 155 
 621  0N ES        310 12.20                             100   -0.12 8 94.6 155 
 621  0Z  IAML     310 14.82         1.3 0.09                          94.6 155 
 623  0Z IP     D  310  0.69   32                        100   -0.07 8 97.6 135 
 623  0N ES        310 13.34                             100    0.17 8 97.6 135 
 623  0Z  IAML     310 14.59         3.4 0.20                          97.6 135 
 624  0Z IP     D  310  1.20   32                         99    0.05 8  100 121 
 624  0N ES        310 13.54                              99   -0.31 8  100 121 
 624  0Z  IAML     310 14.18         3.7 0.22                           100 121 
                                                                                
 2016  820 0630 38.1 L  71.962 129.755 25.1  BER  3 0.0 0.8LBER 0.8CBER        1
 GAP=329        0.29       7.6    10.5  7.5 -0.1648E+02  0.1541E+02 -0.4847E+02E
 ACTION:ARG 20-05-11 21:31 OP:mn   STATUS:               ID:20160820062948     I
 2016-08-20-0629-48M.arct__039                                                 6
 STAT SP IPHASW D HRMM SECON CODA AMPLIT PERI AZIMU VELO AIN AR TRES W  DIS CAZ7
 629  0Z IP     D  630 52.41   27                         90   -0.0310 84.6 269 
 629  0N ES        631  3.35                              90    0.0210 84.6 269 
 629  0Z  IAML     631  4.60         1.7 0.21                          84.6 269 
 627  0Z IP     D  630 54.26   27                         67    0.01 9 97.0 282 
 627  0N ES        631  6.52                              67   -0.01 9 97.0 282 
 627  0Z  IAML     631  7.47         3.3 0.42                          97.0 282 
 628  0Z IP     C  630 54.90   28                         67    0.02 9  102 300 
 628  0E ES        631  7.62                              67   -0.01 9  102 300 
 628  0Z  IAML     631  7.79         4.8 0.22                           102 300 
                                                                                
 2016  820 0736 13.6 L  72.390 126.375 16.4  BER  5 0.1 0.2LBER 0.4CBER        1
 GAP=107        0.27       1.0     2.7  2.3 -0.1259E+01 -0.2330E+01  0.1579E+01E
 ACTION:ARG 20-05-11 21:31 OP:mn   STATUS:               ID:20160820073504     I
 2016-08-20-0735-04M.arct__039                                                 6
 STAT SP IPHASW D HRMM SECON CODA AMPLIT PERI AZIMU VELO AIN AR TRES W  DIS CAZ7
 624  0Z IP     D  736 16.84   16                        147    0.0310 10.1 341 
 624  0N ES        736 19.18                             147   -0.0710 10.1 341 
 624  0Z  IAML     736 19.54        35.9 0.08                          10.1 341 
 623  0Z IP     C  736 18.18   15                        125    0.0210 22.0 251 
 623  0Z  IAML     736 21.52         2.1 0.24                          22.0 251 
 623  0N ES        736 21.68                             125    0.0510 22.0 251 
 625  0Z IP     C  736 18.64   23                        120   -0.04 9 25.8 201 
 625  0E ES        736 22.61                             120    0.07 9 25.8 201 
 625  0Z  IAML     736 22.78         3.8 0.36                          25.8 201 
 628  0Z IP     C  736 18.72   21                        120   -0.00 9 26.1  87 
 628  0N ES        736 22.65                             120    0.04 9 26.1  87 
 628  0Z  IAML     736 22.79         2.5 0.10                          26.1  87 
 626  0Z IP     C  736 23.46   26                        103    0.03 8 57.2 192 
 626  0N ES        736 30.78                             103   -0.13 8 57.2 192 
 626  0Z  IAML     736 31.48         1.5 0.26                          57.2 192 
                                                                                
 2016  820 0954  4.0 L  72.121 127.639 13.5  BER  3 0.0 0.2LBER 0.4CBER        1
 GAP=167        0.29       1.6     2.7  4.9  0.1984E+01 -0.2611E+01 -0.3609E+01E
 ACTION:ARG 20-05-11 21:31 OP:mn   STATUS:               ID:20160820095238     I
 2016-08-20-0952-38M.arct__039                                                 6
 STAT SP IPHASW D HRMM SECON CODA AMPLIT PERI AZIMU VELO AIN AR TRES W  DIS CAZ7
 627  0Z IP     C  954  8.37   18                        118   -0.0210 22.5 269 
 627  0E ES        954 11.74                             118    0.0110 22.5 269 
 627  0Z  IAML     954 12.00         4.8 0.20                          22.5 269 
 630  0Z IP     C  954  8.62   18                        116    0.0010 24.1 102 
 630  0N ES        954 12.12                             116   -0.0010 24.1 102 
 630  0Z  IAML     954 12.14         7.0 0.13                          24.1 102 
 628  0Z IP     D  954 10.33   24                        107    0.0210 35.4 332 
 628  0E ES        954 15.09                             107   -0.0110 35.4 332 
 628  0Z  IAML     954 16.54         1.3 0.24                          35.4 332 
                                                                                
 2016  820 1506 15.7 L  71.938 129.795 11.0  BER  9 0.4 1.5LBER 1.6CBER        1
 GAP=274        0.63       2.9    14.3  5.5  0.2417E+02 -0.1514E+02 -0.5696E+01E
 ACTION:ARG 20-05-11 21:31 OP:mn   STATUS:               ID:20160820150518     I
 2016-08-20-1505-18M.arct__039                                                 6
 STAT SP IPHASW D HRMM SECON CODA AMPLIT PERI AZIMU VELO AIN AR TRES W  DIS CAZ7
 632  0Z IP     C 15 6 23.53   49                         99   -0.3110 47.8 212 
 632  0N ES       15 6 30.12                              99    0.0710 47.8 212 
 632  0Z  IAML    15 6 31.02        32.4 0.08                          47.8 212 
 630  0Z IP     C 15 6 24.19   55                         98   -0.4610 52.9 287 
 630  0N ES       15 6 31.47                              98   -0.0110 52.9 287 
 630  0Z  IAML    15 6 34.99        14.1 0.08                          52.9 287 
 627  0Z IP     D 15 6 32.55   41                         94    0.52 8 98.9 283 
 627  0N ES       15 6 44.86                              94    0.39 8 98.9 283 
 627  0Z  IAML    15 6 45.43        10.4 0.14                          98.9 283 
 625  0Z  IAML    15 6 53.90         9.9 0.22                           130 283 
 626  0Z IP     D 15 6 37.20   50                         93    0.10 7  130 269 
 626  0N ES       15 6 53.15                              93   -0.24 7  130 269 
 626  0Z  IAML    15 6 56.02        10.3 0.26                           130 269 
 625  0Z IP     D 15 6 37.63   46                         93    0.67 7  130 283 
 625  0N ES       15 6 53.28                              93    0.13 7  130 283 
 624  0Z IP     C 15 6 37.56   41                         93   -0.16 7  134 298 
 624  0N ES       15 6 53.82                              93   -0.66 7  134 298 
 624  0Z  IAML    15 6 57.73        12.9 0.17                           134 298 
 623  0Z IP     D 15 6 39.94   52                         93    0.52 6  145 289 
 623  0N ES       15 6 57.35                              93   -0.13 6  145 289 
 623  0Z  IAML    15 7  1.67         8.8 0.62                           145 289 
 622  0Z IP     C 15 6 42.27   56                         58    0.22 5  163 292 
 622  0E ES       15 7  1.51                              58   -0.60 5  163 292 
 622  0Z  IAML    15 7  4.89         5.2 0.19                           163 292 
 621  0Z IP     C 15 6 43.48   47                         58    0.35 5  171 282 
 621  0N ES       15 7  4.13                              58    0.13 5  171 282 
 621  0Z  IAML    15 7  5.78         9.4 0.32                           171 282 
                                                                                
 2016  820 1508 53.1 L  71.872 129.608 24.6  BER  4 0.2 0.3LBER 0.9CBER        1
 GAP=264        0.50       2.9    17.5  2.5  0.3130E+02 -0.5618E+01 -0.3874E+01E
 ACTION:ARG 20-05-11 21:31 OP:mn   STATUS:               ID:20160820150752     I
 2016-08-20-1507-52M.arct__039                                                 6
 STAT SP IPHASW D HRMM SECON CODA AMPLIT PERI AZIMU VELO AIN AR TRES W  DIS CAZ7
 632  0Z IP     D 15 9  0.57   19                        121   -0.0410 38.1 210 
 632  0N ES       15 9  6.21                             121   -0.0710 38.1 210 
 632  0Z  IAML    15 9  7.51         2.1 0.06                          38.1 210 
 630  0Z IP     D 15 9  2.33   27                        115    0.0610 49.8 298 
 630  0N ES       15 9  9.21                             115    0.0110 49.8 298 
 630  0Z  IAML    15 9 11.79         1.3 0.06                          49.8 298 
 627  0Z IP     D 15 9  9.36   36                         68    0.36 8 94.7 288 
 627  0N ES       15 9 21.31                              68    0.25 8 94.7 288 
 627  0Z  IAML    15 9 22.75         1.6 0.45                          94.7 288 
 628  0Z IP     C 15 9 10.09   35                         58   -0.04 8  103 306 
 628  0E ES       15 9 22.50                              58   -0.54 8  103 306 
 628  0Z  IAML    15 9 24.14         1.9 0.20                           103 306 
                                                                                
 2016  820 1904 45.7 L  72.348 127.189 23.8  BER  6 0.1 1.2LBER 1.2CBER        1
 GAP=307        0.31       1.8     6.9  1.6  0.6900E-01 -0.2408E+01 -0.6913E+00E
 ACTION:ARG 20-05-11 21:31 OP:mn   STATUS:               ID:20160820190332     I
 2016-08-20-1903-32M.arct__039                                                 6
 STAT SP IPHASW D HRMM SECON CODA AMPLIT PERI AZIMU VELO AIN AR TRES W  DIS CAZ7
 624  0Z IP     C 19 4 52.49   33                        124    0.0110 34.0 295 
 624  0E ES       19 4 57.67                             124   -0.0010 34.0 295 
 624  0Z  IAML    19 4 58.55        57.9 0.11                          34.0 295 
 625  0Z IP     C 19 4 53.49   36                        118   -0.0510 41.6 243 
 625  0E ES       19 4 59.56                             118    0.0310 41.6 243 
 625  0Z  IAML    19 5  3.27        14.8 0.28                          41.6 243 
 623  0Z IP     C 19 4 54.67   45                        114    0.14 9 48.5 268 
 623  0N ES       19 5  1.49                             114    0.21 9 48.5 268 
 623  0Z  IAML    19 5  4.27        17.9 0.45                          48.5 268 
 622  0Z IP     C 19 4 56.82   34                        109   -0.08 9 64.2 280 
 622  0N ES       19 5  5.27                             109   -0.17 9 64.2 280 
 622  0Z  IAML    19 5  5.46        11.7 0.17                          64.2 280 
 621  0Z IP     C 19 4 59.28   33                        105   -0.11 8 80.3 258 
 621  0E ES       19 5  9.69                             105   -0.13 8 80.3 258 
 621  0Z  IAML    19 5  9.88        14.0 0.25                          80.3 258 
 620  0Z IP     D 19 5  2.52   37                         58    0.01 7  101 291 
 620  0N ES       19 5 15.40                              58    0.08 7  101 291 
 620  0Z  IAML    19 5 19.30         7.3 0.19                           101 291 
                                                                                
 2016  821 0515 52.6 L  72.020 129.497  0.0  BER  4 0.1 0.2LBER 0.9CBER        1
 GAP=324        0.29       7.4   114.1 73.5 -0.7925E+03  0.8366E+04 -0.5124E+03E
 ACTION:ARG 20-05-11 21:31 OP:mn   STATUS:               ID:20160821051450     I
 2016-08-21-0514-50M.arct__039                                                 6
 STAT SP IPHASW D HRMM SECON CODA AMPLIT PERI AZIMU VELO AIN AR TRES W  DIS CAZ7
 629  0Z IP     D  516  5.64   31                         65   -0.0110 76.1 263 
 629  0E ES        516 15.59                              65    0.0310 76.1 263 
 629  0Z  IAML     516 19.46         0.4 0.06                          76.1 263 
 628  0Z IP     D  516  7.93   27                         65   -0.06 9 90.6 299 
 628  0N ES        516 19.60                              65   -0.08 9 90.6 299 
 628  0Z  IAML     516 21.25         1.8 0.17                          90.6 299 
 625  0Z IP     C  516 12.27   31                         65   -0.06 8  118 280 
 625  0N ES        516 27.26                              65   -0.07 8  118 280 
 625  0Z  IAML     516 28.92         0.4 0.18                           118 280 
 624  0Z IP     C  516 13.02   30                         65    0.16 8  121 296 
 624  0N ES        516 28.40                              65    0.14 8  121 296 
 624  0Z  IAML     516 29.11         0.9 0.16                           121 296 
                                                                                
 2016  821 1353 46.2 L  72.704 127.197 15.6  BER  1 0.0 0.4LBER 0.7CBER        1
 GAP=360        0.30       4.2     3.4  0.0  0.2719E+01  0.8366E+04 -0.5124E+03E
 ACTION:ARG 20-05-11 21:31 OP:mn   STATUS:               ID:20160821135233     I
 2016-08-21-1352-33M.arct__039                                                 6
 STAT SP IPHASW D HRMM SECON CODA AMPLIT PERI AZIMU VELO AIN AR TRES W  DIS CAZ7
 628  0Z IP     D 1353 52.41   26                        112    0.0210 34.0 183 
 628  0Z E        1353 52.48                    2.8  9.7      0        34.0 183 
 628  0E ES       1353 57.09                             112   -0.0210 34.0 183 
 628  0Z  IAML    1353 57.52         5.0 0.15                          34.0 183 
                                                                                
 2016  822 0021 21.4 L  71.929 129.697  0.0  BER  3 0.1 0.4LBER 0.7CBER        1
 GAP=267        0.31       3.8    37.3 19.7  0.1360E+03  0.7018E+03  0.6900E+02E
 ACTION:ARG 20-05-11 21:31 OP:mn   STATUS:               ID:20160822002022     I
 2016-08-22-0020-22M.arct__039                                                 6
 STAT SP IPHASW D HRMM SECON CODA AMPLIT PERI AZIMU VELO AIN AR TRES W  DIS CAZ7
 632  0Z IP     C  021 29.47   21                         65   -0.0210 45.3 209 
 632  0N ES        021 35.63                              65    0.0110 45.3 209 
 632  0Z  IAML     021 36.89         3.2 0.06                          45.3 209 
 630  0Z IP     D  021 30.18   27                         65   -0.0810 50.0 290 
 630  0E ES        021 37.00                              65    0.0310 50.0 290 
 630  0Z  IAML     021 39.76         1.4 0.06                          50.0 290 
 628  0Z IP     D  021 38.74   29                         65    0.14 8  102 302 
 628  0N ES        021 51.60                              65   -0.06 8  102 302 
 628  0Z  IAML     021 51.84         2.9 0.28                           102 302 
                                                                                
 2016  822 0407  9.5 L  72.701 125.729 18.3  BER  4 0.0-0.1LBER-0.2CBER        1
 GAP=240        0.27       2.1     3.7  5.1  0.4291E+01 -0.3672E+01 -0.6887E+01E
 ACTION:UP  21-01-10 14:12 OP:elen STATUS:               ID:20160822040551     I
 OLDACT:REG 21-01-08 15:19 OP:elen STATUS:               ID:20160822040551     3
 2016-08-22-0405-51M.arct__039                                                 6
 STAT SP IPHASW D HRMM SECON CODA AMPLIT PERI AZIMU VELO AIN AR TRES W  DIS CAZ7
 624  0Z IP        4 7 15.50   13                        118    0.0010 31.0 144 
 624  0E ES        4 7 20.02                             118   -0.0110 31.0 144 
 624  0N  IAML     4 7 20.28         1.3 0.08                          31.0 144 
 622  0Z IP        4 7 15.69   13                        118    0.0510 32.1 206 
 622  0E ES        4 7 20.35                             118    0.0610 32.1 206 
 622  0N  IAML     4 7 21.26         1.2 0.18                          32.1 206 
 623  0Z IP        4 7 17.08   13                        111   -0.0010 41.9 179 
 623  0N ES        4 7 22.75                             111   -0.0710 41.9 179 
 623  0N  IAML     4 7 22.92         1.3 0.14                          41.9 179 
 620  0Z IP        4 7 17.76   13                        109    0.02 9 46.2 264 
 620  0N ES        4 7 23.93                             109   -0.06 9 46.2 264 
 620  0N  IAML     4 7 24.49         2.0 0.14                          46.2 264 
                                                                                
 2016  822  939  3.5 L                       BER                               1
 ACTION:REG 21-01-08 15:21 OP:elen STATUS:               ID:20160822093903     I
 2016-08-22-0939-03M.arct__039                                                 6
 STAT SP IPHASW D HRMM SECON CODA AMPLIT PERI AZIMU VELO AIN AR TRES W  DIS CAZ7
                                                                                
