 2016  9 2 0740 56.5 L  72.779 123.958 10.0  BER  4 0.2 1.3LBER                1
 GAP=333        0.44       7.1    17.1  4.9  0.7021E+02 -0.4166E+02 -0.2459E+02E
 ACTION:ARG 20-04-02 17:38 OP:mn   STATUS:               ID:20160902073940     I
 2016-09-02-0739-40M.SIOLA_039                                                 6
 STAT SP IPHASW D HRMM SECON CODA AMPLIT PERI AZIMU VELO AIN AR TRES W  DIS CAZ7
 620  0Z IP     D  740 59.98                             113   -0.1610 19.0 137 
 620  0E ES        741  2.84                             113   -0.0610 19.0 137 
 620  0Z  IAML     741  3.13        55.9 0.11                          19.0 137 
 622  0Z IP     D  741  6.70                              96    0.28 9 58.8 129 
 622  0E ES        741 14.06                              96    0.11 9 58.8 129 
 622  0Z  IAML     741 14.97         8.7 0.57                          58.8 129 
 628  0Z IP     D  741 15.66                              93    0.26 7  115 110 
 628  0E ES        741 29.59                              93   -0.16 7  115 110 
 628  0Z  IAML     741 31.10         8.1 0.46                           115 110 
 630  0Z IP     D  741 23.10                              58   -0.40 5  167 116 
 630  0N ES        741 43.94                              58   -0.08 5  167 116 
 630  0Z  IAML     741 44.65         8.5 0.25                           167 116 
                                                                                
 2016  9 2 0740 56.6 L  72.765 123.975 11.8  BER  4 0.3 1.2LBER                1
 GAP=335        0.53       9.0    20.6  5.2  0.1122E+03 -0.5787E+02 -0.3337E+02E
 ACTION:ARG 20-04-02 17:38 OP:mn   STATUS:               ID:20160902074022     I
 2016-09-02-0740-22M.SIOLA_039                                                 6
 STAT SP IPHASW D HRMM SECON CODA AMPLIT PERI AZIMU VELO AIN AR TRES W  DIS CAZ7
 620  0Z IP     D  740 59.95                             121   -0.2410 17.5 135 
 620  0E ES        741  2.80                             121   -0.0810 17.5 135 
 620  0Z  IAML     741  3.13        63.7 0.12                          17.5 135 
 622  0Z IP     D  741  6.80                              98    0.44 9 57.4 128 
 622  0E ES        741 13.90                              98    0.15 9 57.4 128 
 622  0Z  IAML     741 14.98         6.3 0.58                          57.4 128 
 628  0Z IP     D  741 15.56                              94    0.18 7  114 109 
 628  0E ES        741 29.49                              94   -0.13 7  114 109 
 628  0Z  IAML     741 31.09         8.5 0.41                           114 109 
 630  0Z IP     D  741 23.15                              58   -0.18 5  166 116 
 630  0E ES        741 43.19                              58   -0.42 5  166 116 
 630  0Z  IAML     741 44.27         9.0 0.40                           166 116 
                                                                                
 2016  9 2 0743  1.4 L  72.830 124.058  0.2  BER  4 0.2 0.2LBER                1
 GAP=323        0.99       5.8    26.5 10.0 -0.3628E+02 -0.1508E+03 -0.4912E+01E
 ACTION:ARG 20-04-02 17:38 OP:mn   STATUS:               ID:20160902074135     I
 2016-09-02-0741-35M.SIOLA_039                                                 6
 STAT SP IPHASW D HRMM SECON CODA AMPLIT PERI AZIMU VELO AIN AR TRES W  DIS CAZ7
 620  0Z IP     D  743  5.27                              90   -0.0910 21.9 154 
 620  0E ES        743  8.16                              90   -0.1710 21.9 154 
 620  0Z  IAML     743  8.42        21.5 0.11                          21.9 154 
 622  0Z IP     D  743 11.98                              65    0.06 9 60.2 135 
 622  0E ES        743 19.51                              65   -0.36 9 60.2 135 
 622  0Z  IAML     743 23.45         0.1 0.82 321.6 25.9      5        60.2 135 
 623  0Z IP     D  743 15.13                              65    0.02 8 80.0 134 
 623  0E ES        743 25.09                              65   -0.41 8 80.0 134 
 623  0Z  IAML     743 27.76         1.5 0.23                          80.0 134 
 624  0Z IP     C  743 16.14                              65    0.43 8 83.7 117 
 624  0E ES        743 27.31                              65    0.76 8 83.7 117 
 624  0Z  IAML     743 29.06         2.8 0.15                          83.7 117 
                                                                                
 2016  9 2 0743  1.8 L  72.802 124.022  3.4  BER  4 0.1 0.5LBER                1
 GAP=325        0.35       4.0    17.5  3.8  0.4815E+02 -0.5207E+02 -0.1104E+02E
 ACTION:ARG 20-04-02 17:38 OP:mn   STATUS:               ID:20160902074205     I
 2016-09-02-0742-05M.SIOLA_039                                                 6
 STAT SP IPHASW D HRMM SECON CODA AMPLIT PERI AZIMU VELO AIN AR TRES W  DIS CAZ7
 620  0Z IP     D  743  5.24                             100   -0.0910 19.7 147 
 620  0E ES        743  8.09                             100    0.0510 19.7 147 
 620  0Z  IAML     743  8.36        22.5 0.14                          19.7 147 
 622  0Z IP     D  743 11.82                              65    0.06 9 58.9 132 
 622  0E ES        743 19.38                              65    0.02 9 58.9 132 
 622  0Z  IAML     743 19.52         2.3 0.20                          58.9 132 
 623  0Z IP     D  743 14.82                              65   -0.14 8 78.7 132 
 623  0E ES        743 25.02                              65    0.02 8 78.7 132 
 623  0Z  IAML     743 26.32         1.3 0.17                          78.7 132 
 628  0Z IP     D  743 20.88                              65    0.30 7  114 112 
 628  0E ES        743 34.72                              65   -0.17 7  114 112 
 628  0Z  IAML     743 36.18         2.3 0.20                           114 112 
                                                                                
 2016  9 2 0747 46.3 L  72.809 124.035  3.4  BER  4 0.1 0.5LBER                1
 GAP=326        0.31       3.6    16.3  3.7  0.4131E+02 -0.5034E+02 -0.1002E+02E
 ACTION:ARG 20-04-02 17:38 OP:mn   STATUS:               ID:20160902074620     I
 2016-09-02-0746-20M.SIOLA_039                                                 6
 STAT SP IPHASW D HRMM SECON CODA AMPLIT PERI AZIMU VELO AIN AR TRES W  DIS CAZ7
 620  0Z IP     D  747 49.95                             100   -0.0110 20.1 149 
 620  0E ES        747 52.74                             100    0.0110 20.1 149 
 620  0Z  IAML     747 53.05        13.7 0.14                          20.1 149 
 622  0Z IP     D  747 56.51                              65    0.16 9 59.1 133 
 622  0E ES        748  4.05                              65    0.07 9 59.1 133 
 622  0Z  IAML     748  4.23         2.5 0.14                          59.1 133 
 623  0Z IP     D  747 59.43                              65   -0.13 8 78.9 132 
 623  0E ES        748  9.49                              65   -0.13 8 78.9 132 
 623  0Z  IAML     748 10.28         2.0 0.31                          78.9 132 
 624  0Z IP     D  748  0.23                              65   -0.04 8 83.3 115 
 624  0N ES        748 10.90                              65    0.03 8 83.3 115 
 624  0Z  IAML     748 12.69         2.8 0.19                          83.3 115 
                                                                                
 2016  9 2 0750 14.1 L  72.776 124.053 15.6  BER  1 0.0 0.3LBER                1
 GAP=360        0.30       3.9     9.5  0.0 -0.3646E+02 -0.5034E+02 -0.1002E+02E
 ACTION:ARG 20-04-02 17:38 OP:mn   STATUS:               ID:20160902075000     I
 2016-09-02-0750-00S.NSN___039                                                 6
 STAT SP IPHASW D HRMM SECON CODA AMPLIT PERI AZIMU VELO AIN AR TRES W  DIS CAZ7
 620  0Z IP        750 17.93                             131   -0.0010 16.8 144 
 620  0E E         750 18.05                  324.6  7.4      0        16.8 144 
 620  0E ES        750 20.84                             131    0.0010 16.8 144 
 620  0Z  IAML     750 21.11         6.4 0.13                          16.8 144 
                                                                                
 2016  9 2 0807 37.8 L  72.716 123.776 10.8  BER  4 0.1 0.8LBER                1
 GAP=347        0.33       7.2    13.5  2.8  0.6565E+02  0.1059E+02  0.3664E+01E
 ACTION:ARG 20-04-02 17:38 OP:mn   STATUS:               ID:20160902080611     I
 2016-09-02-0806-11M.SIOLA_039                                                 6
 STAT SP IPHASW D HRMM SECON CODA AMPLIT PERI AZIMU VELO AIN AR TRES W  DIS CAZ7
 620  0Z IP     D  8 7 41.59                             114   -0.1010 20.2 110 
 620  0E ES        8 7 44.52                             114   -0.1110 20.2 110 
 620  0Z  IAML     8 7 44.80        21.6 0.12                          20.2 110 
 622  0Z IP     D  8 7 47.98                              97    0.07 9 59.8 120 
 622  0E ES        8 7 55.60                              97    0.03 9 59.8 120 
 622  0Z  IAML     8 7 56.14         2.0 0.16                          59.8 120 
 624  0Z IP     D  8 7 52.62                              94    0.23 8 87.6 107 
 624  0E ES        8 8  3.53                              94    0.08 8 87.6 107 
 624  0Z  IAML     8 8  4.39         3.3 0.18                          87.6 107 
 630  0Z IP     C  8 8  5.03                              58   -0.09 5  169 113 
 630  0N ES        8 8 25.78                              58   -0.08 5  169 113 
 630  0Z  IAML     8 9 33.99         3.0 2.92                           169 113 
                                                                                
 2016  9 2 2150 26.3 L  72.691 124.340 20.0  BER  4 0.1 0.4LBER                1
 GAP=292        0.31       4.1     9.6  2.4  0.2752E+02 -0.1569E+02 -0.2874E+01E
 ACTION:ARG 20-04-02 17:38 OP:mn   STATUS:               ID:20160902214859     I
 2016-09-02-2148-59M.SIOLA_039                                                 6
 STAT SP IPHASW D HRMM SECON CODA AMPLIT PERI AZIMU VELO AIN AR TRES W  DIS CAZ7
 620  0Z IP     D 2150 29.71                             168   -0.0210 4.15 177 
 620  0Z  IAML    2150 32.29         7.3 0.05                          4.15 177 
 620  0E ES       2150 32.31                             168    0.0110 4.15 177 
 622  0Z IP     D 2150 34.04                             113   -0.10 9 42.8 130 
 622  0E ES       2150 40.08                             113    0.02 9 42.8 130 
 622  0Z  IAML    2150 40.21         4.3 0.25                          42.8 130 
 623  0Z IP     D 2150 37.12                             106   -0.05 8 62.7 130 
 623  0E ES       2150 45.47                             106    0.07 8 62.7 130 
 623  0Z  IAML    2150 46.02         2.0 0.22                          62.7 130 
 624  0Z IP     D 2150 38.34                             104    0.19 8 69.0 109 
 624  0E ES       2150 47.02                             104   -0.11 8 69.0 109 
 624  0Z  IAML    2150 48.24         2.5 0.14                          69.0 109 
                                                                                
 2016  9 3 0402 55.8 L  71.728 129.286  4.2  BER  4 0.5 1.3LBER                1
 GAP=244        0.85     196.4   629.7578.3 -0.1234E+06  0.3637E+06 -0.1136E+06E
 ACTION:ARG 20-04-02 17:38 OP:mn   STATUS:               ID:20160903040159     I
 2016-09-03-0401-59M.SIOLA_039                                                 6
 STAT SP IPHASW D HRMM SECON CODA AMPLIT PERI AZIMU VELO AIN AR TRES W  DIS CAZ7
 632  0Z IP     D  4 2 59.38                             103    0.1110 18.7 204 
 632  0E ES        4 3  1.78                             103   -0.0910 18.7 204 
 632  0Z  IAML     4 3  1.88        98.7 0.11                          18.7 204 
 630  0Z IP     C  4 3  4.14                              65   -0.38 9 51.1 320 
 630  0E ES        4 3 10.59                              65   -0.53 9 51.1 320 
 630  0Z  IAML     4 3 11.69        12.9 0.09                          51.1 320 
 624  0Z IP        4 3 18.76                              65    1.06 6  133 310 
 624  0E ES        4 3 34.72                              65    0.40 6  133 310 
 624  0Z  IAML     4 3 37.97         7.4 0.17                           133 310 
 622  0Z IP     D  4 3 22.40                              65    0.64 5  158 302 
 622  0E ES        4 3 41.53                              65    0.07 5  158 302 
 622  0Z  IAML     4 3 43.95         5.2 0.26                           158 302 
                                                                                
 2016  9 4 0325 43.2 L  71.920 129.427 22.3  BER  4 0.2 0.8LBER                1
 GAP=335        0.48      13.0    17.6  4.2  0.1307E+03  0.3285E+02  0.4408E+02E
 ACTION:ARG 20-04-02 17:38 OP:mn   STATUS:               ID:20160904032436     I
 2016-09-04-0324-36M.SIOLA_039                                                 6
 STAT SP IPHASW D HRMM SECON CODA AMPLIT PERI AZIMU VELO AIN AR TRES W  DIS CAZ7
 630  0Z IP     C  325 50.84                             116   -0.1210 41.8 295 
 630  0E ES        325 57.20                             116    0.3110 41.8 295 
 630  0Z  IAML     325 58.31         6.2 0.11                          41.8 295 
 627  0Z IP     D  325 57.74                             103   -0.16 8 87.1 286 
 627  0N ES        326  8.76                             103   -0.34 8 87.1 286 
 627  0Z  IAML     326 13.07         6.2 0.53                          87.1 286 
 625  0Z IP     C  326  2.34                              58   -0.04 7  118 286 
 626  0Z IP        326  2.69                              58    0.32 7  118 270 
 626  0E ES        326 17.10                              58    0.12 7  118 270 
 625  0N ES        326 16.89                              58   -0.10 7  118 286 
 625  0Z  IAML     326 23.15         2.3 0.23                           118 286 
                                                                                
 2016  9 4 1537 45.7 L  72.934 123.354 10.9  BER  4 0.2 2.1LBER                1
 GAP=333        0.37       5.9    18.3  4.5  0.2540E+02 -0.5043E+00 -0.3408E+01E
 ACTION:ARG 20-04-02 17:38 OP:mn   STATUS:               ID:20160904153622     I
 2016-09-04-1536-22M.SIOLA_039                                                 6
 STAT SP IPHASW D HRMM SECON CODA AMPLIT PERI AZIMU VELO AIN AR TRES W  DIS CAZ7
 628  0Z IP     D 1538  8.50                              93   -0.0710  140 113 
 628  0N ES       1538 25.92                              93   -0.0610  140 113 
 628  0Z  IAML    1538 29.31        25.6 0.23                           140 113 
 626  0Z IP     D 1538  9.93                              92    0.04 9  148 141 
 626  0N ES       1538 28.39                              92    0.09 9  148 141 
 626  0Z  IAML    1538 28.71        41.6 0.18                           148 141 
 629  0Z IP     C 1538 13.38                              58   -0.22 8  174 128 
 629  0E ES       1538 34.46                              58   -0.38 8  174 128 
 629  0Z  IAML    1538 36.26        10.8 0.13                           174 128 
 630  0Z IP     C 1538 16.43                              58    0.35 7  192 117 
 630  0N ES       1538 39.70                              58    0.49 7  192 117 
 630  0Z  IAML    1538 40.60        45.1 0.32                           192 117 
                                                                                
 2016  9 4 1537 45.4 L  72.787 123.173  3.0  BER  4 0.1 2.2LBER                1
 GAP=330        0.27       7.1    14.7  7.3 -0.1682E+01 -0.4356E+02  0.2841E+02E
 ACTION:ARG 20-04-02 17:38 OP:mn   STATUS:               ID:20160904153655     I
 2016-09-04-1536-55M.SIOLA_039                                                 6
 STAT SP IPHASW D HRMM SECON CODA AMPLIT PERI AZIMU VELO AIN AR TRES W  DIS CAZ7
 628  0Z IP     D 1538  8.34                              65   -0.1010  140 106 
 628  0E ES       1538 25.98                              65    0.0310  140 106 
 628  0Z  IAML    1538 27.57        33.6 0.20                           140 106 
 629  0Z IP     C 1538 13.32                              65    0.03 8  170 122 
 629  0N ES       1538 34.51                              65    0.02 8  170 122 
 629  0Z  IAML    1538 36.20        10.7 0.13                           170 122 
 630  0Z IP     C 1538 16.46                              50    0.12 7  191 112 
 630  0N ES       1538 39.85                              50   -0.01 7  191 112 
 630  0Z  IAML    1538 41.65        50.7 0.17                           191 112 
 631  0Z IP     C 1538 18.84                              50    0.07 6  209 136 
 631  0E ES       1538 44.02                              50   -0.11 6  209 136 
 631  0Z  IAML    1538 44.83        47.0 0.35                           209 136 
                                                                                
 2016  9 4 1539 39.9 L  72.803 123.164  3.4  BER  4 0.1 1.7LBER                1
 GAP=331        0.30       8.0    16.6  8.2  0.1069E+01 -0.5370E+02  0.3580E+02E
 ACTION:ARG 20-04-02 17:38 OP:mn   STATUS:               ID:20160904153850     I
 2016-09-04-1538-50M.SIOLA_039                                                 6
 STAT SP IPHASW D HRMM SECON CODA AMPLIT PERI AZIMU VELO AIN AR TRES W  DIS CAZ7
 628  0Z IP     D 1540  2.86                              65   -0.1810  140 107 
 628  0N ES       1540 20.63                              65   -0.0010  140 107 
 628  0Z  IAML    1540 22.27        10.0 0.21                           140 107 
 629  0Z IP     C 1540  8.11                              65    0.14 8  171 123 
 629  0N ES       1540 29.36                              65    0.07 8  171 123 
 629  0Z  IAML    1540 30.76         5.1 0.28                           171 123 
 630  0Z IP     D 1540 11.12                              50    0.19 7  192 113 
 630  0N ES       1540 34.61                              50    0.09 7  192 113 
 630  0Z  IAML    1540 35.42        11.9 0.24                           192 113 
 631  0Z IP     D 1540 13.48                              50    0.04 6  210 136 
 631  0E ES       1540 38.64                              50   -0.29 6  210 136 
 631  0Z  IAML    1540 39.53        16.0 0.37                           210 136 
                                                                                
