 2016  819 1104 39.8 L  71.982 129.750  0.0  BER  5 0.1 0.7LBER 1.0CBER        1
 GAP=328        0.31       8.3   103.7 68.8 -0.7672E+03  0.7114E+04 -0.5133E+03E
 ACTION:ARG 20-05-11 21:31 OP:mn   STATUS:               ID:20160819110358     I
 2016-08-19-1103-58M.arct__039                                                 6
 STAT SP IPHASW D HRMM SECON CODA AMPLIT PERI AZIMU VELO AIN AR TRES W  DIS CAZ7
 630  0Z IP     C 11 4 48.47   27                         65   -0.2310 50.2 283 
 630  0N ES       11 4 55.42                              65   -0.0110 50.2 283 
 630  0Z  IAML    11 4 57.91         3.3 0.08                          50.2 283 
 629  0Z IP     C 11 4 54.27   34                         65    0.04 9 84.5 267 
 629  0N ES       11 5  5.22                              65    0.05 9 84.5 267 
 629  0Z  IAML    11 5  8.13         2.0 0.18                          84.5 267 
 627  0Z IP     D 11 4 56.29                              65    0.13 8 96.4 280 
 627  0N ES       11 5  8.61                              65    0.05 8 96.4 280 
 627  0Z  IAML    11 5 11.77         2.0 0.14                          96.4 280 
 628  0Z IP     C 11 4 56.93   32                         65    0.14 8  100 299 
 628  0N ES       11 5  9.69                              65    0.01 8  100 299 
 628  0Z  IAML    11 5 10.06         9.0 0.27                           100 299 
 625  0Z IP     C 11 5  1.10   33                         65    0.02 7  127 281 
 625  0N ES       11 5 17.09                              65   -0.14 7  127 281 
 625  0Z  IAML    11 5 20.68         1.2 0.23                           127 281 
                                                                                
 2016  819 1107 10.3 L  72.023 129.909 23.7  BER  4 0.1 0.5LBER 0.8CBER        1
 GAP=329        0.30       4.2     8.6  1.6 -0.5491E+00 -0.6380E+00 -0.1146E+01E
 ACTION:ARG 20-05-11 21:31 OP:mn   STATUS:               ID:20160819110622     I
 2016-08-19-1106-22M.arct__039                                                 6
 STAT SP IPHASW D HRMM SECON CODA AMPLIT PERI AZIMU VELO AIN AR TRES W  DIS CAZ7
 630  0Z IP     C 11 7 20.02   24                        112   -0.1110 54.8 277 
 630  0E ES       11 7 27.64                             112    0.0510 54.8 277 
 630  0Z  IAML    11 7 29.23         1.8 0.08                          54.8 277 
 629  0Z IP     C 11 7 25.60                              68    0.01 9 90.3 265 
 629  0N ES       11 7 37.25                              68    0.06 9 90.3 265 
 629  0Z  IAML    11 7 37.29         1.2 0.20                          90.3 265 
 627  0Z IP     C 11 7 27.22   27                         58    0.07 8  101 277 
 627  0E ES       11 7 39.79                              58   -0.16 8  101 277 
 627  0Z  IAML    11 7 41.38         2.0 0.13                           101 277 
 628  0Z IP     C 11 7 27.51   29                         58    0.08 8  103 295 
 628  0N ES       11 7 40.44                              58    0.01 8  103 295 
 628  0Z  IAML    11 7 40.95         3.2 0.24                           103 295 
                                                                                
 2016  819 1115 20.6 L  72.029 129.819 19.8  BER  4 0.2 0.2LBER 0.9CBER        1
 GAP=341        0.39       6.4    12.1  3.0  0.2081E+02 -0.8243E+01  0.1696E+00E
 ACTION:ARG 20-05-11 21:31 OP:mn   STATUS:               ID:20160819111419     I
 2016-08-19-1114-19M.arct__039                                                 6
 STAT SP IPHASW D HRMM SECON CODA AMPLIT PERI AZIMU VELO AIN AR TRES W  DIS CAZ7
 630  0Z IP     C 1115 29.65   29                        109   -0.0210 51.6 276 
 630  0E ES       1115 36.84                             109    0.2410 51.6 276 
 630  0Z  IAML    1115 39.17         1.1 0.10                          51.6 276 
 627  0Z IP     C 1115 36.81   26                         99   -0.13 8 98.0 277 
 627  0N ES       1115 49.05                              99   -0.34 8 98.0 277 
 627  0Z  IAML    1115 49.74         0.8 0.16                          98.0 277 
 628  0Z IP     D 1115 37.27   32                         99   -0.00 8  100 296 
 628  0N ES       1115 49.98                              99    0.01 8  100 296 
 628  0Z  IAML    1115 51.61         1.9 0.18                           100 296 
 625  0Z IP     C 1115 41.59   32                         58    0.14 7  128 279 
 625  0N ES       1115 57.38                              58    0.04 7  128 279 
 625  0Z  IAML    1115 58.25         0.4 0.15                           128 279 
                                                                                
 2016  819 1124 56.1 L  71.868 129.700 25.1  BER  4 0.3 0.2LBER 0.4CBER        1
 GAP=269        0.57       3.7    19.7  5.3  0.3740E+02 -0.1155E+02 -0.1313E+02E
 ACTION:ARG 20-05-11 21:31 OP:mn   STATUS:               ID:20160819112355     I
 2016-08-19-1123-55M.arct__039                                                 6
 STAT SP IPHASW D HRMM SECON CODA AMPLIT PERI AZIMU VELO AIN AR TRES W  DIS CAZ7
 632  0Z IP     C 1125  3.78   19                        112   -0.0110 39.5 214 
 632  0N ES       1125  9.54                             112   -0.0910 39.5 214 
 632  0Z  IAML    1125 10.99         1.6 0.09                          39.5 214 
 630  0Z IP     C 1125  5.70   17                         99    0.00 9 52.8 297 
 630  0E ES       1125 13.07                              99    0.07 9 52.8 297 
 630  0Z  IAML    1125 15.67         0.7 0.08                          52.8 297 
 627  0Z IP     C 1125 12.57   23                         67    0.21 8 97.8 288 
 627  0N ES       1125 25.08                              67    0.36 8 97.8 288 
 627  0Z  IAML    1125 27.08         0.8 0.11                          97.8 288 
 628  0Z IP     C 1125 13.60   24                         67    0.17 7  106 305 
 628  0E ES       1125 25.89                              67   -0.72 7  106 305 
 628  0Z  IAML    1125 26.19         1.6 0.28                           106 305 
                                                                                
 2016  819 1133 46.3 L  71.852 129.705 25.5  BER  4 0.2 0.1LBER 1.1CBER        1
 GAP=278        0.43       2.7    12.8  4.2  0.1609E+02 -0.2870E+00 -0.6615E+01E
 ACTION:ARG 20-05-11 21:31 OP:mn   STATUS:               ID:20160819113245     I
 2016-08-19-1132-45M.arct__039                                                 6
 STAT SP IPHASW D HRMM SECON CODA AMPLIT PERI AZIMU VELO AIN AR TRES W  DIS CAZ7
 632  0Z IP     D 1133 53.80   23                        115   -0.0610 38.1 216 
 632  0E ES       1133 59.53                             115   -0.0510 38.1 216 
 632  0Z  IAML    1134  0.79         2.0 0.07                          38.1 216 
 630  0Z IP     C 1133 56.09   34                        101    0.00 9 53.8 298 
 630  0E ES       1134  3.34                             101   -0.16 9 53.8 298 
 630  0Z  IAML    1134  5.55         0.8 0.05                          53.8 298 
 629  0Z IP     C 1134  0.88   42                         91    0.38 8 83.5 277 
 629  0N ES       1134 11.49                              91    0.22 8 83.5 277 
 629  0Z  IAML    1134 13.69         0.6 0.13                          83.5 277 
 627  0Z IP     C 1134  2.61   39                         67   -0.06 8 98.6 289 
 627  0N ES       1134 14.89                              67   -0.20 8 98.6 289 
 627  0Z  IAML    1134 16.90         0.9 0.14                          98.6 289 
                                                                                
 2016  819 1156 22.4 L  71.867 129.661 24.8  BER  4 0.3 0.3LBER 0.5CBER        1
 GAP=267        0.67       3.9    23.2  3.4  0.5271E+02 -0.1136E+02 -0.7327E+01E
 ACTION:ARG 20-05-11 21:31 OP:mn   STATUS:               ID:20160819115521     I
 2016-08-19-1155-21M.arct__039                                                 6
 STAT SP IPHASW D HRMM SECON CODA AMPLIT PERI AZIMU VELO AIN AR TRES W  DIS CAZ7
 632  0Z IP     D 1156 29.92   18                        121   -0.0010 38.7 212 
 632  0N ES       1156 35.54                             121   -0.1210 38.7 212 
 632  0Z  IAML    1156 37.76         1.9 0.08                          38.7 212 
 630  0Z IP     C 1156 31.76   19                        114   -0.0310 51.7 297 
 630  0E ES       1156 39.04                             114    0.1010 51.7 297 
 630  0Z  IAML    1156 41.61         0.9 0.10                          51.7 297 
 627  0Z IP     C 1156 39.09   26                         58    0.60 8 96.6 288 
 627  0N ES       1156 51.02                              58    0.28 8 96.6 288 
 627  0Z  IAML    1156 52.77         1.4 0.22                          96.6 288 
 628  0Z IP     C 1156 39.49   28                         58   -0.10 7  105 306 
 628  0E ES       1156 51.94                              58   -0.74 7  105 306 
 628  0Z  IAML    1156 52.80         1.7 0.16                           105 306 
                                                                                
 2016  819 1353 55.0 L  71.897 129.742  5.1  BER  4 0.2 0.7LBER 0.6CBER        1
 GAP=270        0.52       4.2    21.8999.9  0.7614E+02 -0.2572E+05 -0.5955E+04E
 ACTION:ARG 20-05-11 21:31 OP:mn   STATUS:               ID:20160819135255     I
 2016-08-19-1352-55M.arct__039                                                 6
 STAT SP IPHASW D HRMM SECON CODA AMPLIT PERI AZIMU VELO AIN AR TRES W  DIS CAZ7
 632  0Z IP     D 1354  2.30   29                         90   -0.0310 42.9 213 
 632  0N ES       1354  7.79                              90   -0.0910 42.9 213 
 632  0Z  IAML    1354  9.59       146.5 0.06                          42.9 213 
 630  0Z IP     C 1354  3.79   17                         90   -0.1310 52.8 293 
 630  0N ES       1354 10.74                              90    0.0510 52.8 293 
 630  0Z  IAML    1354 13.28         1.0 0.10                          52.8 293 
 627  0Z IP     C 1354 11.70   24                         90    0.44 8 98.3 286 
 627  0N ES       1354 23.87                              90    0.27 8 98.3 286 
 627  0Z  IAML    1354 24.53         1.1 0.15                          98.3 286 
 628  0Z IP     C 1354 12.41   26                         90    0.06 8  105 304 
 628  0E ES       1354 25.03                              90   -0.49 8  105 304 
 628  0Z  IAML    1354 27.19         1.4 0.20                           105 304 
                                                                                
 2016  819 1405 22.6 L  71.962 129.667 18.2  BER  5 0.1 0.6LBER 0.8CBER        1
 GAP=327        0.33       4.0     9.3  2.0  0.9555E+01 -0.2567E+01  0.1829E+01E
 ACTION:ARG 20-05-11 21:31 OP:mn   STATUS:               ID:20160819140441     I
 2016-08-19-1404-41M.arct__039                                                 6
 STAT SP IPHASW D HRMM SECON CODA AMPLIT PERI AZIMU VELO AIN AR TRES W  DIS CAZ7
 630  0Z IP     C 14 5 31.20   21                        108    0.0910 47.9 286 
 630  0N ES       14 5 37.50                             108   -0.0410 47.9 286 
 630  0Z  IAML    14 5 40.37         2.1 0.12                          47.9 286 
 627  0Z IP     C 14 5 38.26   26                         99   -0.10 8 94.0 282 
 627  0N ES       14 5 50.53                              99    0.23 8 94.0 282 
 627  0Z  IAML    14 5 51.94         1.3 0.11                          94.0 282 
 628  0Z IP     C 14 5 39.02   26                         98   -0.13 8 99.0 301 
 628  0E ES       14 5 51.55                              98   -0.14 8 99.0 301 
 628  0Z  IAML    14 5 52.43         3.8 0.20                          99.0 301 
 626  0Z IP     C 14 5 43.35   31                         58   -0.00 7  126 268 
 626  0N ES       14 5 58.90                              58   -0.20 7  126 268 
 626  0Z  IAML    14 5 59.11         1.4 0.38                           126 268 
 624  0Z IP     D 14 5 43.91   28                         58    0.14 7  129 298 
 624  0N ES       14 5 59.96                              58    0.13 7  129 298 
 624  0Z  IAML    14 6  1.96         1.4 0.18                           129 298 
                                                                                
 2016  819 2020 13.4 L  71.927 129.633 14.3  BER  5 0.1 1.1LBER 1.4CBER        1
 GAP=336        0.30       7.7    10.5  3.4  0.2303E+02 -0.1099E+02 -0.1719E+02E
 ACTION:ARG 20-05-11 21:31 OP:mn   STATUS:               ID:20160819201910     I
 2016-08-19-2019-10M.arct__039                                                 6
 STAT SP IPHASW D HRMM SECON CODA AMPLIT PERI AZIMU VELO AIN AR TRES W  DIS CAZ7
 625  0Z IP     D 2020 33.97   40                         95    0.1010  124 284 
 625  0N ES       2020 49.52                              95    0.0610  124 284 
 625  0Z  IAML    2020 51.47         3.8 0.18                           124 284 
 626  0Z IP     D 2020 33.77   37                         95   -0.1610  125 270 
 626  0N ES       2020 49.54                              95   -0.0310  125 270 
 626  0Z  IAML    2020 53.80         2.6 0.07                           125 270 
 623  0Z IP     D 2020 36.39                              58    0.07 9  140 290 
 623  0N ES       2020 53.78                              58    0.01 9  140 290 
 623  0Z  IAML    2020 55.60         3.8 0.16                           140 290 
 622  0Z IP     C 2020 38.79   44                         58   -0.05 8  158 293 
 622  0E ES       2020 57.88                              58   -0.31 8  158 293 
 622  0Z  IAML    2020 59.84         3.2 0.19                           158 293 
 621  0Z IP     C 2020 39.93   41                         58    0.09 8  166 282 
 621  0N ES       2021  0.21                              58    0.25 8  166 282 
 621  0Z  IAML    2021  0.92         5.0 0.20                           166 282 
                                                                                
 2016  819 2043 43.7 L  72.012 129.833 11.7  BER  5 0.2 1.2LBER 1.3CBER        1
 GAP=330        0.34       4.4    10.1  4.4  0.5202E+01 -0.7683E+01 -0.1012E+01E
 ACTION:ARG 20-05-11 21:31 OP:mn   STATUS:               ID:20160819204246     I
 2016-08-19-2042-46M.arct__039                                                 6
 STAT SP IPHASW D HRMM SECON CODA AMPLIT PERI AZIMU VELO AIN AR TRES W  DIS CAZ7
 629  0Z IP     C 2043 58.24   37                         95    0.0110 87.6 265 
 629  0N ES       2044  9.28                              95   -0.0110 87.6 265 
 629  0Z  IAML    2044 10.34        10.5 0.18                          87.6 265 
 627  0Z IP     D 2044  0.16   42                         94    0.14 9 98.7 278 
 627  0N ES       2044 12.27                              94   -0.17 9 98.7 278 
 627  0Z  IAML    2044 13.18         7.6 0.14                          98.7 278 
 624  0Z IP     D 2044  5.04   42                         93   -0.29 8  132 295 
 624  0E ES       2044 21.83                              93    0.03 8  132 295 
 624  0Z  IAML    2044 25.29         5.5 0.20                           132 295 
 623  0Z IP     D 2044  7.21   36                         93   -0.03 7  144 286 
 623  0E ES       2044 25.49                              93    0.34 7  144 286 
 623  0Z  IAML    2044 26.04         3.3 0.18                           144 286 
 621  0Z IP     C 2044 11.25   37                         58    0.19 6  171 279 
 621  0E ES       2044 31.76                              58   -0.12 6  171 279 
 621  0Z  IAML    2044 32.98         3.6 0.15                           171 279 
                                                                                
 2016  820 0036 11.2 L  71.990 129.901  5.0  BER  4 0.1 1.0LBER 0.9CBER        1
 GAP=330        0.28      10.5   146.7 96.1 -0.1465E+04  0.1407E+05 -0.9627E+03E
 ACTION:ARG 20-05-11 21:31 OP:mn   STATUS:               ID:20160820003459     I
 2016-08-20-0034-59M.arct__039                                                 6
 STAT SP IPHASW D HRMM SECON CODA AMPLIT PERI AZIMU VELO AIN AR TRES W  DIS CAZ7
 629  0Z IP     C  036 26.04                              65   -0.0710 89.7 267 
 629  0N ES        036 37.37                              65   -0.0310 89.7 267 
 629  0Z  IAML     036 37.71         5.7 1.09                          89.7 267 
 627  0Z IP     D  036 28.03   33                         65    0.04 9  101 279 
 627  0N ES        036 40.81                              65    0.10 9  101 279 
 627  0Z  IAML     036 41.96         4.8 0.30                           101 279 
 628  0Z IP     D  036 28.44   24                         65   -0.05 9  105 297 
 628  0Z  IAML     036 41.55         4.7 0.23                           105 297 
 628  0N ES        036 41.55                              65   -0.05 9  105 297 
 624  0Z IP     C  036 33.52   30                         65    0.13 8  135 295 
 624  0E ES        036 50.19                              65   -0.03 8  135 295 
 624  0Z  IAML     036 51.80         2.2 0.21                           135 295 
                                                                                
 2016  820 0036 12.8 L  72.010 129.652 17.7  BER  5 0.1 0.9LBER 1.3CBER        1
 GAP=327        0.29       3.5     8.6  1.9  0.6611E+01  0.5725E-01  0.2247E+01E
 ACTION:ARG 20-05-11 21:31 OP:mn   STATUS:               ID:20160820003530     I
 2016-08-20-0035-30M.arct__039                                                 6
 STAT SP IPHASW D HRMM SECON CODA AMPLIT PERI AZIMU VELO AIN AR TRES W  DIS CAZ7
 627  0Z IP     D  036 28.19   35                         99   -0.0510 92.6 279 
 627  0E ES        036 40.00                              99   -0.0010 92.6 279 
 627  0Z  IAML     036 41.96         4.4 0.28                          92.6 279 
 628  0Z IP     D  036 28.72   29                         98   -0.0610 95.9 298 
 628  0N ES        036 40.97                              98    0.0310 95.9 298 
 625  0Z IP     C  036 33.29   37                         58    0.17 9  123 280 
 625  0N ES        036 48.79                              58    0.21 9  123 280 
 625  0Z  IAML     036 51.16         5.0 3.16                           123 280 
 626  0Z IP     C  036 33.51   52                         58    0.01 8  126 266 
 626  0N ES        036 49.10                              58   -0.15 8  126 266 
 626  0Z  IAML     036 50.28         0.9 0.14                           126 266 
 624  0Z IP     D  036 33.52   38                         58   -0.03 8  126 296 
 624  0E ES        036 49.23                              58   -0.11 8  126 296 
 624  0Z  IAML     036 54.02         3.0 0.26                           126 296 
                                                                                
 2016  820 0052 15.6 L  72.748 130.742 15.6  BER  1 0.0 1.2LBER 1.3CBER        1
 GAP=360        0.30      12.3    37.4  0.0 -0.6972E+02  0.5725E-01  0.2247E+01E
 ACTION:ARG 20-05-11 21:31 OP:mn   STATUS:               ID:20160820005142     I
 2016-08-20-0051-42M.arct__039                                                 6
 STAT SP IPHASW D HRMM SECON CODA AMPLIT PERI AZIMU VELO AIN AR TRES W  DIS CAZ7
 626  0Z IP     C  052 44.76   38                         58    0.0110  186 241 
 626  0Z E         052 44.91                   56.8  8.6      0         186 241 
 626  0N ES        053  6.92                              58   -0.0110  186 241 
 626  0Z  IAML     053  9.35         2.9 0.26                           186 241 
                                                                                
