<?xml version="1.0" encoding="UTF-8"?>
<q:quakeml xmlns:q="http://quakeml.org/xmlns/quakeml/1.2" xmlns:xsi="http://www.w3.org/2001/XMLSchema-instance" xsi:schemaLocation="http://quakeml.org/xmlns/quakeml/1.2 http://quakeml.org/schema/quakeml-1.2.xsd"><eventParameters publicID="smi:local/eventParameters"><event publicID="smi:local/event/2016080307365450"><origin publicID="smi:local/origin/2016080307365450"><time><value>2016-08-03T07:36:5.5Z</value></time><latitude><value>72.79</value></latitude><longitude><value>127.098</value></longitude><depth><value>10800</value></depth><creationInfo><agencyID>BER</agencyID></creationInfo></origin><magnitude publicID="smi:local/mag/2016080307365450/ML"><mag><value>0.5</value></mag><type>ML</type><creationInfo><agencyID>BER</agencyID></creationInfo></magnitude><magnitude publicID="smi:local/mag/2016080307365450/Md"><mag><value>0.4</value></mag><type>Md</type><creationInfo><agencyID>BER</agencyID></creationInfo></magnitude><pick publicID="smi:local/e1p1"><time><value>2016-08-03T07:38:01.6Z</value></time><waveformID networkCode="SI" stationCode="628" channelCode="0Z" /><phaseHint>P</phaseHint></pick><pick publicID="smi:local/e1p2"><time><value>2016-08-03T07:38:07.3Z</value></time><waveformID networkCode="SI" stationCode="628" channelCode="0E" /><phaseHint>S</phaseHint></pick><pick publicID="smi:local/e1p3"><time><value>2016-08-03T07:38:08.9Z</value></time><waveformID networkCode="SI" stationCode="628" channelCode="0Z" /><phaseHint>IAML</phaseHint></pick><pick publicID="smi:local/e1p4"><time><value>2016-08-03T07:38:02.1Z</value></time><waveformID networkCode="SI" stationCode="624" channelCode="0Z" /><phaseHint>P</phaseHint></pick><pick publicID="smi:local/e1p5"><time><value>2016-08-03T07:38:08.1Z</value></time><waveformID networkCode="SI" stationCode="624" channelCode="0E" /><phaseHint>S</phaseHint></pick><pick publicID="smi:local/e1p6"><time><value>2016-08-03T07:38:10.1Z</value></time><waveformID networkCode="SI" stationCode="624" channelCode="0Z" /><phaseHint>IAML</phaseHint></pick><pick publicID="smi:local/e1p7"><time><value>2016-08-03T07:38:09.6Z</value></time><waveformID networkCode="SI" stationCode="630" channelCode="0Z" /><phaseHint>P</phaseHint></pick><pick publicID="smi:local/e1p8"><time><value>2016-08-03T07:38:21.1Z</value></time><waveformID networkCode="SI" stationCode="630" channelCode="0E" /><phaseHint>S</phaseHint></pick><pick publicID="smi:local/e1p9"><time><value>2016-08-03T07:38:22.1Z</value></time><waveformID networkCode="SI" stationCode="630" channelCode="0Z" /><phaseHint>IAML</phaseHint></pick><pick publicID="smi:local/e1p10"><time><value>2016-08-03T07:38:19.6Z</value></time><waveformID networkCode="SI" stationCode="631" channelCode="0Z" /><phaseHint>P</phaseHint></pick><pick publicID="smi:local/e1p11"><time><value>2016-08-03T07:38:39.1Z</value></time><waveformID networkCode="SI" stationCode="631" channelCode="0E" /><phaseHint>S</phaseHint></pick><pick publicID="smi:local/e1p12"><time><value>2016-08-03T07:38:40.0Z</value></time><waveformID networkCode="SI" stationCode="631" channelCode="0Z" /><phaseHint>IAML</phaseHint></pick></event><event publicID="smi:local/event/2016080315230659"><origin publicID="smi:local/origin/2016080315230659"><time><value>2016-08-03T15:23:0.6Z</value></time><latitude><value>71.346</value></latitude><longitude><value>130.508</value></longitude><depth><value>0</value></depth><creationInfo><agencyID>BER</agencyID></creationInfo></origin><magnitude publicID="smi:local/mag/2016080315230659/ML"><mag><value>1.1</value></mag><type>ML</type><creationInfo><agencyID>BER</agencyID></creationInfo></magnitude><magnitude publicID="smi:local/mag/2016080315230659/Md"><mag><value>1.4</value></mag><type>Md</type><creationInfo><agencyID>BER</agencyID></creationInfo></magnitude><pick publicID="smi:local/e2p1"><time><value>2016-08-03T15:24:16.2Z</value></time><waveformID networkCode="SI" stationCode="632" channelCode="0Z" /><phaseHint>P</phaseHint></pick><pick publicID="smi:local/e2p2"><time><value>2016-08-03T15:24:24.1Z</value></time><waveformID networkCode="SI" stationCode="632" channelCode="0N" /><phaseHint>S</phaseHint></pick><pick publicID="smi:local/e2p3"><time><value>2016-08-03T15:24:27.1Z</value></time><waveformID networkCode="SI" stationCode="632" channelCode="0Z" /><phaseHint>IAML</phaseHint></pick><pick publicID="smi:local/e2p4"><time><value>2016-08-03T15:24:36.9Z</value></time><waveformID networkCode="SI" stationCode="625" channelCode="0Z" /><phaseHint>P</phaseHint></pick><pick publicID="smi:local/e2p5"><time><value>2016-08-03T15:24:58.5Z</value></time><waveformID networkCode="SI" stationCode="625" channelCode="0N" /><phaseHint>S</phaseHint></pick><pick publicID="smi:local/e2p6"><time><value>2016-08-03T15:24:59.5Z</value></time><waveformID networkCode="SI" stationCode="625" channelCode="0Z" /><phaseHint>IAML</phaseHint></pick><pick publicID="smi:local/e2p7"><time><value>2016-08-03T15:24:38.9Z</value></time><waveformID networkCode="SI" stationCode="623" channelCode="0Z" /><phaseHint>P</phaseHint></pick><pick publicID="smi:local/e2p8"><time><value>2016-08-03T15:25:03.2Z</value></time><waveformID networkCode="SI" stationCode="623" channelCode="0N" /><phaseHint>S</phaseHint></pick><pick publicID="smi:local/e2p9"><time><value>2016-08-03T15:25:04.3Z</value></time><waveformID networkCode="SI" stationCode="623" channelCode="0Z" /><phaseHint>IAML</phaseHint></pick><pick publicID="smi:local/e2p10"><time><value>2016-08-03T15:24:42.3Z</value></time><waveformID networkCode="SI" stationCode="621" channelCode="0Z" /><phaseHint>P</phaseHint></pick><pick publicID="smi:local/e2p11"><time><value>2016-08-03T15:25:08.2Z</value></time><waveformID networkCode="SI" stationCode="621" channelCode="0N" /><phaseHint>S</phaseHint></pick><pick publicID="smi:local/e2p12"><time><value>2016-08-03T15:25:09.4Z</value></time><waveformID networkCode="SI" stationCode="621" channelCode="0Z" /><phaseHint>IAML</phaseHint></pick></event><event publicID="smi:local/event/2016080402510010"><origin publicID="smi:local/origin/2016080402510010"><time><value>2016-08-04T02:51:0.1Z</value></time><latitude><value>72.661</value></latitude><longitude><value>124.92</value></longitude><depth><value>4200</value></depth><creationInfo><agencyID>BER</agencyID></creationInfo></origin><magnitude publicID="smi:local/mag/2016080402510010/ML"><mag><value>1.6</value></mag><type>ML</type><creationInfo><agencyID>BER</agencyID></creationInfo></magnitude><magnitude publicID="smi:local/mag/2016080402510010/Md"><mag><value>1.0</value></mag><type>Md</type><creationInfo><agencyID>BER</agencyID></creationInfo></magnitude><pick publicID="smi:local/e3p1"><time><value>2016-08-04T02:53:04.9Z</value></time><waveformID networkCode="SI" stationCode="622" channelCode="0Z" /><phaseHint>P</phaseHint></pick><pick publicID="smi:local/e3p2"><time><value>2016-08-04T02:53:08.8Z</value></time><waveformID networkCode="SI" stationCode="622" channelCode="0E" /><phaseHint>S</phaseHint></pick><pick publicID="smi:local/e3p3"><time><value>2016-08-04T02:53:09.0Z</value></time><waveformID networkCode="SI" stationCode="622" channelCode="0Z" /><phaseHint>IAML</phaseHint></pick><pick publicID="smi:local/e3p4"><time><value>2016-08-04T02:53:08.2Z</value></time><waveformID networkCode="SI" stationCode="623" channelCode="0Z" /><phaseHint>P</phaseHint></pick><pick publicID="smi:local/e3p5"><time><value>2016-08-04T02:53:14.1Z</value></time><waveformID networkCode="SI" stationCode="623" channelCode="0E" /><phaseHint>S</phaseHint></pick><pick publicID="smi:local/e3p6"><time><value>2016-08-04T02:53:15.5Z</value></time><waveformID networkCode="SI" stationCode="623" channelCode="0Z" /><phaseHint>IAML</phaseHint></pick><pick publicID="smi:local/e3p7"><time><value>2016-08-04T02:53:08.5Z</value></time><waveformID networkCode="SI" stationCode="624" channelCode="0Z" /><phaseHint>P</phaseHint></pick><pick publicID="smi:local/e3p8"><time><value>2016-08-04T02:53:15.0Z</value></time><waveformID networkCode="SI" stationCode="624" channelCode="0E" /><phaseHint>S</phaseHint></pick><pick publicID="smi:local/e3p9"><time><value>2016-08-04T02:53:18.5Z</value></time><waveformID networkCode="SI" stationCode="624" channelCode="0Z" /><phaseHint>IAML</phaseHint></pick></event><event publicID="smi:local/event/2016080507280990"><origin publicID="smi:local/origin/2016080507280990"><time><value>2016-08-05T07:28:0.9Z</value></time><latitude><value>72.447</value></latitude><longitude><value>125.665</value></longitude><depth><value>0</value></depth><creationInfo><agencyID>BER</agencyID></creationInfo></origin><pick publicID="smi:local/e5p1"><time><value>2016-08-05T07:30:12Z</value></time><waveformID networkCode="SI" stationCode="623" channelCode="0Z" /><phaseHint>P</phaseHint></pick><pick publicID="smi:local/e5p2"><time><value>2016-08-05T07:30:13.6Z</value></time><waveformID networkCode="SI" stationCode="623" channelCode="0N" /><phaseHint>S</phaseHint></pick><pick publicID="smi:local/e5p3"><time><value>2016-08-05T07:30:13.7Z</value></time><waveformID networkCode="SI" stationCode="624" channelCode="0Z" /><phaseHint>P</phaseHint></pick><pick publicID="smi:local/e5p4"><time><value>2016-08-05T07:30:16.0Z</value></time><waveformID networkCode="SI" stationCode="624" channelCode="0E" /><phaseHint>S</phaseHint></pick><pick publicID="smi:local/e5p5"><time><value>2016-08-05T07:30:16.4Z</value></time><waveformID networkCode="SI" stationCode="625" channelCode="0Z" /><phaseHint>P</phaseHint></pick><pick publicID="smi:local/e5p6"><time><value>2016-08-05T07:30:21.1Z</value></time><waveformID networkCode="SI" stationCode="625" channelCode="0E" /><phaseHint>S</phaseHint></pick></event><event publicID="smi:local/event/2016080805561819"><origin publicID="smi:local/origin/2016080805561819"><time><value>2016-08-08T05:56:1.2Z</value></time><latitude><value>72.413</value></latitude><longitude><value>125.381</value></longitude><depth><value>13400</value></depth><creationInfo><agencyID>BER</agencyID></creationInfo></origin><magnitude publicID="smi:local/mag/2016080805561819/ML"><mag><value>0.3</value></mag><type>ML</type><creationInfo><agencyID>BER</agencyID></creationInfo></magnitude><magnitude publicID="smi:local/mag/2016080805561819/Md"><mag><value>0.4</value></mag><type>Md</type><creationInfo><agencyID>BER</agencyID></creationInfo></magnitude><pick publicID="smi:local/e6p1"><time><value>2016-08-08T05:58:20.5Z</value></time><waveformID networkCode="SI" stationCode="622" channelCode="0Z" /><phaseHint>P</phaseHint></pick><pick publicID="smi:local/e6p2"><time><value>2016-08-08T05:58:22.3Z</value></time><waveformID networkCode="SI" stationCode="622" channelCode="0E" /><phaseHint>S</phaseHint></pick><pick publicID="smi:local/e6p3"><time><value>2016-08-08T05:58:22.4Z</value></time><waveformID networkCode="SI" stationCode="622" channelCode="0Z" /><phaseHint>IAML</phaseHint></pick><pick publicID="smi:local/e6p4"><time><value>2016-08-08T05:58:21.6Z</value></time><waveformID networkCode="SI" stationCode="623" channelCode="0Z" /><phaseHint>P</phaseHint></pick><pick publicID="smi:local/e6p5"><time><value>2016-08-08T05:58:24.3Z</value></time><waveformID networkCode="SI" stationCode="623" channelCode="0E" /><phaseHint>S</phaseHint></pick><pick publicID="smi:local/e6p6"><time><value>2016-08-08T05:58:24.4Z</value></time><waveformID networkCode="SI" stationCode="623" channelCode="0Z" /><phaseHint>IAML</phaseHint></pick><pick publicID="smi:local/e6p7"><time><value>2016-08-08T05:58:23.7Z</value></time><waveformID networkCode="SI" stationCode="624" channelCode="0Z" /><phaseHint>P</phaseHint></pick><pick publicID="smi:local/e6p8"><time><value>2016-08-08T05:58:28.0Z</value></time><waveformID networkCode="SI" stationCode="624" channelCode="0E" /><phaseHint>S</phaseHint></pick><pick publicID="smi:local/e6p9"><time><value>2016-08-08T05:58:28.4Z</value></time><waveformID networkCode="SI" stationCode="624" channelCode="0Z" /><phaseHint>IAML</phaseHint></pick></event><event publicID="smi:local/event/2016080823215860"><origin publicID="smi:local/origin/2016080823215860"><time><value>2016-08-08T23:21:5.6Z</value></time><latitude><value>70.225</value></latitude><longitude><value>129.595</value></longitude><depth><value>0</value></depth><creationInfo><agencyID>BER</agencyID></creationInfo></origin><magnitude publicID="smi:local/mag/2016080823215860/ML"><mag><value>2.3</value></mag><type>ML</type><creationInfo><agencyID>BER</agencyID></creationInfo></magnitude><magnitude publicID="smi:local/mag/2016080823215860/Md"><mag><value>1.8</value></mag><type>Md</type><creationInfo><agencyID>BER</agencyID></creationInfo></magnitude><pick publicID="smi:local/e7p1"><time><value>2016-08-08T23:22:23.7Z</value></time><waveformID networkCode="SI" stationCode="632" channelCode="0Z" /><phaseHint>P</phaseHint></pick><pick publicID="smi:local/e7p2"><time><value>2016-08-08T23:22:43.0Z</value></time><waveformID networkCode="SI" stationCode="632" channelCode="0E" /><phaseHint>S</phaseHint></pick><pick publicID="smi:local/e7p3"><time><value>2016-08-08T23:22:45.3Z</value></time><waveformID networkCode="SI" stationCode="632" channelCode="0Z" /><phaseHint>IAML</phaseHint></pick><pick publicID="smi:local/e7p4"><time><value>2016-08-08T23:22:24.6Z</value></time><waveformID networkCode="SI" stationCode="631" channelCode="0Z" /><phaseHint>P</phaseHint></pick><pick publicID="smi:local/e7p5"><time><value>2016-08-08T23:22:44.3Z</value></time><waveformID networkCode="SI" stationCode="631" channelCode="0E" /><phaseHint>S</phaseHint></pick><pick publicID="smi:local/e7p6"><time><value>2016-08-08T23:22:45.1Z</value></time><waveformID networkCode="SI" stationCode="631" channelCode="0Z" /><phaseHint>IAML</phaseHint></pick><pick publicID="smi:local/e7p7"><time><value>2016-08-08T23:22:32.1Z</value></time><waveformID networkCode="SI" stationCode="629" channelCode="0Z" /><phaseHint>P</phaseHint></pick><pick publicID="smi:local/e7p8"><time><value>2016-08-08T23:22:58.1Z</value></time><waveformID networkCode="SI" stationCode="629" channelCode="0N" /><phaseHint>S</phaseHint></pick><pick publicID="smi:local/e7p9"><time><value>2016-08-08T23:23:04.8Z</value></time><waveformID networkCode="SI" stationCode="629" channelCode="0Z" /><phaseHint>IAML</phaseHint></pick><pick publicID="smi:local/e7p10"><time><value>2016-08-08T23:22:32.7Z</value></time><waveformID networkCode="SI" stationCode="630" channelCode="0Z" /><phaseHint>P</phaseHint></pick><pick publicID="smi:local/e7p11"><time><value>2016-08-08T23:22:58.5Z</value></time><waveformID networkCode="SI" stationCode="630" channelCode="0N" /><phaseHint>S</phaseHint></pick><pick publicID="smi:local/e7p12"><time><value>2016-08-08T23:23:00.0Z</value></time><waveformID networkCode="SI" stationCode="630" channelCode="0Z" /><phaseHint>IAML</phaseHint></pick></event><event publicID="smi:local/event/2016080906471680"><origin publicID="smi:local/origin/2016080906471680"><time><value>2016-08-09T06:47:1.8Z</value></time><latitude><value>70.428</value></latitude><longitude><value>128.754</value></longitude><depth><value>15600</value></depth><creationInfo><agencyID>BER</agencyID></creationInfo></origin><magnitude publicID="smi:local/mag/2016080906471680/ML"><mag><value>2.7</value></mag><type>ML</type><creationInfo><agencyID>BER</agencyID></creationInfo></magnitude><magnitude publicID="smi:local/mag/2016080906471680/Md"><mag><value>1.2</value></mag><type>Md</type><creationInfo><agencyID>BER</agencyID></creationInfo></magnitude><pick publicID="smi:local/e8p1"><time><value>2016-08-09T06:48:44.5Z</value></time><waveformID networkCode="SI" stationCode="629" channelCode="0Z" /><phaseHint>P</phaseHint></pick><pick publicID="smi:local/e8p2"><time><value>2016-08-09T06:48:44.6Z</value></time><waveformID networkCode="SI" stationCode="629" channelCode="0Z" /><phaseHint>E</phaseHint></pick><pick publicID="smi:local/e8p3"><time><value>2016-08-09T06:49:05.5Z</value></time><waveformID networkCode="SI" stationCode="629" channelCode="0N" /><phaseHint>S</phaseHint></pick><pick publicID="smi:local/e8p4"><time><value>2016-08-09T06:49:08.8Z</value></time><waveformID networkCode="SI" stationCode="629" channelCode="0Z" /><phaseHint>IAML</phaseHint></pick></event><event publicID="smi:local/event/2016081113224810"><origin publicID="smi:local/origin/2016081113224810"><time><value>2016-08-11T13:22:4.1Z</value></time><latitude><value>72.819</value></latitude><longitude><value>124.016</value></longitude><depth><value>15600</value></depth><creationInfo><agencyID>BER</agencyID></creationInfo></origin><magnitude publicID="smi:local/mag/2016081113224810/ML"><mag><value>1.2</value></mag><type>ML</type><creationInfo><agencyID>BER</agencyID></creationInfo></magnitude><magnitude publicID="smi:local/mag/2016081113224810/Md"><mag><value>0.1</value></mag><type>Md</type><creationInfo><agencyID>BER</agencyID></creationInfo></magnitude><pick publicID="smi:local/e10p1"><time><value>2016-08-11T13:23:52.5Z</value></time><waveformID networkCode="SI" stationCode="620" channelCode="0Z" /><phaseHint>P</phaseHint></pick><pick publicID="smi:local/e10p2"><time><value>2016-08-11T13:23:52.5Z</value></time><waveformID networkCode="SI" stationCode="620" channelCode="0Z" /><phaseHint>E</phaseHint></pick><pick publicID="smi:local/e10p3"><time><value>2016-08-11T13:23:55.8Z</value></time><waveformID networkCode="SI" stationCode="620" channelCode="0E" /><phaseHint>S</phaseHint></pick><pick publicID="smi:local/e10p4"><time><value>2016-08-11T13:23:56.3Z</value></time><waveformID networkCode="SI" stationCode="620" channelCode="0Z" /><phaseHint>IAML</phaseHint></pick></event><event publicID="smi:local/event/2016081511244829"><origin publicID="smi:local/origin/2016081511244829"><time><value>2016-08-15T11:24:4.3Z</value></time><latitude><value>72.384</value></latitude><longitude><value>124.944</value></longitude><depth><value>9700</value></depth><creationInfo><agencyID>BER</agencyID></creationInfo></origin><magnitude publicID="smi:local/mag/2016081511244829/ML"><mag><value>0.8</value></mag><type>ML</type><creationInfo><agencyID>BER</agencyID></creationInfo></magnitude><magnitude publicID="smi:local/mag/2016081511244829/Md"><mag><value>0.6</value></mag><type>Md</type><creationInfo><agencyID>BER</agencyID></creationInfo></magnitude><pick publicID="smi:local/e11p1"><time><value>2016-08-15T11:25:51.0Z</value></time><waveformID networkCode="SI" stationCode="622" channelCode="0Z" /><phaseHint>P</phaseHint></pick><pick publicID="smi:local/e11p2"><time><value>2016-08-15T11:25:53.4Z</value></time><waveformID networkCode="SI" stationCode="622" channelCode="0E" /><phaseHint>S</phaseHint></pick><pick publicID="smi:local/e11p3"><time><value>2016-08-15T11:25:53.4Z</value></time><waveformID networkCode="SI" stationCode="622" channelCode="0E" /><phaseHint>IAML</phaseHint></pick><pick publicID="smi:local/e11p4"><time><value>2016-08-15T11:25:52.4Z</value></time><waveformID networkCode="SI" stationCode="621" channelCode="0Z" /><phaseHint>P</phaseHint></pick><pick publicID="smi:local/e11p5"><time><value>2016-08-15T11:25:55.5Z</value></time><waveformID networkCode="SI" stationCode="621" channelCode="0E" /><phaseHint>S</phaseHint></pick><pick publicID="smi:local/e11p6"><time><value>2016-08-15T11:25:56.6Z</value></time><waveformID networkCode="SI" stationCode="621" channelCode="0Z" /><phaseHint>IAML</phaseHint></pick><pick publicID="smi:local/e11p7"><time><value>2016-08-15T11:25:53.0Z</value></time><waveformID networkCode="SI" stationCode="623" channelCode="0Z" /><phaseHint>P</phaseHint></pick><pick publicID="smi:local/e11p8"><time><value>2016-08-15T11:25:57.0Z</value></time><waveformID networkCode="SI" stationCode="623" channelCode="0N" /><phaseHint>S</phaseHint></pick><pick publicID="smi:local/e11p9"><time><value>2016-08-15T11:25:57.8Z</value></time><waveformID networkCode="SI" stationCode="623" channelCode="0Z" /><phaseHint>IAML</phaseHint></pick><pick publicID="smi:local/e11p10"><time><value>2016-08-15T11:25:56.1Z</value></time><waveformID networ