# 2016 11 17 3 36 0.200000 72.765000 124.908000 15.6000 0.000000 0.000000 0.000000 0.000000 287
SI.624   70.700  1.00 P
SI.624   77.900  1.00 S
SI.621   71.800  1.00 P
SI.621   80.200  1.00 S
SI.628   75.000  1.00 P
SI.628   85.800  1.00 S
SI.626   78.500  1.00 P
SI.626   91.700  1.00 S
SI.630   83.500  1.00 P
SI.630  100.800  1.00 S
# 2016 11 17 3 46 0.300000 72.745000 124.839000 17.5000 0.000000 0.000000 0.000000 0.000000 288
SI.624  131.700  1.00 P
SI.624  139.000  1.00 S
SI.621  132.900  1.00 P
SI.621  140.300  1.00 S
SI.626  139.500  1.00 P
SI.626  153.100  1.00 S
SI.630  144.300  1.00 P
SI.630  161.700  1.00 S
# 2016 11 17 3 48 0.500000 72.664000 125.060000 17.9000 0.000000 0.000000 0.000000 0.000000 289
SI.624  189.500  1.00 P
SI.624  196.800  1.00 S
SI.621  191.900  1.00 P
SI.621  198.500  1.00 S
SI.626  197.700  1.00 P
SI.626  208.600  1.00 S
SI.630  202.500  1.00 P
SI.630  219.600  1.00 S
# 2016 11 17 3 57 4.200000 72.860000 124.926000 5.2000 0.000000 0.000000 0.000000 0.000000 290
SI.620   49.300  1.00 P
SI.620   52.500  1.00 S
SI.624   54.500  1.00 P
SI.624   61.600  1.00 S
SI.621   57.000  1.00 P
SI.621   66.800  1.00 S
# 2016 11 17 4 32 1.400000 72.675000 124.816000 18.2000 0.000000 0.000000 0.000000 0.000000 291
SI.620  139.800  1.00 P
SI.620  143.100  1.00 S
SI.622  141.900  1.00 P
SI.622  146.400  1.00 S
SI.624  145.600  1.00 P
SI.624  152.300  1.00 S
# 2016 11 17 4 57 4.300000 72.747000 124.894000 14.4000 0.000000 0.000000 0.000000 0.000000 292
SI.624  109.300  1.00 P
SI.624  116.500  1.00 S
SI.621  110.800  1.00 P
SI.621  118.400  1.00 S
SI.626  117.300  1.00 P
SI.626  130.300  1.00 S
SI.630  122.300  1.00 P
SI.630  139.900  1.00 S
# 2016 11 17 5 0 5.100000 72.665000 124.892000 14.4000 0.000000 0.000000 0.000000 0.000000 293
SI.620   54.500  1.00 P
SI.620   57.900  1.00 S
SI.624   59.800  1.00 P
SI.624   66.400  1.00 S
SI.628   64.800  1.00 P
SI.628   74.500  1.00 S
SI.630   73.200  1.00 P
SI.630   89.400  1.00 S
# 2016 11 17 5 4 5.200000 72.781000 124.944000 5.5000 0.000000 0.000000 0.000000 0.000000 294
SI.620  114.200  1.00 P
SI.620  117.500  1.00 S
SI.624  119.500  1.00 P
SI.624  126.700  1.00 S
SI.628  124.100  1.00 P
SI.628  134.300  1.00 S
# 2016 11 17 5 5 2.500000 72.661000 124.956000 18.3000 0.000000 0.000000 0.000000 0.000000 295
SI.624  150.300  1.00 P
SI.624  157.300  1.00 S
SI.621  151.100  1.00 P
SI.621  158.700  1.00 S
SI.626  158.100  1.00 P
SI.626  169.000  1.00 S
SI.630  163.500  1.00 P
SI.630  179.800  1.00 S
# 2016 11 17 5 17 4.800000 72.729000 124.865000 18.2000 0.000000 0.000000 0.000000 0.000000 296
SI.624  107.200  1.00 P
SI.624  114.900  1.00 S
SI.621  108.400  1.00 P
SI.621  116.500  1.00 S
SI.626  115.100  1.00 P
SI.626  127.400  1.00 S
SI.630  120.300  1.00 P
SI.630  137.300  1.00 S
# 2016 11 17 5 38 2.100000 72.703000 124.895000 14.0000 0.000000 0.000000 0.000000 0.000000 297
SI.620   87.800  1.00 P
SI.620   90.900  1.00 S
SI.622   89.700  1.00 P
SI.622   94.300  1.00 S
SI.624   93.200  1.00 P
SI.624  100.000  1.00 S
SI.628   98.000  1.00 P
SI.628  107.600  1.00 S
# 2016 11 17 5 47 3.400000 72.710000 124.910000 5.9000 0.000000 0.000000 0.000000 0.000000 298
SI.620   98.500  1.00 P
SI.620  101.300  1.00 S
SI.622  100.600  1.00 P
SI.622  105.000  1.00 S
SI.624  104.100  1.00 P
SI.624  110.500  1.00 S
# 2016 11 17 6 0 4.000000 72.709000 124.939000 17.2000 0.000000 0.000000 0.000000 0.000000 299
SI.624    8.800  1.00 P
SI.624   15.900  1.00 S
SI.621   10.300  1.00 P
SI.621   17.600  1.00 S
SI.626   16.500  1.00 P
SI.626   29.000  1.00 S
SI.630   21.700  1.00 P
SI.630   38.700  1.00 S
# 2016 11 17 9 48 4.600000 72.739000 124.922000 15.9000 0.000000 0.000000 0.000000 0.000000 300
SI.624  113.100  1.00 P
SI.624  120.400  1.00 S
SI.621  114.400  1.00 P
SI.621  122.600  1.00 S
SI.626  121.000  1.00 P
SI.626  133.800  1.00 S
SI.630  126.700  1.00 P
SI.630  143.100  1.00 S
# 2016 11 17 13 14 0.300000 70.013000 129.645000 15.6000 0.000000 0.000000 0.000000 0.000000 301
SI.631   96.500  1.00 P
SI.631  118.300  1.00 S
SI.630  105.500  1.00 P
SI.630  131.200  1.00 S
SI.626  106.900  1.00 P
SI.626  135.700  1.00 S
SI.624  116.200  1.00 P
SI.624  149.600  1.00 S
# 2016 11 17 13 42 0.300000 72.690000 125.049000 17.0000 0.000000 0.000000 0.000000 0.000000 302
SI.624  129.200  1.00 P
SI.624  135.500  1.00 S
SI.621  130.500  1.00 P
SI.621  138.200  1.00 S
SI.626  136.800  1.00 P
SI.626  149.000  1.00 S
SI.630  142.800  1.00 P
SI.630  158.200  1.00 S
# 2016 11 17 15 0 4.200000 72.703000 124.976000 8.4000 0.000000 0.000000 0.000000 0.000000 303
SI.624  104.700  1.00 P
SI.624  110.900  1.00 S
SI.621  105.800  1.00 P
SI.621  113.100  1.00 S
SI.628  109.000  1.00 P
SI.628  119.300  1.00 S
SI.630  117.800  1.00 P
SI.630  134.800  1.00 S
# 2016 11 17 15 33 2.100000 72.709000 124.955000 15.2000 0.000000 0.000000 0.000000 0.000000 304
SI.624  147.600  1.00 P
SI.624  154.500  1.00 S
SI.621  149.100  1.00 P
SI.621  156.200  1.00 S
SI.626  155.800  1.00 P
SI.626  168.200  1.00 S
SI.630  161.000  1.00 P
SI.630  177.600  1.00 S
# 2016 11 17 15 36 4.500000 72.710000 124.940000 16.8000 0.000000 0.000000 0.000000 0.000000 305
SI.624  113.000  1.00 P
SI.624  119.600  1.00 S
SI.621  113.900  1.00 P
SI.621  121.500  1.00 S
SI.626  120.900  1.00 P
SI.626  133.500  1.00 S
SI.630  126.400  1.00 P
SI.630  142.300  1.00 S
# 2016 11 17 18 18 2.200000 72.741000 124.841000 19.4000 0.000000 0.000000 0.000000 0.000000 306
SI.620   84.400  1.00 P
SI.620   87.800  1.00 S
SI.622   86.700  1.00 P
SI.622   92.100  1.00 S
SI.624   89.800  1.00 P
SI.624   97.100  1.00 S
# 2016 11 17 20 40 4.500000 70.899000 131.792000 13.5000 0.000000 0.000000 0.000000 0.000000 307
SI.632  121.200  1.00 P
SI.632  136.700  1.00 S
SI.631  128.600  1.00 P
SI.631  149.400  1.00 S
SI.627  134.400  1.00 P
SI.627  160.300  1.00 S
SI.622  143.400  1.00 P
SI.622  175.700  1.00 S
# 2016 11 17 20 52 4.600000 72.377000 128.126000 12.6000 0.000000 0.000000 0.000000 0.000000 308
SI.630  102.100  1.00 P
SI.630  106.600  1.00 S
SI.624  106.800  1.00 P
SI.624  114.700  1.00 S
SI.626  110.900  1.00 P
SI.626  122.400  1.00 S
SI.621  114.100  1.00 P
SI.621  128.500  1.00 S
# 2016 11 17 20 55 4.300000 72.720000 124.799000 22.9000 0.000000 0.000000 0.000000 0.000000 309
SI.620  103.500  1.00 P
SI.620  107.300  1.00 S
SI.622  105.900  1.00 P
SI.622  111.200  1.00 S
SI.624  109.100  1.00 P
SI.624  116.400  1.00 S
# 2016 11 17 22 37 3.700000 72.720000 124.942000 15.0000 0.000000 0.000000 0.000000 0.000000 310
SI.624  103.700  1.00 P
SI.624  110.900  1.00 S
SI.621  105.500  1.00 P
SI.621  112.600  1.00 S
SI.626  111.600  1.00 P
SI.626  124.500  1.00 S
SI.630  117.300  1.00 P
SI.630  133.900  1.00 S
# 2016 11 17 22 42 4.500000 71.582000 129.048000 0.9000 0.000000 0.000000 0.000000 0.000000 311
SI.632   87.600  1.00 P
SI.632   98.100  1.00 S
SI.628  125.900  1.00 P
SI.628  127.800  1.00 S
SI.624  128.800  1.00 P
SI.624  132.100  1.00 S
# 2016 11 17 22 55 0.200000 72.239000 129.221000 15.6000 0.000000 0.000000 0.000000 0.000000 312
SI.628   75.200  1.00 P
SI.628   86.600  1.00 S
SI.632   78.500  1.00 P
SI.632   84.900  1.00 S
SI.624   79.900  1.00 P
SI.624   94.200  1.00 S
# 2016 11 17 23 9 1.300000 72.714000 124.907000 5.1000 0.000000 0.000000 0.000000 0.000000 313
SI.620  132.200  1.00 P
SI.620  135.400  1.00 S
SI.624  137.800  1.00 P
SI.624  144.900  1.00 S
SI.628  142.800  1.00 P
SI.628  152.600  1.00 S
SI.630  152.400  1.00 P
SI.630  167.500  1.00 S
# 2016 11 18 3 19 5.200000 72.737000 124.917000 15.6000 0.000000 0.000000 0.000000 0.000000 314
SI.624  117.100  1.00 P
SI.624  124.200  1.00 S
SI.621  118.400  1.00 P
SI.621  126.300  1.00 S
SI.626  124.900  1.00 P
SI.626  138.100  1.00 S
SI.630  130.700  1.00 P
SI.630  147.000  1.00 S
# 2016 11 18 7 56 5.100000 72.058000 127.811000 9.9000 0.000000 0.000000 0.000000 0.000000 315
SI.630  109.400  1.00 P
SI.630  112.100  1.00 S
SI.629  110.200  1.00 P
SI.629  113.200  1.00 S
SI.627  111.200  1.00 P
SI.627  115.200  1.00 S
# 2016 11 18 10 48 4.800000 72.737000 124.923000 13.5000 0.000000 0.000000 0.000000 0.000000 316
SI.620  105.000  1.00 P
SI.620  108.400  1.00 S
SI.622  107.100  1.00 P
SI.622  112.100  1.00 S
SI.624  110.400  1.00 P
SI.624  117.100  1.00 S
SI.628  115.000  1.00 P
SI.628  125.200  1.00 S
# 2016 11 18 11 17 0.000000 72.735000 124.962000 16.0000 0.000000 0.000000 0.000000 0.000000 317
SI.624  128.500  1.00 P
SI.624  136.100  1.00 S
SI.621  130.600  1.00 P
SI.621  138.000  1.00 S
SI.626  137.100  1.00 P
SI.626  149.900  1.00 S
SI.630  142.700  1.00 P
SI.630  158.500  1.00 S
# 2016 11 19 7 23 1.300000 72.700000 124.954000 15.6000 0.000000 0.000000 0.000000 0.000000 318
SI.624  145.700  1.00 P
SI.624  152.300  1.00 S
SI.621  146.700  1.00 P
SI.621  154.100  1.00 S
SI.626  153.700  1.00 P
SI.626  165.900  1.00 S
SI.630  158.900  1.00 P
SI.630  175.500  1.00 S
# 2016 11 19 11 29 0.400000 72.761000 124.890000 10.2000 0.000000 0.000000 0.000000 0.000000 319
SI.624  137.400  1.00 P
SI.624  144.600  1.00 S
SI.621  138.700  1.00 P
SI.621  147.000  1.00 S
SI.626  145.400  1.00 P
SI.626  158.400  1.00 S
SI.630  150.700  1.00 P
SI.630  168.100  1.00 S
# 2016 11 19 11 31 2.800000 72.711000 125.017000 15.6000 0.000000 0.000000 0.000000 0.000000 320
SI.624  151.300  1.00 P
SI.624  158.300  1.00 S
SI.621  153.100  1.00 P
SI.621  160.800  1.00 S
SI.626  159.200  1.00 P
SI.626  171.200  1.00 S
SI.630  164.800  1.00 P
SI.630  181.400  1.00 S
# 2016 11 20 1 56 1.600000 72.745000 124.926000 13.2000 0.000000 0.000000 0.000000 0.000000 321
SI.620  135.200  1.00 P
SI.620  138.500  1.00 S
SI.622  137.400  1.00 P
SI.622  142.200  1.00 S
SI.624  140.200  1.00 P
SI.624  147.200  1.00 S
# 2016 11 20 2 3 0.300000 72.737000 124.913000 13.3000 0.000000 0.000000 0.000000 0.000000 322
SI.620  131.000  1.00 P
SI.620  134.300  1.00 S
SI.622  133.300  1.00 P
SI.622  138.100  1.00 S
SI.624  136.500  1.00 P
SI.624  143.300  1.00 S
SI.628  140.900  1.00 P
SI.628  151.100  1.00 S
# 2016 11 20 14 41 2.100000 72.722000 124.953000 5.1000 0.000000 0.000000 0.000000 0.000000 323
SI.624  146.500  1.00 P
SI.624  153.300  1.00 S
SI.621  148.200  1.00 P
SI.621  155.300  1.00 S
SI.628  151.700  1.00 P
SI.628  161.600  1.00 S
SI.626  154.800  1.00 P
SI.626  167.200  1.00 S
# 2016 11 21 1 4 4.800000 72.724000 124.890000 15.3000 0.000000 0.000000 0.000000 0.000000 324
SI.620  101.000  1.00 P
SI.620  104.400  1.00 S
SI.622  103.000  1.00 P
SI.622  108.100  1.00 S
SI.624  106.800  1.00 P
SI.624  113.200  1.00 S
SI.628  111.000  1.00 P
SI.628  121.400  1.00 S
# 2016 11 21 21 5 3.800000 71.905000 126.776000 58.5000 0.000000 0.000000 0.000000 0.000000 325
SI.626  102.200  1.00 P
SI.626  108.800  1.00 S
SI.630  103.900  1.00 P
SI.630  111.700  1.00 S
SI.624  106.000  1.00 P
SI.624  115.500  1.00 S
SI.621  104.900  1.00 P
SI.621  113.600  1.00 S
# 2016 11 21 22 0 5.900000 72.460000 129.746000 14.0000 0.000000 0.000000 0.000000 0.000000 326
SI.630    8.200  1.00 S
SI.632    5.700  1.00 P
SI.632   18.500  1.00 S
SI.624    8.200  1.00 P
SI.624   22.800  1.00 S
SI.626   12.300  1.00 P
SI.626   29.800  1.00 S
# 2016 11 22 7 16 5.200000 71.084000 129.178000 2.7000 0.000000 0.000000 0.000000 0.000000 327
SI.632  121.300  1.00 P
SI.632  128.400  1.00 S
SI.627  135.400  1.00 P
SI.627  152.900  1.00 S
SI.626  135.500  1.00 P
SI.626  153.000  1.00 S
SI.624  142.300  1.00 P
SI.624  165.400  1.00 S
# 2016 11 22 16 16 2.700000 71.926000 129.743000 18.5000 0.000000 0.000000 0.000000 0.000000 328
SI.632   90.900  1.00 P
SI.632   97.400  1.00 S
SI.630   91.600  1.00 P
SI.630   98.800  1.00 S
SI.627   99.800  1.00 P
SI.627  111.900  1.00 S
SI.624  105.400  1.00 P
SI.624  120.500  1.00 S
# 2016 11 23 3 24 26.000000 72.946000 121.961000 9.3000 0.000000 0.000000 0.000000 0.000000 329
SI.621   81.100  1.00 P
SI.621   97.300  1.00 S
SI.624   85.300  1.00 P
SI.624  103.900  1.00 S
SI.626   89.000  1.00 P
SI.626  111.500  1.00 S
SI.628   88.800  1.00 P
SI.628  111.100  1.00 S
# 2016 11 23 10 6 2.900000 72.063000 125.883000 5.1000 0.000000 0.000000 0.000000 0.000000 330
SI.626   88.200  1.00 P
SI.626   89.600  1.00 S
SI.621   91.000  1.00 P
SI.621   94.300  1.00 S
SI.624   92.900  1.00 P
SI.624   97.400  1.00 S
# 2016 11 23 15 42 5.400000 72.698000 124.971000 5.1000 0.000000 0.000000 0.000000 0.000000 331
SI.624  117.400  1.00 P
SI.624  124.000  1.00 S
SI.621  118.600  1.00 P
SI.621  125.700  1.00 S
SI.628  122.100  1.00 P
SI.628  132.100  1.00 S
SI.626  125.300  1.00 P
SI.626  137.500  1.00 S
# 2016 11 24 11 14 4.500000 72.741000 124.932000 5.4000 0.000000 0.000000 0.000000 0.000000 332
SI.620   99.600  1.00 P
SI.620  102.800  1.00 S
SI.622  102.000  1.00 P
SI.622  106.700  1.00 S
SI.624  105.200  1.00 P
SI.624  111.900  1.00 S
SI.628  109.900  1.00 P
SI.628  119.900  1.00 S
# 2016 11 24 19 56 48.000000 72.669000 125.055000 24.2000 0.000000 0.000000 0.000000 0.000000 333
SI.620   65.500  1.00 P
SI.620   69.800  1.00 S
SI.622   66.000  1.00 P
SI.622   70.400  1.00 S
SI.624   68.500  1.00 P
SI.624   75.100  1.00 S
# 2016 11 24 20 31 0.900000 72.286000 125.804000 12.8000 0.000000 0.000000 0.000000 0.000000 334
SI.623  125.300  1.00 P
SI.623  126.900  1.00 S
SI.622  127.500  1.00 P
SI.622  131.000  1.00 S
SI.624  127.600  1.00 P
SI.624  131.800  1.00 S
SI.628  131.200  1.00 P
SI.628  137.200  1.00 S
# 2016 11 24 22 31 0.700000 72.734000 124.807000 5.4000 0.000000 0.000000 0.000000 0.000000 335
SI.624  137.800  1.00 P
SI.624  144.600  1.00 S
SI.621  139.300  1.00 P
SI.621  147.100  1.00 S
SI.627  147.100  1.00 P
SI.627  160.500  1.00 S
SI.626  145.900  1.00 P
SI.626  158.200  1.00 S
# 2016 11 24 22 47 3.100000 72.800000 124.725000 12.2000 0.000000 0.000000 0.000000 0.000000 336
SI.624  104.600  1.00 P
SI.624  112.700  1.00 S
SI.621  105.700  1.00 P
SI.621  114.500  1.00 S
SI.626  112.000  1.00 P
SI.626  125.900  1.00 S
SI.630  117.800  1.00 P
SI.630  136.500  1.00 S
# 2016 11 24 22 48 46.000000 72.763000 124.889000 16.2000 0.000000 0.000000 0.000000 0.000000 337
SI.624  129.500  1.00 P
SI.624  137.000  1.00 S
SI.621  131.000  1.00 P
SI.621  139.400  1.00 S
SI.626  137.400  1.00 P
SI.626  150.400  1.00 S
SI.630  142.500  1.00 P
SI.630  159.900  1.00 S
# 2016 11 24 22 55 4.100000 72.725000 124.844000 18.8000 0.000000 0.000000 0.000000 0.000000 338
SI.620  107.300  1.00 P
SI.620  110.600  1.00 S
SI.622  109.600  1.00 P
SI.622  114.600  1.00 S
SI.624  112.600  1.00 P
SI.624  119.900  1.00 S
# 2016 11 24 23 1 58.000000 72.740000 124.890000 14.4000 0.000000 0.000000 0.000000 0.000000 339
SI.624   69.300  1.00 P
SI.624   76.400  1.00 S
SI.621   70.600  1.00 P
SI.621   78.200  1.00 S
SI.626   77.200  1.00 P
SI.626   90.100  1.00 S
SI.630   82.100  1.00 P
SI.630   99.900  1.00 S
# 2016 11 24 23 10 3.500000 72.701000 125.004000 11.1000 0.000000 0.000000 0.000000 0.000000 340
SI.624   97.400  1.00 P
SI.624  103.900  1.00 S
SI.621   98.700  1.00 P
SI.621  105.800  1.00 S
SI.626  105.300  1.00 P
SI.626  117.700  1.00 S
SI.630  110.600  1.00 P
SI.630  126.500  1.00 S
# 2016 11 24 23 13 4.200000 72.665000 124.813000 18.8000 0.000000 0.000000 0.000000 0.000000 341
SI.620  103.900  1.00 P
SI.620  107.100  1.00 S
SI.622  105.800  1.00 P
SI.622  110.200  1.00 S
SI.624  109.300  1.00 P
SI.624  116.300  1.00 S
# 2016 11 24 23 14 1.500000 72.720000 124.920000 16.7000 0.000000 0.000000 0.000000 0.000000 342
SI.624  142.000  1.00 P
SI.624  149.100  1.00 S
SI.621  143.200  1.00 P
SI.621  151.000  1.00 S
SI.626  149.700  1.00 P
SI.626  162.200  1.00 S
SI.630  154.800  1.00 P
SI.630  172.100  1.00 S
# 2016 11 24 23 16 0.800000 72.719000 124.849000 18.3000 0.000000 0.000000 0.000000 0.000000 343
SI.620  185.200  1.00 P
SI.620  188.500  1.00 S
SI.622  187.600  1.00 P
SI.622  192.300  1.00 S
SI.621  191.200  1.00 P
SI.621  199.200  1.00 S
# 2016 11 24 23 52 4.700000 72.664000 125.094000 19.9000 0.000000 0.000000 0.000000 0.000000 344
SI.624  103.600  1.00 P
SI.624  110.500  1.00 S
SI.621  105.900  1.00 P
SI.621  112.600  1.00 S
SI.626  111.700  1.00 P
SI.626  122.800  1.00 S
SI.630  116.400  1.00 P
SI.630  132.900  1.00 S
# 2016 11 25 1 17 4.800000 72.691000 124.804000 19.6000 0.000000 0.000000 0.000000 0.000000 345
SI.620  103.000  1.00 P
SI.620  106.300  1.00 S
SI.622  105.200  1.00 P
SI.622  110.000  1.00 S
SI.624  108.600  1.00 P
SI.624  115.700  1.00 S
# 2016 11 25 1 18 5.800000 72.711000 124.876000 13.8000 0.000000 0.000000 0.000000 0.000000 346
SI.620  117.700  1.00 P
SI.620  121.000  1.00 S
SI.622  119.700  1.00 P
SI.622  124.400  1.00 S
SI.624  123.200  1.00 P
SI.624  130.300  1.00 S
SI.621  124.200  1.00 P
SI.621  131.700  1.00 S
# 2016 11 25 1 24 2.100000 72.758000 124.951000 6.7000 0.000000 0.000000 0.000000 0.000000 347
SI.624  150.900  1.00 P
SI.624  158.100  1.00 S
SI.621  152.800  1.00 P
SI.621  160.800  1.00 S
SI.626  159.000  1.00 P
SI.626  172.200  1.00 S
SI.630  164.600  1.00 P
SI.630  181.400  1.00 S
# 2016 11 25 1 55 3.100000 72.742000 124.929000 14.5000 0.000000 0.000000 0.000000 0.000000 348
SI.620   95.200  1.00 P
SI.620   98.900  1.00 S
SI.622   97.200  1.00 P
SI.622  102.300  1.00 S
SI.624  100.200  1.00 P
SI.624  107.500  1.00 S
SI.621  101.600  1.00 P
SI.621  109.400  1.00 S
SI.628  104.600  1.00 P
SI.628  115.500  1.00 S
SI.626  108.100  1.00 P
SI.626  121.100  1.00 S
SI.630  113.900  1.00 P
SI.630  130.700  1.00 S
# 2016 11 25 2 0 3.100000 72.733000 124.837000 15.7000 0.000000 0.000000 0.000000 0.000000 349
SI.622  102.200  1.00 P
SI.622  107.200  1.00 S
SI.624  105.500  1.00 P
SI.624  112.900  1.00 S
SI.621  106.600  1.00 P
SI.621  114.100  1.00 S
SI.626  113.000  1.00 P
SI.626  126.500  1.00 S
SI.630  118.800  1.00 P
SI.630  135.400  1.00 S
# 2016 11 25 2 12 3.400000 72.797000 124.956000 5.0000 0.000000 0.000000 0.000000 0.000000 350
SI.620  100.100  1.00 P
SI.620  103.400  1.00 S
SI.622  102.200  1.00 P
SI.622  107.100  1.00 S
SI.624  105.500  1.00 P
SI.624  112.800  1.00 S
SI.623  105.700  1.00 P
SI.623  112.600  1.00 S
SI.621  107.900  1.00 P
SI.621  117.100  1.00 S
# 2016 11 25 2 18 2.400000 72.732000 124.928000 12.7000 0.000000 0.000000 0.000000 0.000000 351
SI.620   91.000  1.00 P
SI.620   94.400  1.00 S
SI.624   96.000  1.00 P
SI.624  102.900  1.00 S
SI.621   97.400  1.00 P
SI.621  104.900  1.00 S
SI.626  103.900  1.00 P
SI.626  116.800  1.00 S
SI.630  109.500  1.00 P
SI.630  126.400  1.00 S
# 2016 11 25 2 23 5.100000 72.730000 124.913000 17.3000 0.000000 0.000000 0.000000 0.000000 352
SI.620  110.400  1.00 P
SI.620  113.800  1.00 S
SI.622  112.400  1.00 P
SI.622  117.400  1.00 S
SI.624  115.600  1.00 P
SI.624  122.700  1.00 S
SI.628  120.000  1.00 P
SI.628  129.900  1.00 S
# 2016 11 25 2 25 0.400000 72.742000 124.879000 18.3000 0.000000 0.000000 0.000000 0.000000 353
SI.620  127.500  1.00 P
SI.620  130.900  1.00 S
SI.622  129.600  1.00 P
SI.622  134.900  1.00 S
SI.624  132.800  1.00 P
SI.624  140.100  1.00 S
SI.628  137.300  1.00 P
SI.628  147.600  1.00 S
# 2016 11 25 2 28 5.800000 72.740000 124.902000 12.4000 0.000000 0.000000 0.000000 0.000000 354
SI.620  117.800  1.00 P
SI.620  121.200  1.00 S
SI.622  119.800  1.00 P
SI.622  125.300  1.00 S
SI.624  123.200  1.00 P
SI.624  130.100  1.00 S
SI.621  124.600  1.00 P
SI.621  132.200  1.00 S
SI.630  137.200  1.00 P
SI.630  153.800  1.00 S
# 2016 11 25 2 45 3.700000 72.713000 124.932000 10.2000 0.000000 0.000000 0.000000 0.000000 355
SI.620  156.600  1.00 P
SI.620  159.900  1.00 S
SI.624  161.600  1.00 P
SI.624  168.500  1.00 S
SI.621  163.300  1.00 P
SI.621  170.400  1.00 S
SI.626  169.500  1.00 P
SI.626  181.600  1.00 S
SI.630  175.200  1.00 P
SI.630  192.300  1.00 S
# 2016 11 25 2 48 3.700000 72.722000 124.889000 14.3000 0.000000 0.000000 0.000000 0.000000 356
SI.620   34.800  1.00 P
SI.620   38.200  1.00 S
SI.624   39.800  1.00 P
SI.624   47.300  1.00 S
SI.621   41.500  1.00 P
SI.621   48.600  1.00 S
SI.630   53.500  1.00 P
SI.630   70.700  1.00 S
