# 2016 11 9 6 48 4.600000 72.863000 124.898000 13.6000 0.000000 0.000000 0.000000 0.000000 218
SI.620  169.500  1.00 P
SI.620  173.500  1.00 S
SI.628  178.900  1.00 P
SI.628  190.500  1.00 S
SI.626  182.900  1.00 P
SI.626  197.100  1.00 S
SI.629  185.900  1.00 P
SI.629  203.100  1.00 S
# 2016 11 9 12 28 4.500000 72.789000 124.157000 24.8000 0.000000 0.000000 0.000000 0.000000 219
SI.620  105.900  1.00 P
SI.620  109.600  1.00 S
SI.622  110.800  1.00 P
SI.622  118.400  1.00 S
SI.624  114.300  1.00 P
SI.624  124.900  1.00 S
SI.628  119.200  1.00 P
SI.628  132.000  1.00 S
# 2016 11 9 14 23 0.500000 72.870000 124.893000 15.6000 0.000000 0.000000 0.000000 0.000000 220
SI.620  126.500  1.00 P
SI.620  130.800  1.00 S
SI.624  131.900  1.00 P
SI.624  140.000  1.00 S
SI.621  134.100  1.00 P
SI.621  144.100  1.00 S
SI.626  139.700  1.00 P
SI.626  153.900  1.00 S
# 2016 11 10 6 0 0.600000 72.524000 125.767000 11.4000 0.000000 0.000000 0.000000 0.000000 221
SI.622   65.400  1.00 P
SI.622   68.300  1.00 S
SI.624   65.700  1.00 P
SI.624   68.200  1.00 S
SI.623   66.100  1.00 P
SI.623   69.400  1.00 S
# 2016 11 10 16 3 1.300000 72.237000 126.995000 21.5000 0.000000 0.000000 0.000000 0.000000 222
SI.628  142.600  1.00 P
SI.628  146.400  1.00 S
SI.624  144.700  1.00 P
SI.624  150.100  1.00 S
SI.623  145.900  1.00 P
SI.623  151.900  1.00 S
SI.630  147.000  1.00 P
SI.630  153.200  1.00 S
# 2016 11 10 17 29 3.600000 72.430000 126.070000 11.5000 0.000000 0.000000 0.000000 0.000000 223
SI.624   93.300  1.00 P
SI.624   95.200  1.00 S
SI.622   95.600  1.00 P
SI.622   99.500  1.00 S
SI.625   95.900  1.00 P
SI.625  100.200  1.00 S
SI.628   97.300  1.00 P
SI.628  102.500  1.00 S
# 2016 11 10 18 9 5.700000 72.562000 126.497000 16.2000 0.000000 0.000000 0.000000 0.000000 224
SI.628  117.100  1.00 P
SI.628  121.700  1.00 S
SI.621  123.900  1.00 P
SI.621  132.400  1.00 S
SI.620  124.400  1.00 P
SI.620  133.100  1.00 S
SI.630  126.100  1.00 P
SI.630  135.700  1.00 S
# 2016 11 10 18 52 1.200000 72.639000 125.196000 9.2000 0.000000 0.000000 0.000000 0.000000 225
SI.620  139.800  1.00 P
SI.620  143.900  1.00 S
SI.624  141.500  1.00 P
SI.624  147.400  1.00 S
SI.621  144.000  1.00 P
SI.621  150.300  1.00 S
SI.630  156.100  1.00 P
SI.630  170.300  1.00 S
# 2016 11 13 13 19 0.200000 72.543000 125.961000 17.7000 0.000000 0.000000 0.000000 0.000000 226
SI.624  128.500  1.00 P
SI.624  131.300  1.00 S
SI.622  129.900  1.00 P
SI.622  133.900  1.00 S
SI.623  129.900  1.00 P
SI.623  133.900  1.00 S
SI.628  132.600  1.00 P
SI.628  138.600  1.00 S
# 2016 11 13 22 12 2.600000 72.290000 129.707000 5.6000 0.000000 0.000000 0.000000 0.000000 227
SI.630   90.400  1.00 P
SI.630   97.700  1.00 S
SI.628   96.900  1.00 P
SI.628  107.200  1.00 S
SI.627   98.100  1.00 P
SI.627  110.000  1.00 S
SI.624  101.200  1.00 P
SI.624  115.900  1.00 S
# 2016 11 13 22 46 3.500000 72.721000 124.928000 14.6000 0.000000 0.000000 0.000000 0.000000 228
SI.620   99.700  1.00 P
SI.620  103.600  1.00 S
SI.624  105.200  1.00 P
SI.624  111.800  1.00 S
SI.621  106.500  1.00 P
SI.621  113.800  1.00 S
SI.626  112.700  1.00 P
SI.626  125.000  1.00 S
# 2016 11 14 3 31 28.000000 72.676000 124.182000 17.5000 0.000000 0.000000 0.000000 0.000000 229
SI.620   62.800  1.00 P
SI.620   65.500  1.00 S
SI.622   68.000  1.00 P
SI.622   74.100  1.00 S
SI.621   70.600  1.00 P
SI.621   78.000  1.00 S
SI.624   72.500  1.00 P
SI.624   82.000  1.00 S
# 2016 11 14 6 56 4.300000 72.317000 129.650000 21.3000 0.000000 0.000000 0.000000 0.000000 230
SI.628  110.300  1.00 P
SI.628  121.500  1.00 S
SI.627  111.500  1.00 P
SI.627  123.700  1.00 S
SI.624  114.900  1.00 P
SI.624  129.300  1.00 S
SI.631  117.700  1.00 P
SI.631  133.300  1.00 S
# 2016 11 14 15 45 4.100000 72.732000 124.884000 14.6000 0.000000 0.000000 0.000000 0.000000 231
SI.620  100.000  1.00 P
SI.620  103.200  1.00 S
SI.624  105.400  1.00 P
SI.624  112.900  1.00 S
SI.621  106.800  1.00 P
SI.621  114.000  1.00 S
SI.628  109.800  1.00 P
SI.628  120.200  1.00 S
# 2016 11 14 19 47 1.500000 71.511000 129.635000 0.0000 0.000000 0.000000 0.000000 0.000000 232
SI.632   73.800  1.00 P
SI.632   77.100  1.00 S
SI.630   84.000  1.00 P
SI.630   94.800  1.00 S
SI.631   86.400  1.00 P
SI.631   97.100  1.00 S
SI.625   95.000  1.00 P
SI.625  114.200  1.00 S
# 2016 11 15 4 37 2.700000 72.239000 127.564000 0.2000 0.000000 0.000000 0.000000 0.000000 233
SI.628   83.900  1.00 P
SI.628   87.200  1.00 S
SI.627   84.300  1.00 P
SI.627   87.500  1.00 S
SI.630   85.600  1.00 P
SI.630   90.000  1.00 S
SI.624   88.900  1.00 P
SI.624   95.800  1.00 S
# 2016 11 15 9 5 0.700000 72.319000 128.724000 5.5000 0.000000 0.000000 0.000000 0.000000 234
SI.630  133.600  1.00 P
SI.630  138.000  1.00 S
SI.628  138.000  1.00 P
SI.628  145.000  1.00 S
SI.624  143.200  1.00 P
SI.624  153.800  1.00 S
SI.631  149.300  1.00 P
SI.631  162.700  1.00 S
# 2016 11 15 14 3 43.000000 72.759000 124.921000 14.8000 0.000000 0.000000 0.000000 0.000000 235
SI.620   64.300  1.00 P
SI.620   67.900  1.00 S
SI.624   69.400  1.00 P
SI.624   76.600  1.00 S
SI.621   71.000  1.00 P
SI.621   79.000  1.00 S
SI.631   87.400  1.00 P
SI.631  107.800  1.00 S
# 2016 11 15 14 5 4.400000 72.792000 124.977000 0.0000 0.000000 0.000000 0.000000 0.000000 236
SI.620  102.500  1.00 P
SI.620  105.900  1.00 S
SI.624  108.000  1.00 P
SI.624  114.800  1.00 S
SI.621  110.500  1.00 P
SI.621  119.100  1.00 S
SI.626  115.600  1.00 P
SI.626  129.200  1.00 S
# 2016 11 15 14 6 1.800000 72.757000 124.256000 3.9000 0.000000 0.000000 0.000000 0.000000 237
SI.620  131.700  1.00 P
SI.620  135.000  1.00 S
SI.622  134.000  1.00 P
SI.622  139.500  1.00 S
SI.628  150.700  1.00 P
SI.628  160.800  1.00 S
SI.626  153.500  1.00 P
SI.626  166.100  1.00 S
# 2016 11 15 14 19 5.300000 72.319000 128.778000 0.0000 0.000000 0.000000 0.000000 0.000000 238
SI.630   56.300  1.00 P
SI.630   60.500  1.00 S
SI.624   65.800  1.00 P
SI.624   76.200  1.00 S
SI.626   69.300  1.00 P
SI.626   83.400  1.00 S
SI.621   73.400  1.00 P
SI.621   89.700  1.00 S
# 2016 11 15 15 10 3.900000 72.721000 124.900000 11.7000 0.000000 0.000000 0.000000 0.000000 239
SI.620   98.500  1.00 P
SI.620  102.000  1.00 S
SI.624  104.100  1.00 P
SI.624  110.800  1.00 S
SI.621  105.200  1.00 P
SI.621  112.400  1.00 S
SI.626  112.000  1.00 P
SI.626  124.600  1.00 S
# 2016 11 15 18 46 2.700000 72.739000 124.947000 10.3000 0.000000 0.000000 0.000000 0.000000 240
SI.620   86.900  1.00 P
SI.620   90.300  1.00 S
SI.622   89.300  1.00 P
SI.622   93.800  1.00 S
SI.624   92.400  1.00 P
SI.624   99.000  1.00 S
SI.628   96.600  1.00 P
SI.628  106.900  1.00 S
# 2016 11 15 19 28 5.600000 72.906000 124.369000 7.5000 0.000000 0.000000 0.000000 0.000000 241
SI.620  117.000  1.00 P
SI.620  120.600  1.00 S
SI.622  122.000  1.00 P
SI.622  129.900  1.00 S
SI.624  125.400  1.00 P
SI.624  135.700  1.00 S
SI.628  129.600  1.00 P
SI.628  142.900  1.00 S
# 2016 11 15 23 10 3.400000 72.730000 124.925000 12.8000 0.000000 0.000000 0.000000 0.000000 242
SI.620   99.700  1.00 P
SI.620  103.300  1.00 S
SI.624  105.300  1.00 P
SI.624  112.100  1.00 S
SI.621  106.800  1.00 P
SI.621  113.700  1.00 S
SI.628  109.300  1.00 P
SI.628  120.000  1.00 S
# 2016 11 15 23 53 4.600000 72.757000 124.920000 13.8000 0.000000 0.000000 0.000000 0.000000 243
SI.620  103.200  1.00 P
SI.620  106.700  1.00 S
SI.624  108.400  1.00 P
SI.624  115.400  1.00 S
SI.621  109.800  1.00 P
SI.621  117.900  1.00 S
SI.626  116.200  1.00 P
SI.626  129.300  1.00 S
# 2016 11 15 23 56 2.600000 72.762000 124.951000 9.5000 0.000000 0.000000 0.000000 0.000000 244
SI.620   89.000  1.00 P
SI.620   92.600  1.00 S
SI.622   91.500  1.00 P
SI.622   96.500  1.00 S
SI.624   94.500  1.00 P
SI.624  101.200  1.00 S
SI.628   99.100  1.00 P
SI.628  109.100  1.00 S
# 2016 11 16 10 33 0.500000 72.727000 124.931000 11.5000 0.000000 0.000000 0.000000 0.000000 245
SI.620  187.700  1.00 P
SI.620  191.300  1.00 S
SI.624  192.900  1.00 P
SI.624  199.800  1.00 S
SI.621  194.300  1.00 P
SI.621  201.800  1.00 S
SI.626  201.300  1.00 P
SI.626  213.300  1.00 S
# 2016 11 16 10 35 0.400000 72.730000 124.869000 14.8000 0.000000 0.000000 0.000000 0.000000 246
SI.620   67.800  1.00 P
SI.620   71.200  1.00 S
SI.624   73.100  1.00 P
SI.624   80.500  1.00 S
SI.621   74.400  1.00 P
SI.621   81.900  1.00 S
SI.626   81.400  1.00 P
SI.626   93.800  1.00 S
# 2016 11 16 11 10 5.500000 72.752000 124.876000 13.3000 0.000000 0.000000 0.000000 0.000000 247
SI.620  116.100  1.00 P
SI.620  119.400  1.00 S
SI.624  121.200  1.00 P
SI.624  128.700  1.00 S
SI.621  122.700  1.00 P
SI.621  130.100  1.00 S
SI.626  129.600  1.00 P
SI.626  143.300  1.00 S
# 2016 11 16 11 25 0.300000 72.725000 124.866000 15.3000 0.000000 0.000000 0.000000 0.000000 248
SI.620  132.800  1.00 P
SI.620  136.200  1.00 S
SI.622  135.200  1.00 P
SI.622  140.100  1.00 S
SI.624  138.500  1.00 P
SI.624  145.400  1.00 S
SI.621  139.400  1.00 P
SI.621  147.000  1.00 S
# 2016 11 16 11 29 1.400000 72.769000 124.903000 16.2000 0.000000 0.000000 0.000000 0.000000 249
SI.620  140.600  1.00 P
SI.620  144.000  1.00 S
SI.622  142.900  1.00 P
SI.622  148.300  1.00 S
SI.624  145.800  1.00 P
SI.624  153.000  1.00 S
SI.628  150.100  1.00 P
SI.628  160.900  1.00 S
# 2016 11 16 11 37 5.800000 72.743000 124.915000 12.3000 0.000000 0.000000 0.000000 0.000000 250
SI.620  174.000  1.00 P
SI.620  177.400  1.00 S
SI.624  179.200  1.00 P
SI.624  186.100  1.00 S
SI.621  180.500  1.00 P
SI.621  187.900  1.00 S
SI.626  187.100  1.00 P
SI.626  200.800  1.00 S
# 2016 11 16 11 38 40.000000 72.735000 124.876000 17.1000 0.000000 0.000000 0.000000 0.000000 251
SI.620   64.200  1.00 P
SI.620   67.500  1.00 S
SI.622   66.300  1.00 P
SI.622   71.700  1.00 S
SI.624   69.500  1.00 P
SI.624   76.500  1.00 S
SI.621   70.700  1.00 P
SI.621   78.200  1.00 S
# 2016 11 16 11 40 1.600000 72.725000 124.907000 10.3000 0.000000 0.000000 0.000000 0.000000 252
SI.620  138.500  1.00 P
SI.620  141.800  1.00 S
SI.624  143.800  1.00 P
SI.624  151.000  1.00 S
SI.621  145.400  1.00 P
SI.621  152.600  1.00 S
SI.626  152.000  1.00 P
SI.626  164.300  1.00 S
# 2016 11 16 11 50 3.500000 72.727000 124.932000 10.7000 0.000000 0.000000 0.000000 0.000000 253
SI.620   96.800  1.00 P
SI.620  100.100  1.00 S
SI.624  102.400  1.00 P
SI.624  108.800  1.00 S
SI.621  103.500  1.00 P
SI.621  110.800  1.00 S
SI.628  106.200  1.00 P
SI.628  117.100  1.00 S
# 2016 11 16 12 6 3.200000 72.717000 124.925000 5.2000 0.000000 0.000000 0.000000 0.000000 254
SI.620   92.300  1.00 P
SI.620   95.600  1.00 S
SI.624   97.600  1.00 P
SI.624  104.700  1.00 S
SI.621   99.200  1.00 P
SI.621  106.400  1.00 S
SI.626  106.000  1.00 P
SI.626  117.600  1.00 S
# 2016 11 16 13 0 1.800000 72.712000 124.942000 5.2000 0.000000 0.000000 0.000000 0.000000 255
SI.620   77.400  1.00 P
SI.620   80.700  1.00 S
SI.624   82.800  1.00 P
SI.624   89.200  1.00 S
SI.621   83.900  1.00 P
SI.621   91.300  1.00 S
SI.626   90.800  1.00 P
SI.626  102.600  1.00 S
# 2016 11 16 14 23 5.500000 72.790000 124.874000 17.2000 0.000000 0.000000 0.000000 0.000000 256
SI.620  110.700  1.00 P
SI.620  114.400  1.00 S
SI.624  116.200  1.00 P
SI.624  123.600  1.00 S
SI.626  123.800  1.00 P
SI.626  137.700  1.00 S
# 2016 11 16 14 28 1.300000 72.679000 125.042000 18.6000 0.000000 0.000000 0.000000 0.000000 257
SI.624  138.100  1.00 P
SI.624  144.700  1.00 S
SI.621  139.600  1.00 P
SI.621  146.700  1.00 S
SI.626  146.000  1.00 P
SI.626  158.000  1.00 S
SI.630  151.500  1.00 P
SI.630  166.900  1.00 S
# 2016 11 16 15 22 3.200000 72.701000 124.991000 16.1000 0.000000 0.000000 0.000000 0.000000 258
SI.624   98.500  1.00 P
SI.624  105.100  1.00 S
SI.621   99.700  1.00 P
SI.621  107.400  1.00 S
SI.626  106.400  1.00 P
SI.626  118.300  1.00 S
SI.630  111.600  1.00 P
SI.630  128.300  1.00 S
# 2016 11 16 15 24 4.700000 72.687000 125.064000 8.7000 0.000000 0.000000 0.000000 0.000000 259
SI.624  107.700  1.00 P
SI.624  114.100  1.00 S
SI.621  110.000  1.00 P
SI.621  116.200  1.00 S
SI.626  115.700  1.00 P
SI.626  128.100  1.00 S
SI.630  121.100  1.00 P
SI.630  137.200  1.00 S
# 2016 11 16 17 38 4.400000 72.754000 124.897000 12.7000 0.000000 0.000000 0.000000 0.000000 260
SI.622  106.200  1.00 P
SI.622  111.700  1.00 S
SI.624  109.600  1.00 P
SI.624  116.400  1.00 S
SI.626  117.200  1.00 P
SI.626  130.200  1.00 S
SI.630  122.800  1.00 P
SI.630  139.700  1.00 S
# 2016 11 16 20 55 0.300000 72.695000 125.081000 18.4000 0.000000 0.000000 0.000000 0.000000 261
SI.624  135.100  1.00 P
SI.624  141.700  1.00 S
SI.621  137.200  1.00 P
SI.621  144.200  1.00 S
SI.626  142.900  1.00 P
SI.626  155.100  1.00 S
SI.630  147.900  1.00 P
SI.630  164.400  1.00 S
# 2016 11 16 21 15 3.800000 72.728000 124.873000 15.6000 0.000000 0.000000 0.000000 0.000000 262
SI.620   91.000  1.00 P
SI.620   94.300  1.00 S
SI.622   93.000  1.00 P
SI.622   98.500  1.00 S
SI.624   96.600  1.00 P
SI.624  103.300  1.00 S
SI.626  104.400  1.00 P
SI.626  116.200  1.00 S
# 2016 11 16 21 18 2.600000 72.720000 125.054000 17.6000 0.000000 0.000000 0.000000 0.000000 263
SI.624  152.200  1.00 P
SI.624  159.300  1.00 S
SI.621  154.800  1.00 P
SI.621  162.000  1.00 S
SI.626  160.100  1.00 P
SI.626  172.800  1.00 S
SI.630  165.400  1.00 P
SI.630  182.000  1.00 S
# 2016 11 16 22 14 5.100000 72.736000 124.879000 17.6000 0.000000 0.000000 0.000000 0.000000 264
SI.624  114.400  1.00 P
SI.624  121.600  1.00 S
SI.621  115.700  1.00 P
SI.621  123.200  1.00 S
SI.626  122.000  1.00 P
SI.626  135.400  1.00 S
SI.630  127.100  1.00 P
SI.630  144.300  1.00 S
# 2016 11 16 22 18 0.400000 72.738000 124.939000 16.7000 0.000000 0.000000 0.000000 0.000000 265
SI.624  133.100  1.00 P
SI.624  140.200  1.00 S
SI.621  134.300  1.00 P
SI.621  142.500  1.00 S
SI.626  141.300  1.00 P
SI.626  153.900  1.00 S
SI.630  146.400  1.00 P
SI.630  162.900  1.00 S
# 2016 11 16 22 20 1.200000 72.720000 124.963000 15.1000 0.000000 0.000000 0.000000 0.000000 266
SI.624  141.800  1.00 P
SI.624  148.600  1.00 S
SI.621  143.100  1.00 P
SI.621  150.700  1.00 S
SI.626  149.700  1.00 P
SI.626  162.400  1.00 S
SI.630  155.300  1.00 P
SI.630  171.600  1.00 S
# 2016 11 16 22 24 1.700000 72.757000 124.960000 9.6000 0.000000 0.000000 0.000000 0.000000 267
SI.624  142.100  1.00 P
SI.624  149.200  1.00 S
SI.621  143.600  1.00 P
SI.621  151.800  1.00 S
SI.628  146.400  1.00 P
SI.628  156.700  1.00 S
SI.630  156.000  1.00 P
SI.630  172.800  1.00 S
# 2016 11 16 22 25 1.200000 72.719000 124.935000 16.6000 0.000000 0.000000 0.000000 0.000000 268
SI.624  138.000  1.00 P
SI.624  144.900  1.00 S
SI.621  139.200  1.00 P
SI.621  146.800  1.00 S
SI.626  145.600  1.00 P
SI.626  158.500  1.00 S
SI.630  151.200  1.00 P
SI.630  167.700  1.00 S
# 2016 11 16 22 27 5.200000 72.719000 124.856000 16.7000 0.000000 0.000000 0.000000 0.000000 269
SI.624  119.200  1.00 P
SI.624  126.600  1.00 S
SI.621  120.300  1.00 P
SI.621  127.800  1.00 S
SI.626  126.800  1.00 P
SI.626  139.600  1.00 S
SI.630  132.600  1.00 P
SI.630  149.200  1.00 S
# 2016 11 16 22 40 2.500000 72.748000 124.882000 19.0000 0.000000 0.000000 0.000000 0.000000 270
SI.620   31.600  1.00 P
SI.620   35.000  1.00 S
SI.622   33.600  1.00 P
SI.622   39.200  1.00 S
SI.624   37.100  1.00 P
SI.624   44.100  1.00 S
SI.628   41.100  1.00 P
SI.628   51.700  1.00 S
# 2016 11 16 22 41 1.400000 72.761000 124.881000 21.5000 0.000000 0.000000 0.000000 0.000000 271
SI.620  139.900  1.00 P
SI.620  143.700  1.00 S
SI.622  142.100  1.00 P
SI.622  147.700  1.00 S
SI.624  145.200  1.00 P
SI.624  152.700  1.00 S
SI.628  149.300  1.00 P
SI.628  159.900  1.00 S
# 2016 11 16 22 41 3.200000 72.709000 124.911000 14.4000 0.000000 0.000000 0.000000 0.000000 272
SI.620   38.900  1.00 P
SI.620   42.300  1.00 S
SI.622   40.900  1.00 P
SI.622   45.500  1.00 S
SI.624   44.200  1.00 P
SI.624   50.700  1.00 S
SI.628   48.800  1.00 P
SI.628   59.200  1.00 S
# 2016 11 16 22 44 0.300000 72.749000 124.961000 5.5000 0.000000 0.000000 0.000000 0.000000 273
SI.620   66.800  1.00 P
SI.620   70.200  1.00 S
SI.622   69.100  1.00 P
SI.622   74.000  1.00 S
SI.624   72.400  1.00 P
SI.624   78.600  1.00 S
SI.628   76.800  1.00 P
SI.628   86.600  1.00 S
# 2016 11 16 22 50 4.000000 72.711000 124.957000 16.1000 0.000000 0.000000 0.000000 0.000000 274
SI.624  128.500  1.00 P
SI.624  135.700  1.00 S
SI.621  130.300  1.00 P
SI.621  137.400  1.00 S
SI.626  136.500  1.00 P
SI.626  149.100  1.00 S
SI.630  142.000  1.00 P
SI.630  158.600  1.00 S
# 2016 11 16 22 51 7.000000 72.684000 124.982000 16.7000 0.000000 0.000000 0.000000 0.000000 275
SI.624  128.100  1.00 P
SI.624  135.400  1.00 S
SI.621  129.800  1.00 P
SI.621  137.000  1.00 S
SI.626  136.400  1.00 P
SI.626  147.400  1.00 S
SI.630  141.200  1.00 P
SI.630  158.400  1.00 S
# 2016 11 16 22 55 3.800000 72.736000 124.923000 5.2000 0.000000 0.000000 0.000000 0.000000 276
SI.624  101.900  1.00 P
SI.624  108.800  1.00 S
SI.621  103.300  1.00 P
SI.621  110.600  1.00 S
SI.626  110.200  1.00 P
SI.626  123.300  1.00 S
SI.630  115.400  1.00 P
SI.630  132.100  1.00 S
# 2016 11 16 22 57 54.000000 72.669000 125.066000 17.6000 0.000000 0.000000 0.000000 0.000000 277
SI.624   67.800  1.00 P
SI.624   74.400  1.00 S
SI.621   70.000  1.00 P
SI.621   76.200  1.00 S
SI.626   75.700  1.00 P
SI.626   87.600  1.00 S
SI.630   80.800  1.00 P
SI.630   97.300  1.00 S
# 2016 11 16 23 0 0.200000 72.710000 124.992000 9.4000 0.000000 0.000000 0.000000 0.000000 278
SI.624  134.300  1.00 P
SI.624  141.000  1.00 S
SI.621  135.900  1.00 P
SI.621  143.300  1.00 S
SI.626  142.300  1.00 P
SI.626  154.500  1.00 S
SI.630  147.700  1.00 P
SI.630  164.400  1.00 S
# 2016 11 16 23 13 2.500000 72.726000 124.889000 15.0000 0.000000 0.000000 0.000000 0.000000 279
SI.624  147.900  1.00 P
SI.624  155.500  1.00 S
SI.621  149.500  1.00 P
SI.621  156.800  1.00 S
SI.626  156.100  1.00 P
SI.626  168.600  1.00 S
SI.630  161.400  1.00 P
SI.630  178.500  1.00 S
# 2016 11 16 23 15 1.500000 72.723000 124.862000 17.6000 0.000000 0.000000 0.000000 0.000000 280
SI.624   79.200  1.00 P
SI.624   86.800  1.00 S
SI.621   80.500  1.00 P
SI.621   88.200  1.00 S
SI.626   87.100  1.00 P
SI.626   99.300  1.00 S
SI.630   92.000  1.00 P
SI.630  109.600  1.00 S
# 2016 11 16 23 21 5.500000 72.796000 124.799000 8.7000 0.000000 0.000000 0.000000 0.000000 281
SI.620  113.700  1.00 P
SI.620  117.300  1.00 S
SI.624  119.100  1.00 P
SI.624  126.500  1.00 S
SI.621  121.500  1.00 P
SI.621  130.100  1.00 S
SI.628  125.900  1.00 P
SI.628  138.300  1.00 S
# 2016 11 16 23 30 17.000000 72.716000 124.889000 17.3000 0.000000 0.000000 0.000000 0.000000 282
SI.624  129.000  1.00 P
SI.624  136.400  1.00 S
SI.621  130.300  1.00 P
SI.621  137.700  1.00 S
SI.626  137.100  1.00 P
SI.626  149.500  1.00 S
SI.630  142.000  1.00 P
SI.630  159.000  1.00 S
# 2016 11 17 2 0 0.700000 72.707000 124.894000 15.6000 0.000000 0.000000 0.000000 0.000000 283
SI.624   70.900  1.00 P
SI.624   78.300  1.00 S
SI.626   78.700  1.00 P
SI.626   90.600  1.00 S
SI.630   84.100  1.00 P
SI.630  100.700  1.00 S
SI.631   88.700  1.00 P
SI.631  109.500  1.00 S
# 2016 11 17 2 19 20.000000 72.681000 125.061000 17.7000 0.000000 0.000000 0.000000 0.000000 284
SI.624  128.300  1.00 P
SI.624  134.600  1.00 S
SI.621  129.600  1.00 P
SI.621  136.800  1.00 S
SI.628  132.600  1.00 P
SI.628  142.500  1.00 S
SI.626  136.100  1.00 P
SI.626  147.800  1.00 S
# 2016 11 17 2 44 0.300000 72.701000 124.875000 17.4000 0.000000 0.000000 0.000000 0.000000 285
SI.624  138.000  1.00 P
SI.624  145.400  1.00 S
SI.621  139.100  1.00 P
SI.621  146.600  1.00 S
SI.626  145.200  1.00 P
SI.626  157.600  1.00 S
SI.630  151.100  1.00 P
SI.630  168.100  1.00 S
# 2016 11 17 3 34 1.700000 72.710000 124.984000 5.2000 0.000000 0.000000 0.000000 0.000000 286
SI.624  142.300  1.00 P
SI.624  149.000  1.00 S
SI.621  143.700  1.00 P
SI.621  151.300  1.00 S
SI.626  150.700  1.00 P
SI.626  162.600  1.00 S
SI.630  156.000  1.00 P
SI.630  172.300  1.00 S
