# 2016 11 26 14 54 11.000000 72.708000 124.852000 24.1000 0.000000 0.000000 0.000000 0.000000 428
SI.620  124.800  1.00 P
SI.620  128.700  1.00 S
SI.622  126.700  1.00 P
SI.622  131.800  1.00 S
SI.624  129.800  1.00 P
SI.624  137.000  1.00 S
# 2016 11 26 22 53 1.000000 72.771000 124.959000 14.4000 0.000000 0.000000 0.000000 0.000000 429
SI.620  124.700  1.00 P
SI.620  128.200  1.00 S
SI.622  126.800  1.00 P
SI.622  132.000  1.00 S
SI.624  129.200  1.00 P
SI.624  136.500  1.00 S
# 2016 11 26 23 8 0.900000 72.701000 124.799000 20.7000 0.000000 0.000000 0.000000 0.000000 430
SI.620  132.200  1.00 P
SI.620  135.600  1.00 S
SI.622  134.400  1.00 P
SI.622  139.500  1.00 S
SI.624  137.900  1.00 P
SI.624  145.000  1.00 S
# 2016 11 27 2 25 2.900000 72.674000 124.792000 25.4000 0.000000 0.000000 0.000000 0.000000 431
SI.620  143.700  1.00 P
SI.620  147.600  1.00 S
SI.622  145.600  1.00 P
SI.622  150.600  1.00 S
SI.624  148.900  1.00 P
SI.624  156.200  1.00 S
# 2016 11 27 9 41 2.500000 72.720000 124.821000 23.0000 0.000000 0.000000 0.000000 0.000000 432
SI.620  144.800  1.00 P
SI.620  148.200  1.00 S
SI.622  146.700  1.00 P
SI.622  152.200  1.00 S
SI.624  149.800  1.00 P
SI.624  157.400  1.00 S
# 2016 11 27 9 50 5.700000 72.712000 124.867000 16.1000 0.000000 0.000000 0.000000 0.000000 433
SI.620  232.900  1.00 P
SI.620  236.200  1.00 S
SI.622  235.200  1.00 P
SI.622  239.800  1.00 S
SI.624  238.400  1.00 P
SI.624  245.300  1.00 S
# 2016 11 27 10 30 4.300000 72.707000 124.866000 20.2000 0.000000 0.000000 0.000000 0.000000 434
SI.620  104.300  1.00 P
SI.620  108.000  1.00 S
SI.622  106.400  1.00 P
SI.622  111.300  1.00 S
SI.624  109.600  1.00 P
SI.624  116.500  1.00 S
# 2016 11 27 17 50 2.800000 72.638000 124.573000 30.7000 0.000000 0.000000 0.000000 0.000000 435
SI.620   88.100  1.00 P
SI.620   92.000  1.00 S
SI.622   90.200  1.00 P
SI.622   95.900  1.00 S
SI.624   93.900  1.00 P
SI.624  101.800  1.00 S
# 2016 11 27 21 56 5.200000 72.725000 124.890000 17.4000 0.000000 0.000000 0.000000 0.000000 436
SI.620  116.300  1.00 P
SI.620  119.600  1.00 S
SI.622  118.200  1.00 P
SI.622  123.300  1.00 S
SI.624  121.400  1.00 P
SI.624  128.300  1.00 S
# 2016 11 27 22 10 0.300000 72.691000 124.779000 20.7000 0.000000 0.000000 0.000000 0.000000 437
SI.620  125.200  1.00 P
SI.620  128.400  1.00 S
SI.622  127.300  1.00 P
SI.622  132.300  1.00 S
SI.624  130.800  1.00 P
SI.624  138.000  1.00 S
# 2016 11 27 22 13 0.100000 72.723000 124.854000 22.4000 0.000000 0.000000 0.000000 0.000000 438
SI.620  128.700  1.00 P
SI.620  132.400  1.00 S
SI.622  130.700  1.00 P
SI.622  136.000  1.00 S
SI.624  133.900  1.00 P
SI.624  141.000  1.00 S
# 2016 11 27 22 21 50.000000 72.675000 124.840000 18.5000 0.000000 0.000000 0.000000 0.000000 439
SI.620   64.000  1.00 P
SI.620   67.200  1.00 S
SI.622   65.800  1.00 P
SI.622   70.400  1.00 S
SI.624   69.300  1.00 P
SI.624   76.100  1.00 S
# 2016 11 28 5 48 1.800000 72.704000 124.869000 16.3000 0.000000 0.000000 0.000000 0.000000 440
SI.620  141.900  1.00 P
SI.620  145.200  1.00 S
SI.622  144.100  1.00 P
SI.622  148.700  1.00 S
SI.624  147.400  1.00 P
SI.624  154.100  1.00 S
# 2016 11 28 9 32 2.100000 72.718000 124.896000 18.5000 0.000000 0.000000 0.000000 0.000000 441
SI.620  143.300  1.00 P
SI.620  146.900  1.00 S
SI.622  145.400  1.00 P
SI.622  150.200  1.00 S
SI.624  148.500  1.00 P
SI.624  155.300  1.00 S
# 2016 11 28 10 48 5.100000 72.647000 124.722000 23.9000 0.000000 0.000000 0.000000 0.000000 442
SI.620  117.400  1.00 P
SI.620  120.700  1.00 S
SI.622  119.300  1.00 P
SI.622  124.100  1.00 S
SI.624  122.700  1.00 P
SI.624  130.400  1.00 S
# 2016 11 28 11 22 4.700000 72.706000 124.822000 24.4000 0.000000 0.000000 0.000000 0.000000 443
SI.620  103.800  1.00 P
SI.620  107.600  1.00 S
SI.622  105.900  1.00 P
SI.622  111.000  1.00 S
SI.624  108.900  1.00 P
SI.624  116.300  1.00 S
# 2016 11 28 11 24 2.400000 72.684000 124.805000 18.8000 0.000000 0.000000 0.000000 0.000000 444
SI.620   30.800  1.00 P
SI.620   34.100  1.00 S
SI.622   33.000  1.00 P
SI.622   37.800  1.00 S
SI.624   36.700  1.00 P
SI.624   43.500  1.00 S
# 2016 11 28 11 28 4.300000 72.672000 124.755000 22.7000 0.000000 0.000000 0.000000 0.000000 445
SI.620  108.300  1.00 P
SI.620  111.600  1.00 S
SI.622  110.300  1.00 P
SI.622  115.300  1.00 S
SI.624  113.800  1.00 P
SI.624  121.200  1.00 S
# 2016 11 28 11 36 1.500000 72.613000 124.638000 23.9000 0.000000 0.000000 0.000000 0.000000 446
SI.620  133.300  1.00 P
SI.620  136.600  1.00 S
SI.622  135.200  1.00 P
SI.622  140.000  1.00 S
SI.624  139.200  1.00 P
SI.624  146.800  1.00 S
# 2016 11 28 11 39 1.300000 72.692000 124.839000 21.9000 0.000000 0.000000 0.000000 0.000000 447
SI.620   13.400  1.00 P
SI.620   17.000  1.00 S
SI.622   15.400  1.00 P
SI.622   20.200  1.00 S
SI.624   18.500  1.00 P
SI.624   25.700  1.00 S
# 2016 11 28 14 2 3.400000 72.664000 124.768000 20.8000 0.000000 0.000000 0.000000 0.000000 448
SI.620   93.000  1.00 P
SI.620   96.300  1.00 S
SI.622   95.000  1.00 P
SI.622   99.800  1.00 S
SI.624   98.700  1.00 P
SI.624  105.800  1.00 S
# 2016 11 29 9 18 1.300000 71.989000 129.842000 4.5000 0.000000 0.000000 0.000000 0.000000 449
SI.632   82.700  1.00 P
SI.632   89.800  1.00 S
SI.627   90.600  1.00 P
SI.627  102.900  1.00 S
SI.628   91.000  1.00 P
SI.628  103.600  1.00 S
SI.631   93.100  1.00 P
SI.631  106.700  1.00 S
# 2016 11 29 18 25 4.400000 72.083000 127.520000 23.9000 0.000000 0.000000 0.000000 0.000000 450
SI.626  106.900  1.00 P
SI.626  114.500  1.00 S
SI.624  107.700  1.00 P
SI.624  115.900  1.00 S
SI.621  112.400  1.00 P
SI.621  123.900  1.00 S
# 2016 11 30 4 48 1.800000 72.182000 127.860000 11.3000 0.000000 0.000000 0.000000 0.000000 451
SI.627  140.500  1.00 P
SI.627  144.700  1.00 S
SI.628  140.800  1.00 P
SI.628  145.600  1.00 S
SI.632  148.300  1.00 P
SI.632  158.300  1.00 S
SI.631  150.000  1.00 P
SI.631  161.000  1.00 S
# 2016 11 30 23 13 1.600000 72.737000 124.892000 15.9000 0.000000 0.000000 0.000000 0.000000 452
SI.620  135.200  1.00 P
SI.620  138.500  1.00 S
SI.622  137.400  1.00 P
SI.622  142.400  1.00 S
SI.624  140.400  1.00 P
SI.624  147.400  1.00 S
# 2016 12 1 18 13 0.100000 72.717000 124.747000 10.4000 0.000000 0.000000 0.000000 0.000000 453
SI.620  127.000  1.00 P
SI.620  129.400  1.00 S
SI.622  130.200  1.00 P
SI.622  135.100  1.00 S
SI.624  133.900  1.00 P
SI.624  141.000  1.00 S
# 2016 12 1 21 53 1.100000 70.141000 129.827000 0.0000 0.000000 0.000000 0.000000 0.000000 454
SI.632   95.700  1.00 P
SI.632  116.200  1.00 S
SI.631   96.700  1.00 P
SI.631  118.500  1.00 S
SI.630  105.600  1.00 P
SI.630  132.200  1.00 S
# 2016 12 2 4 26 1.900000 72.877000 124.356000 1.5000 0.000000 0.000000 0.000000 0.000000 455
SI.620  134.200  1.00 P
SI.620  137.900  1.00 S
SI.622  140.000  1.00 P
SI.622  147.500  1.00 S
SI.624  143.200  1.00 P
SI.624  153.100  1.00 S
# 2016 12 2 13 43 3.800000 73.160000 123.321000 5.6000 0.000000 0.000000 0.000000 0.000000 456
SI.620   99.200  1.00 P
SI.620  107.400  1.00 S
SI.622  106.400  1.00 P
SI.622  119.100  1.00 S
SI.621  109.500  1.00 P
SI.621  125.200  1.00 S
SI.623  109.700  1.00 P
SI.623  125.100  1.00 S
# 2016 12 3 10 49 5.900000 72.713000 124.693000 13.6000 0.000000 0.000000 0.000000 0.000000 457
SI.620  109.100  1.00 P
SI.620  111.500  1.00 S
SI.622  112.300  1.00 P
SI.622  117.400  1.00 S
SI.624  116.100  1.00 P
SI.624  123.500  1.00 S
# 2016 12 3 10 51 3.600000 72.655000 124.605000 17.6000 0.000000 0.000000 0.000000 0.000000 458
SI.620   32.300  1.00 P
SI.620   34.700  1.00 S
SI.622   35.100  1.00 P
SI.622   40.100  1.00 S
SI.624   39.300  1.00 P
SI.624   46.900  1.00 S
# 2016 12 3 10 53 4.500000 72.633000 124.716000 15.6000 0.000000 0.000000 0.000000 0.000000 459
SI.620   47.300  1.00 P
SI.620   49.800  1.00 S
# 2016 12 4 6 51 1.100000 72.850000 122.850000 12.3000 0.000000 0.000000 0.000000 0.000000 460
SI.623  151.500  1.00 P
SI.623  166.000  1.00 S
SI.624  153.000  1.00 P
SI.624  168.100  1.00 S
SI.626  157.900  1.00 P
SI.626  176.500  1.00 S
# 2016 12 4 16 44 1.000000 72.592000 125.055000 19.6000 0.000000 0.000000 0.000000 0.000000 461
SI.622  124.400  1.00 P
SI.622  127.900  1.00 S
SI.620  125.200  1.00 P
SI.620  129.100  1.00 S
SI.623  127.000  1.00 P
SI.623  132.400  1.00 S
# 2016 12 4 18 5 5.300000 72.707000 124.858000 0.0000 0.000000 0.000000 0.000000 0.000000 462
SI.620  114.200  1.00 P
SI.620  116.600  1.00 S
SI.622  116.900  1.00 P
SI.622  121.400  1.00 S
SI.623  120.200  1.00 P
SI.623  127.200  1.00 S
# 2016 12 4 18 31 0.100000 71.973000 126.664000 9.3000 0.000000 0.000000 0.000000 0.000000 463
SI.627  127.500  1.00 P
SI.627  130.400  1.00 S
SI.626  128.300  1.00 P
SI.626  131.500  1.00 S
SI.624  133.700  1.00 P
SI.624  141.000  1.00 S
# 2016 12 6 2 13 3.100000 72.588000 126.327000 16.3000 0.000000 0.000000 0.000000 0.000000 464
SI.624   96.400  1.00 P
SI.624   98.900  1.00 S
SI.623   99.300  1.00 P
SI.623  104.200  1.00 S
SI.622   99.700  1.00 P
SI.622  104.900  1.00 S
# 2016 12 7 15 42 2.800000 73.330000 122.958000 15.2000 0.000000 0.000000 0.000000 0.000000 465
SI.620   99.600  1.00 P
SI.620  110.800  1.00 S
SI.621  108.300  1.00 P
SI.621  125.900  1.00 S
SI.623  108.500  1.00 P
SI.623  126.500  1.00 S
# 2016 12 8 1 0 2.600000 71.521000 128.450000 15.0000 0.000000 0.000000 0.000000 0.000000 466
SI.632   26.500  1.00 P
SI.632   30.000  1.00 S
SI.631   29.800  1.00 P
SI.631   35.700  1.00 S
SI.630   32.500  1.00 P
SI.630   40.500  1.00 S
# 2016 12 8 4 45 13.000000 72.996000 123.547000 10.2000 0.000000 0.000000 0.000000 0.000000 467
SI.620  127.900  1.00 P
SI.620  133.900  1.00 S
SI.622  134.000  1.00 P
SI.622  144.900  1.00 S
SI.624  137.700  1.00 P
SI.624  151.100  1.00 S
# 2016 12 8 15 8 4.500000 73.018000 123.619000 5.2000 0.000000 0.000000 0.000000 0.000000 468
SI.620  112.000  1.00 P
SI.620  118.000  1.00 S
SI.622  118.100  1.00 P
SI.622  129.000  1.00 S
SI.624  121.600  1.00 P
SI.624  134.900  1.00 S
# 2016 12 8 15 31 4.600000 72.294000 127.332000 22.1000 0.000000 0.000000 0.000000 0.000000 469
SI.628  101.200  1.00 P
SI.628  104.500  1.00 S
SI.624  104.600  1.00 P
SI.624  110.500  1.00 S
SI.630  104.900  1.00 P
SI.630  110.600  1.00 S
# 2016 12 9 14 47 1.200000 72.755000 124.245000 14.8000 0.000000 0.000000 0.000000 0.000000 470
SI.620  136.100  1.00 P
SI.620  138.600  1.00 S
SI.623  144.500  1.00 P
SI.623  153.800  1.00 S
SI.624  145.800  1.00 P
SI.624  154.900  1.00 S
# 2016 12 9 23 17 1.000000 71.948000 127.799000 22.9000 0.000000 0.000000 0.000000 0.000000 471
SI.629   64.600  1.00 P
SI.629   68.300  1.00 S
SI.630   65.200  1.00 P
SI.630   69.400  1.00 S
SI.624   73.600  1.00 P
SI.624   83.400  1.00 S
# 2016 12 10 7 15 48.000000 72.811000 124.787000 14.3000 0.000000 0.000000 0.000000 0.000000 472
SI.620   64.300  1.00 P
SI.620   67.900  1.00 S
SI.622   67.700  1.00 P
SI.622   73.700  1.00 S
SI.624   70.700  1.00 P
SI.624   78.400  1.00 S
# 2016 12 10 17 54 2.400000 71.897000 129.366000 16.8000 0.000000 0.000000 0.000000 0.000000 473
SI.632   88.800  1.00 P
SI.632   93.900  1.00 S
SI.630   89.400  1.00 P
SI.630   94.900  1.00 S
SI.628   97.700  1.00 P
SI.628  109.700  1.00 S
# 2016 12 11 8 23 3.600000 71.924000 129.243000 11.0000 0.000000 0.000000 0.000000 0.000000 474
SI.630   98.300  1.00 P
SI.630  102.900  1.00 S
SI.632   98.700  1.00 P
SI.632  104.000  1.00 S
SI.629  103.000  1.00 P
SI.629  111.700  1.00 S
# 2016 12 11 18 30 2.100000 72.503000 125.622000 21.0000 0.000000 0.000000 0.000000 0.000000 475
SI.622   88.000  1.00 P
SI.622   91.000  1.00 S
SI.623   88.700  1.00 P
SI.623   92.400  1.00 S
SI.624   88.900  1.00 P
SI.624   92.800  1.00 S
# 2016 12 12 4 48 0.900000 72.212000 125.814000 8.1000 0.000000 0.000000 0.000000 0.000000 476
SI.625  122.300  1.00 P
SI.625  124.000  1.00 S
SI.623  122.500  1.00 P
SI.623  124.500  1.00 S
SI.624  125.700  1.00 P
SI.624  130.100  1.00 S
# 2016 12 12 14 11 5.900000 71.940000 131.355000 23.0000 0.000000 0.000000 0.000000 0.000000 477
SI.632  129.200  1.00 P
SI.632  140.600  1.00 S
SI.627  137.900  1.00 P
SI.627  155.900  1.00 S
SI.628  137.700  1.00 P
SI.628  156.300  1.00 S
# 2016 12 12 22 12 4.100000 72.539000 124.987000 26.3000 0.000000 0.000000 0.000000 0.000000 478
SI.622  105.000  1.00 P
SI.622  108.700  1.00 S
SI.620  105.800  1.00 P
SI.620  110.400  1.00 S
SI.624  108.300  1.00 P
SI.624  114.600  1.00 S
# 2016 12 12 22 15 3.500000 72.997000 124.093000 0.0000 0.000000 0.000000 0.000000 0.000000 479
SI.620  101.000  1.00 P
SI.620  106.200  1.00 S
SI.622  106.600  1.00 P
SI.622  116.400  1.00 S
SI.624  109.600  1.00 P
SI.624  121.500  1.00 S
# 2016 12 13 1 5 29.000000 72.723000 124.913000 14.9000 0.000000 0.000000 0.000000 0.000000 480
SI.620   64.100  1.00 P
SI.620   67.400  1.00 S
SI.622   66.100  1.00 P
SI.622   70.900  1.00 S
SI.624   69.300  1.00 P
SI.624   76.000  1.00 S
# 2016 12 13 1 52 1.200000 72.719000 124.906000 17.8000 0.000000 0.000000 0.000000 0.000000 481
SI.620  139.300  1.00 P
SI.620  142.800  1.00 S
SI.622  141.300  1.00 P
SI.622  146.100  1.00 S
SI.624  144.400  1.00 P
SI.624  151.200  1.00 S
# 2016 12 13 5 17 0.900000 72.328000 127.446000 12.0000 0.000000 0.000000 0.000000 0.000000 482
SI.628  125.900  1.00 P
SI.628  128.100  1.00 S
SI.627  128.100  1.00 P
SI.627  132.000  1.00 S
SI.624  130.300  1.00 P
SI.624  136.000  1.00 S
# 2016 12 13 17 10 4.800000 72.374000 126.356000 13.9000 0.000000 0.000000 0.000000 0.000000 483
SI.624  100.100  1.00 P
SI.624  102.300  1.00 S
SI.622  103.300  1.00 P
SI.622  108.300  1.00 S
SI.620  109.400  1.00 P
SI.620  118.900  1.00 S
# 2016 12 13 21 44 48.000000 72.274000 127.691000 15.0000 0.000000 0.000000 0.000000 0.000000 484
SI.628   64.600  1.00 P
SI.628   68.100  1.00 S
SI.627   65.600  1.00 P
SI.627   69.800  1.00 S
SI.630   65.700  1.00 P
SI.630   70.100  1.00 S
# 2016 12 15 8 46 3.100000 71.454000 129.976000 18.8000 0.000000 0.000000 0.000000 0.000000 485
SI.632  102.300  1.00 P
SI.632  107.500  1.00 S
SI.630  111.500  1.00 P
SI.630  122.300  1.00 S
SI.628  118.600  1.00 P
SI.628  136.900  1.00 S
# 2016 12 16 9 8 5.100000 72.292000 126.618000 17.8000 0.000000 0.000000 0.000000 0.000000 486
SI.624  117.800  1.00 P
SI.624  121.500  1.00 S
SI.623  118.600  1.00 P
SI.623  122.900  1.00 S
SI.626  121.500  1.00 P
SI.626  128.200  1.00 S
# 2016 12 16 16 50 1.700000 72.865000 125.236000 19.1000 0.000000 0.000000 0.000000 0.000000 487
SI.620  142.900  1.00 P
SI.620  148.300  1.00 S
SI.622  144.400  1.00 P
SI.622  150.700  1.00 S
SI.624  145.600  1.00 P
SI.624  152.900  1.00 S
# 2016 12 17 13 2 3.500000 72.409000 131.895000 13.4000 0.000000 0.000000 0.000000 0.000000 488
SI.630  109.600  1.00 P
SI.630  125.900  1.00 S
SI.632  111.100  1.00 P
SI.632  127.900  1.00 S
SI.631  120.200  1.00 P
SI.631  142.800  1.00 S
# 2016 12 17 15 58 2.300000 72.991000 124.788000 26.1000 0.000000 0.000000 0.000000 0.000000 489
SI.620   93.800  1.00 P
SI.620   99.900  1.00 S
SI.622   97.100  1.00 P
SI.622  105.800  1.00 S
SI.621  101.400  1.00 P
SI.621  112.500  1.00 S
# 2016 12 17 21 6 0.700000 69.805000 129.860000 15.6000 0.000000 0.000000 0.000000 0.000000 490
SI.632   90.800  1.00 P
SI.632  114.600  1.00 S
SI.631   91.600  1.00 P
SI.631  115.200  1.00 S
SI.622  107.500  1.00 P
SI.622  143.700  1.00 S
# 2016 12 17 21 42 2.500000 69.783000 129.801000 15.6000 0.000000 0.000000 0.000000 0.000000 491
SI.632  110.000  1.00 P
SI.632  134.100  1.00 S
SI.631  110.700  1.00 P
SI.631  134.400  1.00 S
SI.622  126.700  1.00 P
SI.622  161.900  1.00 S
# 2016 12 18 4 48 23.000000 73.128000 125.181000 5.6000 0.000000 0.000000 0.000000 0.000000 492
SI.620   69.900  1.00 P
SI.620   77.400  1.00 S
SI.622   72.800  1.00 P
SI.622   82.600  1.00 S
SI.624   73.400  1.00 P
SI.624   83.500  1.00 S
# 2016 12 18 20 28 2.500000 71.359000 130.406000 0.0000 0.000000 0.000000 0.000000 0.000000 493
SI.632   93.800  1.00 P
SI.632  101.300  1.00 S
SI.630  103.500  1.00 P
SI.630  117.100  1.00 S
SI.631  104.200  1.00 P
SI.631  118.400  1.00 S
# 2016 12 20 8 0 4.800000 71.977000 131.921000 13.4000 0.000000 0.000000 0.000000 0.000000 494
SI.632   63.000  1.00 P
SI.632   76.600  1.00 S
SI.630   65.300  1.00 P
SI.630   81.000  1.00 S
SI.631   72.900  1.00 P
SI.631   94.200  1.00 S
# 2016 12 20 10 9 2.400000 72.664000 125.114000 12.3000 0.000000 0.000000 0.000000 0.000000 495
SI.620  146.600  1.00 P
SI.620  150.400  1.00 S
SI.622  146.700  1.00 P
SI.622  150.400  1.00 S
SI.624  149.700  1.00 P
SI.624  155.300  1.00 S
# 2016 12 20 14 42 3.100000 71.540000 130.042000 0.1000 0.000000 0.000000 0.000000 0.000000 496
SI.632   94.600  1.00 P
SI.632   99.800  1.00 S
SI.630  103.500  1.00 P
SI.630  114.400  1.00 S
SI.631  106.500  1.00 P
SI.631  119.000  1.00 S
# 2016 12 21 3 16 1.400000 72.372000 125.328000 9.1000 0.000000 0.000000 0.000000 0.000000 497
SI.622  139.000  1.00 P
SI.622  140.500  1.00 S
SI.623  139.900  1.00 P
SI.623  142.300  1.00 S
SI.624  142.900  1.00 P
SI.624  147.300  1.00 S
# 2016 12 21 13 30 3.300000 73.111000 125.523000 16.2000 0.000000 0.000000 0.000000 0.000000 498
SI.620   99.000  1.00 P
SI.620  106.900  1.00 S
SI.628  103.500  1.00 P
SI.628  115.600  1.00 S
SI.627  108.500  1.00 P
SI.627  123.900  1.00 S
SI.630  112.200  1.00 P
SI.630  129.900  1.00 S
# 2016 12 22 17 19 2.500000 72.079000 127.898000 14.2000 0.000000 0.000000 0.000000 0.000000 499
SI.630   81.300  1.00 P
SI.630   83.900  1.00 S
SI.629   82.800  1.00 P
SI.629   86.700  1.00 S
SI.627   83.800  1.00 P
SI.627   88.100  1.00 S
# 2016 12 23 3 52 3.200000 72.116000 127.800000 3.0000 0.000000 0.000000 0.000000 0.000000 500
SI.629   98.700  1.00 P
SI.629  102.500  1.00 S
SI.627   99.000  1.00 P
SI.627  102.900  1.00 S
SI.631  108.000  1.00 P
SI.631  118.200  1.00 S
# 2016 12 23 7 42 4.100000 71.520000 131.557000 39.2000 0.000000 0.000000 0.000000 0.000000 501
SI.632  117.600  1.00 P
SI.632  129.100  1.00 S
SI.630  123.200  1.00 P
SI.630  138.700  1.00 S
SI.627  129.400  1.00 P
SI.627  148.400  1.00 S
# 2016 12 23 13 8 3.900000 73.054000 124.012000 5.2000 0.000000 0.000000 0.000000 0.000000 502
SI.620  101.800  1.00 P
SI.620  107.700  1.00 S
SI.622  107.500  1.00 P
SI.622  117.600  1.00 S
SI.624  110.100  1.00 P
SI.624  122.900  1.00 S
SI.628  115.000  1.00 P
SI.628  130.400  1.00 S
# 2016 12 23 15 27 3.300000 73.025000 124.015000 10.2000 0.000000 0.000000 0.000000 0.000000 503
SI.620   94.000  1.00 P
SI.620  100.000  1.00 S
SI.622   99.800  1.00 P
SI.622  109.900  1.00 S
SI.628  108.300  1.00 P
SI.628  122.700  1.00 S
# 2016 12 23 15 43 3.600000 73.062000 123.936000 5.2000 0.000000 0.000000 0.000000 0.000000 504
SI.620   98.100  1.00 P
SI.620  104.100  1.00 S
SI.622  103.800  1.00 P
SI.622  114.300  1.00 S
SI.624  106.600  1.00 P
SI.624  119.400  1.00 S
# 2016 12 24 20 47 2.600000 72.998000 125.228000 0.0000 0.000000 0.000000 0.000000 0.000000 505
SI.620  146.200  1.00 P
SI.620  153.200  1.00 S
SI.622  148.900  1.00 P
SI.622  156.800  1.00 S
SI.626  159.600  1.00 P
SI.626  175.200  1.00 S
# 2016 12 25 8 49 1.100000 72.701000 125.046000 17.8000 0.000000 0.000000 0.000000 0.000000 506
SI.620  141.800  1.00 P
SI.620  145.700  1.00 S
SI.622  142.800  1.00 P
SI.622  147.200  1.00 S
SI.624  145.600  1.00 P
SI.624  151.800  1.00 S
# 2016 12 25 9 31 4.400000 72.592000 125.569000 18.7000 0.000000 0.000000 0.000000 0.000000 507
SI.622  104.300  1.00 P
SI.622  107.700  1.00 S
SI.624  105.300  1.00 P
SI.624  109.500  1.00 S
SI.620  107.400  1.00 P
SI.620  113.100  1.00 S
# 2016 12 25 14 10 2.600000 72.408000 125.113000 4.2000 0.000000 0.000000 0.000000 0.000000 508
SI.622   87.600  1.00 P
SI.622   88.700  1.00 S
SI.620   92.400  1.00 P
SI.620   97.400  1.00 S
SI.624   92.800  1.00 P
SI.624   98.100  1.00 S
# 2016 12 25 14 31 5.100000 72.484000 125.346000 7.6000 0.000000 0.000000 0.000000 0.000000 509
SI.622  109.600  1.00 P
SI.622  110.600  1.00 S
SI.621  114.300  1.00 P
SI.621  119.100  1.00 S
SI.620  114.400  1.00 P
SI.620  119.600  1.00 S
