# 2016 8 3 7 36 5.500000 72.790000 127.098000 10.8000 0.000000 0.000000 0.000000 0.000000 1
SI.628  116.100  1.00 P
SI.628  121.800  1.00 S
SI.624  116.600  1.00 P
SI.624  122.600  1.00 S
SI.630  124.100  1.00 P
SI.630  135.600  1.00 S
SI.631  134.100  1.00 P
SI.631  153.600  1.00 S
# 2016 8 3 15 23 0.600000 71.346000 130.508000 0.0000 0.000000 0.000000 0.000000 0.000000 2
SI.632   75.600  1.00 P
SI.632   83.500  1.00 S
SI.625   96.300  1.00 P
SI.625  117.900  1.00 S
SI.623   98.300  1.00 P
SI.623  122.600  1.00 S
SI.621  101.700  1.00 P
SI.621  127.600  1.00 S
# 2016 8 4 2 51 0.100000 72.661000 124.920000 4.2000 0.000000 0.000000 0.000000 0.000000 3
SI.622  124.800  1.00 P
SI.622  128.700  1.00 S
SI.623  128.100  1.00 P
SI.623  134.000  1.00 S
SI.624  128.400  1.00 P
SI.624  134.900  1.00 S
# 2016 8 5 7 28 0.900000 72.447000 125.665000 0.0000 0.000000 0.000000 0.000000 0.000000 4
SI.623  131.100  1.00 P
SI.623  132.700  1.00 S
SI.624  132.800  1.00 P
SI.624  135.100  1.00 S
SI.625  135.500  1.00 P
SI.625  140.200  1.00 S
# 2016 8 8 5 56 1.200000 72.413000 125.381000 13.4000 0.000000 0.000000 0.000000 0.000000 5
SI.622  139.300  1.00 P
SI.622  141.100  1.00 S
SI.623  140.400  1.00 P
SI.623  143.100  1.00 S
SI.624  142.500  1.00 P
SI.624  146.800  1.00 S
# 2016 8 8 23 21 5.600000 70.225000 129.595000 0.0000 0.000000 0.000000 0.000000 0.000000 6
SI.632   78.100  1.00 P
SI.632   97.400  1.00 S
SI.631   79.000  1.00 P
SI.631   98.700  1.00 S
SI.629   86.500  1.00 P
SI.629  112.500  1.00 S
SI.630   87.100  1.00 P
SI.630  112.900  1.00 S
# 2016 8 9 6 47 1.800000 70.428000 128.754000 15.6000 0.000000 0.000000 0.000000 0.000000 7
SI.629  102.700  1.00 P
SI.629  123.700  1.00 S
# 2016 8 11 13 22 4.100000 72.819000 124.016000 15.6000 0.000000 0.000000 0.000000 0.000000 8
SI.620  108.400  1.00 P
SI.620  111.700  1.00 S
# 2016 8 15 11 24 4.300000 72.384000 124.944000 9.7000 0.000000 0.000000 0.000000 0.000000 9
SI.622  106.700  1.00 P
SI.622  109.100  1.00 S
SI.621  108.100  1.00 P
SI.621  111.200  1.00 S
SI.623  108.700  1.00 P
SI.623  112.700  1.00 S
SI.624  111.800  1.00 P
SI.624  117.900  1.00 S
# 2016 8 15 20 10 0.700000 72.035000 127.596000 17.0000 0.000000 0.000000 0.000000 0.000000 10
SI.629  130.600  1.00 P
SI.629  133.500  1.00 S
SI.627  131.900  1.00 P
SI.627  135.400  1.00 S
SI.630  132.100  1.00 P
SI.630  135.900  1.00 S
SI.628  134.500  1.00 P
SI.628  140.300  1.00 S
# 2016 8 16 3 15 55.000000 72.219000 125.919000 2.5000 0.000000 0.000000 0.000000 0.000000 11
SI.625   61.300  1.00 P
SI.625   63.100  1.00 S
SI.623   61.800  1.00 P
SI.623   63.800  1.00 S
SI.624   65.200  1.00 P
SI.624   69.900  1.00 S
SI.622   65.900  1.00 P
SI.622   71.000  1.00 S
SI.626   66.100  1.00 P
SI.626   71.500  1.00 S
# 2016 8 17 17 46 2.400000 72.345000 130.250000 23.1000 0.000000 0.000000 0.000000 0.000000 12
SI.632   93.900  1.00 P
SI.632  106.200  1.00 S
SI.628   95.400  1.00 P
SI.628  108.600  1.00 S
SI.629   96.200  1.00 P
SI.629  110.000  1.00 S
# 2016 8 17 19 24 5.900000 71.386000 131.060000 17.0000 0.000000 0.000000 0.000000 0.000000 13
SI.632   62.300  1.00 P
SI.632   71.900  1.00 S
SI.630   70.300  1.00 P
SI.630   85.500  1.00 S
SI.631   72.000  1.00 P
SI.631   88.800  1.00 S
SI.629   73.600  1.00 P
SI.629   91.100  1.00 S
# 2016 8 18 12 39 3.100000 72.747000 125.035000 20.9000 0.000000 0.000000 0.000000 0.000000 14
SI.620   99.400  1.00 P
SI.620  103.400  1.00 S
SI.622  100.700  1.00 P
SI.622  105.900  1.00 S
SI.624  103.100  1.00 P
SI.624  110.000  1.00 S
SI.621  104.900  1.00 P
SI.621  113.100  1.00 S
# 2016 8 18 16 11 0.300000 72.991000 124.878000 22.8000 0.000000 0.000000 0.000000 0.000000 15
SI.620  136.600  1.00 P
SI.620  142.800  1.00 S
SI.622  140.100  1.00 P
SI.622  148.300  1.00 S
SI.624  141.700  1.00 P
SI.624  151.300  1.00 S
SI.623  142.600  1.00 P
SI.623  152.800  1.00 S
SI.621  144.300  1.00 P
SI.621  155.700  1.00 S
SI.626  149.700  1.00 P
SI.626  165.500  1.00 S
# 2016 8 18 16 12 0.100000 73.003000 124.857000 23.1000 0.000000 0.000000 0.000000 0.000000 16
SI.620   76.800  1.00 P
SI.620   83.000  1.00 S
SI.622   80.300  1.00 P
SI.622   88.800  1.00 S
SI.624   81.900  1.00 P
SI.624   91.600  1.00 S
SI.623   82.800  1.00 P
SI.623   93.400  1.00 S
SI.621   84.500  1.00 P
SI.621   96.100  1.00 S
SI.626   89.900  1.00 P
SI.626  105.700  1.00 S
# 2016 8 19 1 21 1.700000 72.486000 126.372000 15.6000 0.000000 0.000000 0.000000 0.000000 17
SI.624  138.600  1.00 P
SI.624  140.600  1.00 S
# 2016 8 19 9 34 1.300000 71.927000 127.815000 22.9000 0.000000 0.000000 0.000000 0.000000 18
SI.629   81.700  1.00 P
SI.629   85.300  1.00 S
SI.630   82.400  1.00 P
SI.630   86.700  1.00 S
SI.631   87.900  1.00 P
SI.631   96.100  1.00 S
# 2016 8 19 9 58 27.000000 71.913000 129.832000 14.4000 0.000000 0.000000 0.000000 0.000000 19
SI.632   67.900  1.00 P
SI.632   74.100  1.00 S
SI.630   69.400  1.00 P
SI.630   76.700  1.00 S
SI.627   77.100  1.00 P
SI.627   89.500  1.00 S
SI.628   77.800  1.00 P
SI.628   90.500  1.00 S
# 2016 8 19 9 59 2.300000 71.923000 129.765000 12.1000 0.000000 0.000000 0.000000 0.000000 20
SI.632   32.700  1.00 P
SI.632   38.600  1.00 S
SI.630   33.400  1.00 P
SI.630   40.600  1.00 S
SI.629   39.300  1.00 P
SI.629   50.200  1.00 S
SI.627   41.600  1.00 P
SI.627   53.800  1.00 S
SI.628   42.600  1.00 P
SI.628   55.200  1.00 S
SI.631   42.900  1.00 P
SI.631   55.900  1.00 S
SI.625   46.500  1.00 P
SI.625   62.400  1.00 S
SI.626   46.200  1.00 P
SI.626   62.200  1.00 S
SI.624   46.900  1.00 P
SI.624   62.900  1.00 S
SI.623   48.900  1.00 P
SI.623   66.700  1.00 S
SI.621   52.700  1.00 P
SI.621   73.200  1.00 S
SI.620   56.100  1.00 P
SI.620   79.000  1.00 S
# 2016 8 19 10 3 4.700000 71.860000 129.815000 27.6000 0.000000 0.000000 0.000000 0.000000 21
SI.632  107.100  1.00 P
SI.632  113.200  1.00 S
SI.630  109.200  1.00 P
SI.630  117.100  1.00 S
SI.627  115.700  1.00 P
SI.627  128.300  1.00 S
# 2016 8 19 10 5 3.600000 71.895000 129.827000 19.1000 0.000000 0.000000 0.000000 0.000000 22
SI.632   97.800  1.00 P
SI.632  104.000  1.00 S
SI.629  104.800  1.00 P
SI.629  116.000  1.00 S
SI.627  106.900  1.00 P
SI.627  119.100  1.00 S
SI.624  112.100  1.00 P
SI.624  129.000  1.00 S
# 2016 8 19 10 47 3.400000 72.003000 129.784000 12.0000 0.000000 0.000000 0.000000 0.000000 23
SI.629  102.200  1.00 P
SI.629  113.100  1.00 S
SI.627  104.000  1.00 P
SI.627  116.200  1.00 S
SI.628  104.500  1.00 P
SI.628  117.200  1.00 S
SI.621  115.300  1.00 P
SI.621  135.600  1.00 S
# 2016 8 19 10 52 1.200000 71.961000 129.678000 16.4000 0.000000 0.000000 0.000000 0.000000 24
SI.630   84.400  1.00 P
SI.630   90.800  1.00 S
SI.629   89.600  1.00 P
SI.629  100.100  1.00 S
SI.627   91.600  1.00 P
SI.627  103.700  1.00 S
SI.628   92.600  1.00 P
SI.628  104.900  1.00 S
# 2016 8 19 10 57 0.700000 72.076000 129.756000 13.9000 0.000000 0.000000 0.000000 0.000000 25
SI.625   84.600  1.00 P
SI.625  100.300  1.00 S
SI.624   84.700  1.00 P
SI.624  100.500  1.00 S
SI.623   87.000  1.00 P
SI.623  104.500  1.00 S
SI.622   89.200  1.00 P
SI.622  108.300  1.00 S
SI.621   90.500  1.00 P
SI.621  110.900  1.00 S
# 2016 8 19 11 3 3.800000 71.982000 129.750000 0.0000 0.000000 0.000000 0.000000 0.000000 26
SI.630  104.600  1.00 P
SI.630  111.600  1.00 S
SI.629  110.400  1.00 P
SI.629  121.400  1.00 S
SI.627  112.400  1.00 P
SI.627  124.800  1.00 S
SI.628  113.100  1.00 P
SI.628  125.800  1.00 S
SI.625  117.300  1.00 P
SI.625  133.200  1.00 S
# 2016 8 19 11 6 1.300000 72.023000 129.909000 23.7000 0.000000 0.000000 0.000000 0.000000 27
SI.630   78.700  1.00 P
SI.630   86.300  1.00 S
SI.629   84.300  1.00 P
SI.629   95.900  1.00 S
SI.627   85.900  1.00 P
SI.627   98.400  1.00 S
SI.628   86.200  1.00 P
SI.628   99.100  1.00 S
# 2016 8 19 11 14 2.600000 72.029000 129.819000 19.8000 0.000000 0.000000 0.000000 0.000000 28
SI.630   87.000  1.00 P
SI.630   94.200  1.00 S
SI.627   94.200  1.00 P
SI.627  106.400  1.00 S
SI.628   94.600  1.00 P
SI.628  107.300  1.00 S
SI.625   98.900  1.00 P
SI.625  114.700  1.00 S
# 2016 8 19 11 23 5.100000 71.868000 129.700000 25.1000 0.000000 0.000000 0.000000 0.000000 29
SI.632  118.600  1.00 P
SI.632  124.400  1.00 S
SI.630  120.600  1.00 P
SI.630  127.900  1.00 S
SI.627  127.400  1.00 P
SI.627  139.900  1.00 S
SI.628  128.400  1.00 P
SI.628  140.700  1.00 S
# 2016 8 19 11 32 4.300000 71.852000 129.705000 25.5000 0.000000 0.000000 0.000000 0.000000 30
SI.632  109.400  1.00 P
SI.632  115.200  1.00 S
SI.630  111.700  1.00 P
SI.630  119.000  1.00 S
SI.629  116.500  1.00 P
SI.629  127.100  1.00 S
SI.627  118.300  1.00 P
SI.627  130.500  1.00 S
# 2016 8 19 11 55 2.400000 71.867000 129.661000 24.8000 0.000000 0.000000 0.000000 0.000000 31
SI.632   87.500  1.00 P
SI.632   93.100  1.00 S
SI.630   89.300  1.00 P
SI.630   96.600  1.00 S
SI.627   96.600  1.00 P
SI.627  108.600  1.00 S
SI.628   97.000  1.00 P
SI.628  109.500  1.00 S
# 2016 8 19 13 52 55.000000 71.897000 129.742000 5.1000 0.000000 0.000000 0.000000 0.000000 32
SI.632   67.200  1.00 P
SI.632   72.700  1.00 S
SI.630   68.700  1.00 P
SI.630   75.700  1.00 S
SI.627   76.600  1.00 P
SI.627   88.800  1.00 S
SI.628   77.400  1.00 P
SI.628   90.000  1.00 S
# 2016 8 19 14 4 2.600000 71.962000 129.667000 18.2000 0.000000 0.000000 0.000000 0.000000 33
SI.630   88.500  1.00 P
SI.630   94.900  1.00 S
SI.627   95.600  1.00 P
SI.627  107.900  1.00 S
SI.628   96.400  1.00 P
SI.628  108.900  1.00 S
SI.626  100.700  1.00 P
SI.626  116.200  1.00 S
SI.624  101.300  1.00 P
SI.624  117.300  1.00 S
# 2016 8 19 20 19 1.400000 71.927000 129.633000 14.3000 0.000000 0.000000 0.000000 0.000000 34
SI.625   92.500  1.00 P
SI.625  108.100  1.00 S
SI.626   92.300  1.00 P
SI.626  108.100  1.00 S
SI.623   94.900  1.00 P
SI.623  112.300  1.00 S
SI.622   97.300  1.00 P
SI.622  116.400  1.00 S
SI.621   98.500  1.00 P
SI.621  118.800  1.00 S
# 2016 8 19 20 42 4.700000 72.012000 129.833000 11.7000 0.000000 0.000000 0.000000 0.000000 35
SI.629  113.500  1.00 P
SI.629  124.500  1.00 S
SI.627  115.400  1.00 P
SI.627  127.500  1.00 S
SI.624  120.300  1.00 P
SI.624  137.100  1.00 S
SI.623  122.500  1.00 P
SI.623  140.700  1.00 S
SI.621  126.500  1.00 P
SI.621  147.000  1.00 S
# 2016 8 20 0 34 1.200000 71.990000 129.901000 5.0000 0.000000 0.000000 0.000000 0.000000 36
SI.629  144.800  1.00 P
SI.629  156.100  1.00 S
SI.627  146.800  1.00 P
SI.627  159.600  1.00 S
SI.628  147.200  1.00 P
SI.628  160.300  1.00 S
SI.624  152.300  1.00 P
SI.624  168.900  1.00 S
# 2016 8 20 0 35 1.800000 72.010000 129.652000 17.7000 0.000000 0.000000 0.000000 0.000000 37
SI.627   86.300  1.00 P
SI.627   98.200  1.00 S
SI.628   86.900  1.00 P
SI.628   99.100  1.00 S
SI.625   91.400  1.00 P
SI.625  106.900  1.00 S
SI.626   91.700  1.00 P
SI.626  107.300  1.00 S
SI.624   91.700  1.00 P
SI.624  107.400  1.00 S
# 2016 8 20 0 51 1.600000 72.748000 130.742000 15.6000 0.000000 0.000000 0.000000 0.000000 38
SI.626  103.100  1.00 P
SI.626  125.300  1.00 S
# 2016 8 20 3 8 4.400000 72.957000 123.731000 19.7000 0.000000 0.000000 0.000000 0.000000 39
SI.620  107.200  1.00 P
SI.620  112.800  1.00 S
SI.622  113.400  1.00 P
SI.622  123.400  1.00 S
SI.621  115.700  1.00 P
SI.621  127.700  1.00 S
SI.623  116.200  1.00 P
SI.623  128.900  1.00 S
SI.624  116.700  1.00 P
SI.624  129.100  1.00 S
# 2016 8 20 6 29 3.100000 71.962000 129.755000 25.1000 0.000000 0.000000 0.000000 0.000000 40
SI.629  109.300  1.00 P
SI.629  120.200  1.00 S
SI.627  111.100  1.00 P
SI.627  123.400  1.00 S
SI.628  111.700  1.00 P
SI.628  124.500  1.00 S
# 2016 8 20 7 35 1.600000 72.390000 126.375000 16.4000 0.000000 0.000000 0.000000 0.000000 41
SI.624   75.200  1.00 P
SI.624   77.500  1.00 S
SI.623   76.500  1.00 P
SI.623   80.000  1.00 S
SI.625   77.000  1.00 P
SI.625   81.000  1.00 S
SI.628   77.100  1.00 P
SI.628   81.000  1.00 S
SI.626   81.800  1.00 P
SI.626   89.100  1.00 S
# 2016 8 20 9 52 4.000000 72.121000 127.639000 13.5000 0.000000 0.000000 0.000000 0.000000 42
SI.627  124.300  1.00 P
SI.627  127.700  1.00 S
SI.630  124.600  1.00 P
SI.630  128.100  1.00 S
SI.628  126.300  1.00 P
SI.628  131.000  1.00 S
# 2016 8 20 15 5 1.700000 71.938000 129.795000 11.0000 0.000000 0.000000 0.000000 0.000000 43
SI.632   81.800  1.00 P
SI.632   88.400  1.00 S
SI.630   82.400  1.00 P
SI.630   89.700  1.00 S
SI.627   90.800  1.00 P
SI.627  103.100  1.00 S
SI.626   95.500  1.00 P
SI.626  111.400  1.00 S
SI.625   95.900  1.00 P
SI.625  111.500  1.00 S
SI.624   95.800  1.00 P
SI.624  112.100  1.00 S
SI.623   98.200  1.00 P
SI.623  115.600  1.00 S
SI.622  100.500  1.00 P
SI.622  119.800  1.00 S
SI.621  101.700  1.00 P
SI.621  122.400  1.00 S
# 2016 8 20 15 7 5.100000 71.872000 129.608000 24.6000 0.000000 0.000000 0.000000 0.000000 44
SI.632  115.400  1.00 P
SI.632  121.100  1.00 S
SI.630  117.200  1.00 P
SI.630  124.100  1.00 S
SI.627  124.200  1.00 P
SI.627  136.200  1.00 S
SI.628  124.900  1.00 P
SI.628  137.400  1.00 S
# 2016 8 20 19 3 4.700000 72.348000 127.189000 23.8000 0.000000 0.000000 0.000000 0.000000 45
SI.624  107.700  1.00 P
SI.624  112.900  1.00 S
SI.625  108.700  1.00 P
SI.625  114.800  1.00 S
SI.623  109.900  1.00 P
SI.623  116.700  1.00 S
SI.622  112.100  1.00 P
SI.622  120.500  1.00 S
SI.621  114.500  1.00 P
SI.621  124.900  1.00 S
SI.620  117.800  1.00 P
SI.620  130.700  1.00 S
# 2016 8 21 5 14 5.600000 72.020000 129.497000 0.0000 0.000000 0.000000 0.000000 0.000000 46
SI.629  120.000  1.00 P
SI.629  129.900  1.00 S
SI.628  122.300  1.00 P
SI.628  134.000  1.00 S
SI.625  126.600  1.00 P
SI.625  141.600  1.00 S
SI.624  127.400  1.00 P
SI.624  142.700  1.00 S
# 2016 8 21 13 52 4.200000 72.704000 127.197000 15.6000 0.000000 0.000000 0.000000 0.000000 47
SI.628  108.200  1.00 P
SI.628  112.800  1.00 S
# 2016 8 22 0 20 2.400000 71.929000 129.697000 0.0000 0.000000 0.000000 0.000000 0.000000 48
SI.632   87.000  1.00 P
SI.632   93.200  1.00 S
SI.630   87.700  1.00 P
SI.630   94.600  1.00 S
SI.628   96.300  1.00 P
SI.628  109.200  1.00 S
# 2016 8 22 4 5 0.500000 72.701000 125.729000 18.3000 0.000000 0.000000 0.000000 0.000000 49
SI.624  135.000  1.00 P
SI.624  139.500  1.00 S
SI.622  135.100  1.00 P
SI.622  139.800  1.00 S
SI.623  136.500  1.00 P
SI.623  142.200  1.00 S
SI.620  137.200  1.00 P
SI.620  143.400  1.00 S
# 2016 8 22 13 17 4.500000 72.365000 127.084000 16.5000 0.000000 0.000000 0.000000 0.000000 50
SI.628  107.800  1.00 P
SI.628  109.900  1.00 S
SI.627  110.300  1.00 P
SI.627  114.300  1.00 S
SI.624  110.700  1.00 P
SI.624  114.900  1.00 S
SI.625  112.200  1.00 P
SI.625  117.600  1.00 S
SI.623  112.900  1.00 P
SI.623  118.700  1.00 S
SI.630  114.200  1.00 P
SI.630  121.000  1.00 S
SI.622  115.200  1.00 P
SI.622  122.800  1.00 S
SI.626  115.900  1.00 P
SI.626  124.000  1.00 S
# 2016 8 23 1 12 2.800000 71.942000 129.784000 5.1000 0.000000 0.000000 0.000000 0.000000 51
SI.632   88.000  1.00 P
SI.632   94.100  1.00 S
SI.627   96.300  1.00 P
SI.627  108.400  1.00 S
SI.631   98.000  1.00 P
SI.631  111.400  1.00 S
# 2016 8 23 6 51 14.000000 70.933000 129.810000 6.4000 0.000000 0.000000 0.000000 0.000000 52
SI.632   72.500  1.00 P
SI.632   82.300  1.00 S
SI.631   77.400  1.00 P
SI.631   90.700  1.00 S
SI.628   90.200  1.00 P
SI.628  112.900  1.00 S
SI.625   90.500  1.00 P
SI.625  113.400  1.00 S
SI.624   93.900  1.00 P
SI.624  119.400  1.00 S
SI.622   96.200  1.00 P
SI.622  123.400  1.00 S
# 2016 8 24 13 0 2.800000 64.527000 126.907000 23.2000 0.000000 0.000000 0.000000 0.000000 53
SI.631   64.400  1.00 P
SI.631  143.500  1.00 S
SI.626   71.600  1.00 P
SI.626  155.900  1.00 S
SI.621   76.000  1.00 P
SI.621  163.500  1.00 S
SI.623   78.000  1.00 P
SI.623  166.900  1.00 S
# 2016 8 24 15 9 3.400000 71.610000 130.057000 9.7000 0.000000 0.000000 0.000000 0.000000 55
SI.632   92.800  1.00 P
SI.632   97.500  1.00 S
SI.631  103.900  1.00 P
SI.631  116.900  1.00 S
SI.628  109.000  1.00 P
SI.628  125.600  1.00 S
SI.626  110.700  1.00 P
SI.626  128.500  1.00 S
SI.625  111.900  1.00 P
SI.625  130.600  1.00 S
SI.624  113.000  1.00 P
SI.624  132.600  1.00 S
SI.623  114.500  1.00 P
SI.623  135.200  1.00 S
SI.622  116.800  1.00 P
SI.622  139.100  1.00 S
SI.621  117.800  1.00 P
SI.621  140.800  1.00 S
# 2016 8 24 15 9 3.400000 71.607000 130.049000 8.6000 0.000000 0.000000 0.000000 0.000000 55
SI.632   92.700  1.00 P
SI.632   97.500  1.00 S
SI.631  103.900  1.00 P
SI.631  116.800  1.00 S
SI.628  109.100  1.00 P
SI.628  125.700  1.00 S
SI.626  110.700  1.00 P
SI.626  128.500  1.00 S
SI.625  111.800  1.00 P
SI.625  130.500  1.00 S
SI.624  113.100  1.00 P
SI.624  132.700  1.00 S
SI.623  114.600  1.00 P
SI.623  135.300  1.00 S
SI.622  117.400  1.00 P
SI.622  140.000  1.00 S
SI.621  117.800  1.00 P
SI.621  140.700  1.00 S
# 2016 8 25 3 49 11.000000 75.952000 132.497000 6.2000 0.000000 0.000000 0.000000 0.000000 56
SI.628   59.600  1.00 P
SI.628  106.200  1.00 S
SI.630   62.600  1.00 P
SI.630  111.600  1.00 S
SI.623   62.800  1.00 P
SI.623  111.900  1.00 S
SI.625   64.500  1.00 P
SI.625  114.800  1.00 S
# 2016 8 25 7 54 5.100000 72.347000 130.339000 14.4000 0.000000 0.000000 0.000000 0.000000 57
SI.630   64.600  1.00 P
SI.630   74.300  1.00 S
SI.632   68.000  1.00 P
SI.632   80.100  1.00 S
SI.628   69.800  1.00 P
SI.628   83.200  1.00 S
SI.624   74.700  1.00 P
SI.624   91.700  1.00 S
# 2016 8 28 16 31 3.500000 73.273000 125.160000 29.9000 0.000000 0.000000 0.000000 0.000000 58
SI.622  109.200  1.00 P
SI.622  120.800  1.00 S
SI.624  109.700  1.00 P
SI.624  121.600  1.00 S
SI.623  111.300  1.00 P
SI.623  124.400  1.00 S
# 2016 8 29 15 35 4.400000 71.481000 129.562000 0.0000 0.000000 0.000000 0.000000 0.000000 59
SI.632  103.400  1.00 P
SI.632  106.300  1.00 S
SI.630  113.500  1.00 P
SI.630  123.700  1.00 S
SI.625  124.000  1.00 P
SI.625  142.000  1.00 S
# 2016 8 29 22 23 19.000000 72.203000 127.781000 19.2000 0.000000 0.000000 0.000000 0.000000 60
SI.630   65.000  1.00 P
SI.630   68.800  1.00 S
SI.627   65.800  1.00 P
SI.627   70.200  1.00 S
SI.628   65.900  1.00 P
SI.628   70.400  1.00 S
SI.629   66.400  1.00 P
SI.629   71.300  1.00 S
# 2016 8 30 16 0 27.000000 72.018000 127.925000 11.0000 0.000000 0.000000 0.000000 0.000000 61
SI.630   63.100  1.00 P
SI.630   65.500  1.00 S
SI.629   64.300  1.00 P
SI.629   67.600  1.00 S
SI.627   66.000  1.00 P
SI.627   70.500  1.00 S
# 2016 9 2 7 39 5.500000 72.779000 123.958000 10.0000 0.000000 0.000000 0.000000 0.000000 62
SI.620  114.400  1.00 P
SI.620  117.300  1.00 S
SI.622  121.200  1.00 P
SI.622  128.500  1.00 S
SI.628  130.100  1.00 P
SI.628  144.000  1.00 S
SI.630  137.600  1.00 P
SI.630  158.400  1.00 S
# 2016 9 2 7 40 5.600000 72.765000 123.975000 11.8000 0.000000 0.000000 0.000000 0.000000 63
SI.620   54.300  1.00 P
SI.620   57.100  1.00 S
SI.622   61.100  1.00 P
SI.622   68.300  1.00 S
SI.628   69.900  1.00 P
SI.628   83.800  1.00 S
SI.630   77.500  1.00 P
SI.630   97.500  1.00 S
# 2016 9 2 7 41 0.400000 72.830000 124.058000 0.2000 0.000000 0.000000 0.000000 0.000000 64
SI.620  124.800  1.00 P
SI.620  127.700  1.00 S
SI.622  131.500  1.00 P
SI.622  139.100  1.00 S
SI.623  134.700  1.00 P
SI.623  144.600  1.00 S
SI.624  135.700  1.00 P
SI.624  146.900  1.00 S
# 2016 9 2 7 42 0.800000 72.802000 124.022000 3.4000 0.000000 0.000000 0.000000 0.000000 65
SI.620   64.400  1.00 P
SI.620   67.200  1.00 S
SI.622   71.000  1.00 P
SI.622   78.500  1.00 S
SI.623   74.000  1.00 P
SI.623   84.200  1.00 S
SI.628   80.000  1.00 P
SI.628   93.900  1.00 S
# 2016 9 2 7 46 4.300000 72.809000 124.035000 3.4000 0.000000 0.000000 0.000000 0.000000 66
SI.620  105.600  1.00 P
SI.620  108.400  1.00 S
SI.622  112.200  1.00 P
SI.622  119.700  1.00 S
SI.623  115.100  1.00 P
SI.623  125.100  1.00 S
SI.624  115.900  1.00 P
SI.624  126.600  1.00 S
# 2016 9 2 7 50 1.100000 72.776000 124.053000 15.6000 0.000000 0.000000 0.000000 0.000000 67
SI.620   16.800  1.00 P
SI.620   19.700  1.00 S
