# 2016 12 25 14 46 16.000000 72.400000 125.111000 4.0000 0.000000 0.000000 0.000000 0.000000 510
SI.622  121.700  1.00 P
SI.622  122.800  1.00 S
SI.620  126.400  1.00 P
SI.620  131.700  1.00 S
SI.624  126.900  1.00 P
SI.624  132.100  1.00 S
# 2016 12 25 14 49 1.600000 72.400000 125.116000 4.1000 0.000000 0.000000 0.000000 0.000000 511
SI.622  135.700  1.00 P
SI.622  136.700  1.00 S
SI.620  140.500  1.00 P
SI.620  145.700  1.00 S
SI.624  140.800  1.00 P
SI.624  146.100  1.00 S
# 2016 12 25 14 51 5.300000 72.403000 125.126000 4.2000 0.000000 0.000000 0.000000 0.000000 512
SI.622  113.600  1.00 P
SI.622  114.700  1.00 S
SI.620  118.600  1.00 P
SI.620  123.600  1.00 S
SI.624  118.700  1.00 P
SI.624  124.000  1.00 S
# 2016 12 26 2 47 2.100000 71.380000 128.966000 2.6000 0.000000 0.000000 0.000000 0.000000 513
SI.632   85.700  1.00 P
SI.632   89.100  1.00 S
SI.630   95.900  1.00 P
SI.630  105.700  1.00 S
SI.628  103.600  1.00 P
SI.628  119.900  1.00 S
# 2016 12 26 5 0 4.200000 71.976000 127.770000 21.4000 0.000000 0.000000 0.000000 0.000000 514
SI.629   47.400  1.00 P
SI.629   50.900  1.00 S
SI.630   48.000  1.00 P
SI.630   51.900  1.00 S
SI.631   54.600  1.00 P
SI.631   63.300  1.00 S
# 2016 12 26 6 15 2.300000 72.476000 125.112000 3.0000 0.000000 0.000000 0.000000 0.000000 515
SI.622   83.500  1.00 P
SI.622   84.600  1.00 S
SI.623   86.900  1.00 P
SI.623   90.700  1.00 S
SI.624   88.800  1.00 P
SI.624   94.000  1.00 S
# 2016 12 26 9 7 3.200000 72.402000 125.111000 4.1000 0.000000 0.000000 0.000000 0.000000 516
SI.622   92.700  1.00 P
SI.622   93.800  1.00 S
SI.620   97.400  1.00 P
SI.620  102.600  1.00 S
SI.624   97.900  1.00 P
SI.624  103.100  1.00 S
# 2016 12 26 9 7 46.000000 72.404000 125.126000 3.9000 0.000000 0.000000 0.000000 0.000000 517
SI.622   61.500  1.00 P
SI.622   62.600  1.00 S
SI.620   66.400  1.00 P
SI.620   71.700  1.00 S
SI.624   66.800  1.00 P
SI.624   71.900  1.00 S
# 2016 12 26 11 39 52.000000 72.285000 126.648000 15.0000 0.000000 0.000000 0.000000 0.000000 518
SI.627   64.400  1.00 P
SI.627   67.800  1.00 S
SI.624   64.800  1.00 P
SI.624   68.500  1.00 S
SI.623   65.600  1.00 P
SI.623   69.900  1.00 S
# 2016 12 26 23 21 5.600000 72.097000 131.053000 16.6000 0.000000 0.000000 0.000000 0.000000 519
SI.632  120.100  1.00 P
SI.632  131.400  1.00 S
SI.630  120.400  1.00 P
SI.630  132.500  1.00 S
SI.628  127.200  1.00 P
SI.628  144.300  1.00 S
# 2016 12 27 3 28 5.800000 72.293000 126.644000 19.0000 0.000000 0.000000 0.000000 0.000000 520
SI.628  109.500  1.00 P
SI.628  113.300  1.00 S
SI.624  110.100  1.00 P
SI.624  113.800  1.00 S
SI.626  113.800  1.00 P
SI.626  120.500  1.00 S
# 2016 12 27 13 45 11.000000 72.780000 125.123000 0.0000 0.000000 0.000000 0.000000 0.000000 521
SI.620  125.200  1.00 P
SI.620  129.100  1.00 S
SI.622  126.900  1.00 P
SI.622  132.000  1.00 S
SI.624  129.100  1.00 P
SI.624  135.600  1.00 S
SI.621  131.900  1.00 P
SI.621  140.500  1.00 S
# 2016 12 27 14 39 5.200000 72.761000 125.038000 15.8000 0.000000 0.000000 0.000000 0.000000 522
SI.620  110.000  1.00 P
SI.620  113.900  1.00 S
SI.622  111.500  1.00 P
SI.622  116.700  1.00 S
SI.621  116.100  1.00 P
SI.621  124.200  1.00 S
# 2016 12 27 21 16 5.100000 72.768000 125.133000 13.2000 0.000000 0.000000 0.000000 0.000000 523
SI.620  112.300  1.00 P
SI.620  116.300  1.00 S
SI.622  113.500  1.00 P
SI.622  118.400  1.00 S
SI.621  117.900  1.00 P
SI.621  126.500  1.00 S
# 2016 12 27 22 58 1.200000 72.386000 129.335000 15.9000 0.000000 0.000000 0.000000 0.000000 524
SI.630   78.400  1.00 P
SI.630   84.900  1.00 S
SI.632   84.800  1.00 P
SI.632   96.800  1.00 S
SI.631   92.100  1.00 P
SI.631  107.800  1.00 S
# 2016 12 28 3 58 0.600000 73.060000 123.982000 5.0000 0.000000 0.000000 0.000000 0.000000 525
SI.620   70.800  1.00 P
SI.620   76.900  1.00 S
SI.622   76.700  1.00 P
SI.622   86.800  1.00 S
SI.624   79.400  1.00 P
SI.624   91.900  1.00 S
# 2016 12 28 8 34 4.800000 73.313000 125.288000 20.6000 0.000000 0.000000 0.000000 0.000000 526
SI.620  117.400  1.00 P
SI.620  127.700  1.00 S
SI.622  120.100  1.00 P
SI.622  132.600  1.00 S
SI.621  124.500  1.00 P
SI.621  140.100  1.00 S
# 2016 12 28 14 53 0.100000 73.088000 124.097000 8.0000 0.000000 0.000000 0.000000 0.000000 527
SI.620  132.800  1.00 P
SI.620  139.000  1.00 S
SI.622  138.700  1.00 P
SI.622  148.900  1.00 S
SI.621  143.000  1.00 P
SI.621  156.500  1.00 S
SI.629  152.500  1.00 P
SI.629  172.700  1.00 S
# 2016 12 28 15 4 3.100000 73.117000 124.362000 16.0000 0.000000 0.000000 0.000000 0.000000 528
SI.622  105.900  1.00 P
SI.622  116.200  1.00 S
SI.621  110.800  1.00 P
SI.621  124.700  1.00 S
SI.628  113.500  1.00 P
SI.628  128.900  1.00 S
SI.626  117.200  1.00 P
SI.626  134.800  1.00 S
# 2016 12 28 20 44 2.300000 71.696000 132.681000 7.9000 0.000000 0.000000 0.000000 0.000000 529
SI.632  100.800  1.00 P
SI.632  116.900  1.00 S
SI.630  105.500  1.00 P
SI.630  125.200  1.00 S
SI.631  111.400  1.00 P
SI.631  134.200  1.00 S
# 2016 12 28 22 49 2.200000 71.574000 127.504000 15.6000 0.000000 0.000000 0.000000 0.000000 530
SI.631   86.300  1.00 P
SI.631   89.800  1.00 S
SI.632   91.500  1.00 P
SI.632   98.700  1.00 S
SI.630   92.800  1.00 P
SI.630  100.800  1.00 S
# 2016 12 29 9 52 3.900000 72.199000 128.823000 0.0000 0.000000 0.000000 0.000000 0.000000 531
SI.630   96.600  1.00 P
SI.630  100.000  1.00 S
SI.628  103.700  1.00 P
SI.628  111.700  1.00 S
SI.632  105.200  1.00 P
SI.632  114.200  1.00 S
# 2016 12 29 10 4 5.500000 71.202000 129.021000 5.4000 0.000000 0.000000 0.000000 0.000000 532
SI.632   51.300  1.00 P
SI.632   56.400  1.00 S
SI.631   56.600  1.00 P
SI.631   63.900  1.00 S
SI.630   63.400  1.00 P
SI.630   75.900  1.00 S
# 2016 12 29 16 21 4.500000 72.727000 124.050000 15.5000 0.000000 0.000000 0.000000 0.000000 533
SI.620  106.100  1.00 P
SI.620  109.000  1.00 S
SI.622  112.100  1.00 P
SI.622  119.000  1.00 S
SI.624  116.700  1.00 P
SI.624  126.200  1.00 S
# 2016 12 30 7 30 1.200000 72.386000 126.120000 10.7000 0.000000 0.000000 0.000000 0.000000 534
SI.624  134.600  1.00 P
SI.624  136.600  1.00 S
SI.623  134.900  1.00 P
SI.623  137.200  1.00 S
SI.622  137.000  1.00 P
SI.622  140.800  1.00 S
# 2016 12 30 12 25 13.000000 72.436000 125.385000 10.7000 0.000000 0.000000 0.000000 0.000000 535
SI.622  121.800  1.00 P
SI.622  123.200  1.00 S
SI.623  123.300  1.00 P
SI.623  126.100  1.00 S
SI.624  125.400  1.00 P
SI.624  129.400  1.00 S
# 2016 12 30 15 39 5.800000 72.377000 125.120000 2.6000 0.000000 0.000000 0.000000 0.000000 536
SI.622  110.000  1.00 P
SI.622  111.100  1.00 S
SI.620  114.800  1.00 P
SI.620  120.600  1.00 S
SI.624  115.200  1.00 P
SI.624  120.400  1.00 S
# 2016 12 30 19 8 42.000000 72.313000 129.739000 11.8000 0.000000 0.000000 0.000000 0.000000 537
SI.630   69.100  1.00 P
SI.630   76.500  1.00 S
SI.632   74.000  1.00 P
SI.632   85.200  1.00 S
SI.627   76.100  1.00 P
SI.627   88.100  1.00 S
SI.631   82.600  1.00 P
SI.631   98.200  1.00 S
# 2016 12 30 19 18 2.100000 72.269000 129.533000 0.0000 0.000000 0.000000 0.000000 0.000000 538
SI.630   89.800  1.00 P
SI.630   96.500  1.00 S
SI.632   95.600  1.00 P
SI.632  105.900  1.00 S
SI.628   95.700  1.00 P
SI.628  107.000  1.00 S
SI.631  103.600  1.00 P
SI.631  118.700  1.00 S
# 2016 12 31 9 26 3.100000 72.704000 125.192000 17.3000 0.000000 0.000000 0.000000 0.000000 539
SI.620   94.600  1.00 P
SI.620   98.700  1.00 S
SI.622   94.600  1.00 P
SI.622   99.000  1.00 S
SI.624   96.900  1.00 P
SI.624  102.800  1.00 S
# 2016 12 31 12 48 5.200000 72.748000 125.042000 20.4000 0.000000 0.000000 0.000000 0.000000 540
SI.620  112.300  1.00 P
SI.620  116.400  1.00 S
SI.622  113.700  1.00 P
SI.622  118.800  1.00 S
SI.624  116.000  1.00 P
SI.624  122.900  1.00 S
# 2016 12 31 18 38 2.300000 71.918000 128.886000 14.2000 0.000000 0.000000 0.000000 0.000000 541
SI.630   84.000  1.00 P
SI.630   87.700  1.00 S
SI.632   85.800  1.00 P
SI.632   91.200  1.00 S
SI.629   88.300  1.00 P
SI.629   95.400  1.00 S
# 2017 1 1 8 22 5.600000 72.121000 127.605000 21.8000 0.000000 0.000000 0.000000 0.000000 542
SI.627  111.900  1.00 P
SI.627  115.900  1.00 S
SI.628  113.800  1.00 P
SI.628  118.800  1.00 S
SI.626  117.500  1.00 P
SI.626  125.400  1.00 S
# 2017 1 2 9 14 4.100000 73.406000 126.113000 15.6000 0.000000 0.000000 0.000000 0.000000 543
SI.620  112.900  1.00 P
SI.620  125.700  1.00 S
# 2017 1 2 9 17 4.500000 72.571000 127.684000 0.0000 0.000000 0.000000 0.000000 0.000000 544
SI.628  102.300  1.00 P
SI.628  105.900  1.00 S
SI.627  107.700  1.00 P
SI.627  115.300  1.00 S
SI.625  110.100  1.00 P
SI.625  119.200  1.00 S
# 2017 1 2 11 31 4.800000 72.998000 126.769000 15.6000 0.000000 0.000000 0.000000 0.000000 545
SI.628  115.500  1.00 P
SI.628  124.200  1.00 S
# 2017 1 2 14 35 3.200000 71.977000 126.606000 15.6000 0.000000 0.000000 0.000000 0.000000 546
SI.627  157.200  1.00 P
SI.627  160.500  1.00 S
# 2017 1 2 15 3 2.700000 72.452000 125.306000 15.6000 0.000000 0.000000 0.000000 0.000000 547
SI.622  150.300  1.00 P
SI.622  150.900  1.00 S
# 2017 1 2 17 7 1.700000 71.589000 132.620000 11.7000 0.000000 0.000000 0.000000 0.000000 548
SI.632   91.600  1.00 P
SI.632  107.200  1.00 S
SI.629  100.900  1.00 P
SI.629  123.500  1.00 S
SI.631  101.000  1.00 P
SI.631  124.300  1.00 S
SI.627  103.000  1.00 P
SI.627  127.500  1.00 S
# 2017 1 2 17 29 2.900000 72.174000 125.266000 19.6000 0.000000 0.000000 0.000000 0.000000 549
SI.621   84.800  1.00 P
SI.621   87.900  1.00 S
SI.622   87.100  1.00 P
SI.622   91.300  1.00 S
SI.627   91.100  1.00 P
SI.627   99.100  1.00 S
# 2017 1 2 18 21 0.800000 72.266000 126.722000 1.6000 0.000000 0.000000 0.000000 0.000000 550
SI.627  192.200  1.00 P
SI.627  195.000  1.00 S
SI.628  192.800  1.00 P
SI.628  195.400  1.00 S
SI.629  196.500  1.00 P
SI.629  202.200  1.00 S
# 2017 1 2 22 17 4.300000 72.277000 126.794000 6.3000 0.000000 0.000000 0.000000 0.000000 551
SI.628  106.300  1.00 P
SI.628  108.700  1.00 S
SI.624  108.100  1.00 P
SI.624  111.500  1.00 S
SI.629  110.300  1.00 P
SI.629  115.600  1.00 S
# 2017 1 3 0 52 34.000000 72.822000 124.955000 21.3000 0.000000 0.000000 0.000000 0.000000 552
SI.621   72.000  1.00 P
SI.621   81.500  1.00 S
SI.629   80.800  1.00 P
SI.629   96.200  1.00 S
SI.631   87.500  1.00 P
SI.631  108.200  1.00 S
SI.632   90.200  1.00 P
SI.632  113.200  1.00 S
# 2017 1 3 4 26 1.400000 72.236000 125.271000 21.3000 0.000000 0.000000 0.000000 0.000000 553
SI.622  202.100  1.00 P
SI.622  206.100  1.00 S
SI.625  203.000  1.00 P
SI.625  207.400  1.00 S
SI.624  204.900  1.00 P
SI.624  211.000  1.00 S
# 2017 1 3 10 35 5.400000 72.219000 127.344000 22.1000 0.000000 0.000000 0.000000 0.000000 554
SI.627  113.600  1.00 P
SI.627  117.100  1.00 S
SI.628  114.000  1.00 P
SI.628  117.800  1.00 S
SI.629  115.400  1.00 P
SI.629  120.300  1.00 S
SI.630  116.200  1.00 P
SI.630  121.500  1.00 S
SI.624  117.400  1.00 P
SI.624  123.900  1.00 S
# 2017 1 3 12 27 0.600000 73.386000 122.701000 7.6000 0.000000 0.000000 0.000000 0.000000 555
SI.622  148.200  1.00 P
SI.622  165.100  1.00 S
SI.621  150.900  1.00 P
SI.621  169.900  1.00 S
SI.623  151.400  1.00 P
SI.623  170.800  1.00 S
SI.626  157.700  1.00 P
SI.626  182.000  1.00 S
# 2017 1 3 12 30 5.500000 72.565000 128.707000 15.6000 0.000000 0.000000 0.000000 0.000000 556
SI.629  120.100  1.00 P
SI.629  131.100  1.00 S
SI.625  122.300  1.00 P
SI.625  134.700  1.00 S
SI.626  125.500  1.00 P
SI.626  140.100  1.00 S
# 2017 1 3 19 28 1.100000 72.104000 126.359000 34.2000 0.000000 0.000000 0.000000 0.000000 557
SI.626   82.900  1.00 P
SI.626   88.000  1.00 S
SI.624   84.300  1.00 P
SI.624   91.100  1.00 S
SI.621   85.800  1.00 P
SI.621   93.000  1.00 S
# 2017 1 3 19 47 3.900000 72.256000 126.053000 10.2000 0.000000 0.000000 0.000000 0.000000 558
SI.625   97.300  1.00 P
SI.625   99.100  1.00 S
SI.623   97.800  1.00 P
SI.623   99.900  1.00 S
SI.628  101.800  1.00 P
SI.628  107.300  1.00 S
SI.629  104.500  1.00 P
SI.629  112.000  1.00 S
# 2017 1 4 14 33 4.600000 71.857000 127.570000 28.7000 0.000000 0.000000 0.000000 0.000000 559
SI.627  229.400  1.00 P
SI.627  235.000  1.00 S
SI.625  232.900  1.00 P
SI.625  241.400  1.00 S
SI.624  235.900  1.00 P
SI.624  246.400  1.00 S
# 2017 1 4 15 53 0.900000 72.622000 123.514000 15.6000 0.000000 0.000000 0.000000 0.000000 560
SI.628   82.400  1.00 P
SI.628   98.000  1.00 S
# 2017 1 4 16 51 1.300000 72.659000 124.347000 15.6000 0.000000 0.000000 0.000000 0.000000 561
SI.620  140.200  1.00 P
SI.620  140.900  1.00 S
# 2017 1 4 19 23 58.000000 71.853000 127.241000 9.9000 0.000000 0.000000 0.000000 0.000000 562
SI.629   62.200  1.00 P
SI.629   64.000  1.00 S
SI.627   65.500  1.00 P
SI.627   69.500  1.00 S
# 2017 1 4 22 56 0.200000 71.872000 127.414000 13.5000 0.000000 0.000000 0.000000 0.000000 563
SI.629   69.700  1.00 P
SI.629   71.300  1.00 S
SI.627   72.700  1.00 P
SI.627   77.000  1.00 S
SI.625   85.000  1.00 P
SI.625   97.800  1.00 S
# 2017 1 5 1 38 0.300000 72.281000 130.330000 27.4000 0.000000 0.000000 0.000000 0.000000 564
SI.630   77.500  1.00 P
SI.630   87.000  1.00 S
SI.632   80.000  1.00 P
SI.632   91.500  1.00 S
SI.631   87.500  1.00 P
SI.631  104.900  1.00 S
# 2017 1 5 11 15 2.300000 72.266000 124.594000 35.8000 0.000000 0.000000 0.000000 0.000000 565
SI.625  153.000  1.00 P
SI.625  160.500  1.00 S
SI.624  154.100  1.00 P
SI.624  162.600  1.00 S
SI.628  157.500  1.00 P
SI.628  168.800  1.00 S
# 2017 1 5 12 19 4.600000 72.444000 126.945000 59.6000 0.000000 0.000000 0.000000 0.000000 566
SI.628  112.700  1.00 P
SI.628  119.500  1.00 S
SI.623  114.600  1.00 P
SI.623  122.700  1.00 S
SI.626  117.300  1.00 P
SI.626  127.300  1.00 S
# 2017 1 5 15 12 4.300000 72.156000 129.455000 11.9000 0.000000 0.000000 0.000000 0.000000 567
SI.625   62.700  1.00 P
SI.625   77.200  1.00 S
SI.623   64.900  1.00 P
SI.623   80.800  1.00 S
SI.621   69.500  1.00 P
SI.621   88.500  1.00 S
# 2017 1 5 15 18 3.700000 69.527000 131.103000 0.0000 0.000000 0.000000 0.000000 0.000000 568
SI.630   72.000  1.00 P
SI.630  106.900  1.00 S
SI.627   74.500  1.00 P
SI.627  111.300  1.00 S
SI.621   81.100  1.00 P
SI.621  122.600  1.00 S
# 2017 1 5 17 3 4.900000 71.856000 127.050000 2.9000 0.000000 0.000000 0.000000 0.000000 569
SI.629  102.100  1.00 P
SI.629  103.800  1.00 S
SI.627  105.000  1.00 P
SI.627  109.200  1.00 S
SI.630  108.700  1.00 P
SI.630  115.100  1.00 S
# 2017 1 5 18 44 3.800000 72.092000 128.399000 15.6000 0.000000 0.000000 0.000000 0.000000 570
SI.630  214.800  1.00 P
SI.630  216.500  1.00 S
# 2017 1 6 2 1 4.200000 72.788000 127.074000 15.6000 0.000000 0.000000 0.000000 0.000000 571
SI.624  105.600  1.00 P
SI.624  111.500  1.00 S
# 2017 1 6 5 45 5.500000 73.036000 124.145000 4.9000 0.000000 0.000000 0.000000 0.000000 572
SI.620  117.200  1.00 P
SI.620  122.900  1.00 S
SI.627  132.800  1.00 P
SI.627  150.200  1.00 S
SI.626  133.800  1.00 P
SI.626  151.200  1.00 S
# 2017 1 6 5 46 0.300000 72.886000 124.462000 17.6000 0.000000 0.000000 0.000000 0.000000 573
SI.624   73.000  1.00 P
SI.624   82.300  1.00 S
SI.621   73.000  1.00 P
SI.621   83.700  1.00 S
SI.626   80.400  1.00 P
SI.626   96.000  1.00 S
SI.630   85.300  1.00 P
SI.630  104.100  1.00 S
# 2017 1 6 7 8 3.300000 71.930000 127.430000 0.0000 0.000000 0.000000 0.000000 0.000000 574
SI.629  121.500  1.00 P
SI.629  123.200  1.00 S
SI.627  124.900  1.00 P
SI.627  129.100  1.00 S
# 2017 1 6 12 53 5.700000 71.937000 127.506000 0.0000 0.000000 0.000000 0.000000 0.000000 575
SI.629  107.600  1.00 P
SI.629  109.100  1.00 S
SI.627  110.400  1.00 P
SI.627  113.800  1.00 S
SI.625  119.300  1.00 P
SI.625  128.900  1.00 S
# 2017 1 6 14 24 4.700000 72.708000 124.575000 22.7000 0.000000 0.000000 0.000000 0.000000 576
SI.620  109.000  1.00 P
SI.620  112.100  1.00 S
SI.622  112.400  1.00 P
SI.622  118.000  1.00 S
SI.621  115.400  1.00 P
SI.621  123.200  1.00 S
SI.624  115.800  1.00 P
SI.624  124.000  1.00 S
# 2017 1 7 6 37 16.000000 72.508000 126.151000 15.6000 0.000000 0.000000 0.000000 0.000000 577
SI.628   66.500  1.00 P
SI.628   71.300  1.00 S
# 2017 1 7 7 17 0.900000 72.029000 126.856000 12.0000 0.000000 0.000000 0.000000 0.000000 578
SI.627  128.600  1.00 P
SI.627  130.800  1.00 S
SI.625  131.600  1.00 P
SI.625  135.600  1.00 S
SI.624  135.200  1.00 P
SI.624  142.100  1.00 S
SI.621  152.900  1.00 P
SI.621  172.000  1.00 S
# 2017 1 7 7 18 9.000000 72.045000 128.696000 25.3000 0.000000 0.000000 0.000000 0.000000 579
SI.630   64.600  1.00 P
SI.630   68.300  1.00 S
SI.629   69.200  1.00 P
SI.629   76.000  1.00 S
SI.632   69.800  1.00 P
SI.632   77.200  1.00 S
# 2017 1 7 10 25 5.500000 72.017000 127.468000 15.6000 0.000000 0.000000 0.000000 0.000000 580
SI.627  117.100  1.00 P
SI.627  120.400  1.00 S
# 2017 1 7 11 4 2.300000 72.180000 128.237000 6.5000 0.000000 0.000000 0.000000 0.000000 581
SI.630   82.100  1.00 P
SI.630   82.700  1.00 S
SI.627   87.100  1.00 P
SI.627   91.000  1.00 S
# 2017 1 7 13 52 0.300000 73.195000 126.192000 15.6000 0.000000 0.000000 0.000000 0.000000 582
SI.622  143.800  1.00 P
SI.622  155.100  1.00 S
# 2017 1 8 12 3 1.700000 74.788000 137.358000 11.3000 0.000000 0.000000 0.000000 0.000000 583
SI.624  136.300  1.00 P
SI.624  183.000  1.00 S
SI.623  139.600  1.00 P
SI.623  188.600  1.00 S
SI.622  139.800  1.00 P
SI.622  188.900  1.00 S
SI.621  144.700  1.00 P
SI.621  197.400  1.00 S
# 2017 1 8 16 20 3.100000 72.550000 126.606000 24.2000 0.000000 0.000000 0.000000 0.000000 584
SI.624   94.600  1.00 P
SI.624   98.100  1.00 S
SI.628   95.600  1.00 P
SI.628  100.000  1.00 S
SI.622   98.400  1.00 P
SI.622  104.600  1.00 S
SI.621  102.400  1.00 P
SI.621  111.600  1.00 S
# 2017 1 8 19 52 1.700000 71.627000 130.045000 15.6000 0.000000 0.000000 0.000000 0.000000 585
SI.632   81.000  1.00 P
SI.632   86.000  1.00 S
SI.629   92.100  1.00 P
SI.629  104.900  1.00 S
SI.624  100.900  1.00 P
SI.624  118.600  1.00 S
SI.621  105.500  1.00 P
SI.621  127.700  1.00 S
# 2017 1 9 2 15 4.300000 73.391000 134.728000 15.6000 0.000000 0.000000 0.000000 0.000000 586
SI.623   83.000  1.00 P
SI.623  118.000  1.00 S
# 2017 1 9 13 5 0.700000 73.263000 123.260000 11.5000 0.000000 0.000000 0.000000 0.000000 587
SI.620  141.500  1.00 P
SI.620  151.400  1.00 S
SI.624  150.800  1.00 P
SI.624  167.200  1.00 S
SI.621  150.700  1.00 P
SI.621  167.300  1.00 S
SI.623  151.000  1.00 P
SI.623  167.500  1.00 S
SI.626  157.800  1.00 P
SI.626  179.100  1.00 S
# 2017 1 10 6 29 4.300000 72.385000 129.659000 11.6000 0.000000 0.000000 0.000000 0.000000 588
SI.627  119.700  1.00 P
SI.627  132.000  1.00 S
SI.622  128.200  1.00 P
SI.622  146.300  1.00 S
SI.621  130.500  1.00 P
SI.621  150.500  1.00 S
SI.620  132.800  1.00 P
SI.620  154.300  1.00 S
# 2017 1 11 3 38 1.900000 71.890000 128.831000 0.0000 0.000000 0.000000 0.000000 0.000000 589
SI.630   77.700  1.00 P
SI.630   81.200  1.00 S
SI.632   79.500  1.00 P
SI.632   84.200  1.00 S
SI.628   87.200  1.00 P
SI.628   97.200  1.00 S
SI.623   93.000  1.00 P
SI.623  107.200  1.00 S
# 2017 1 11 4 9 4.700000 72.769000 121.081000 8.1000 0.000000 0.000000 0.000000 0.000000 590
SI.620  116.900  1.00 P
SI.620  130.700  1.00 S
SI.621  122.600  1.00 P
SI.621  140.300  1.00 S
SI.623  125.800  1.00 P
SI.623  146.200  1.00 S
SI.624  127.300  1.00 P
SI.624  148.800  1.00 S
# 2017 1 11 5 53 1.700000 72.616000 125.322000 21.7000 0.000000 0.000000 0.000000 0.000000 591
SI.622   82.900  1.00 P
SI.622   86.400  1.00 S
SI.620   84.400  1.00 P
SI.620   89.300  1.00 S
SI.623   89.900  1.00 S
SI.624   89.900  1.00 S
SI.623   84.700  1.00 P
SI.624   84.900  1.00 P
# 2017 1 11 7 26 1.400000 71.895000 128.900000 0.0000 0.000000 0.000000 0.000000 0.000000 592
SI.630   82.700  1.00 P
SI.630   86.200  1.00 S
SI.632   84.600  1.00 P
SI.632   89.100  1.00 S
SI.624   97.800  1.00 P
SI.624  111.400  1.00 S
# 2017 1 11 9 19 33.000000 72.800000 126.003000 23.0000 0.000000 0.000000 0.000000 0.000000 593
SI.624   67.100  1.00 P
SI.624   72.700  1.00 S
SI.622   68.400  1.00 P
SI.622   74.900  1.00 S
SI.620   70.200  1.00 P
SI.620   77.900  1.00 S
SI.626   77.200  1.00 P
SI.626   89.800  1.00 S
