# 2016 10 20 20 21 4.400000 72.591000 124.834000 2.7000 0.000000 0.000000 0.000000 0.000000 141
SI.620  103.200  1.00 P
SI.620  105.600  1.00 S
SI.622  104.000  1.00 P
SI.622  107.300  1.00 S
SI.623  107.500  1.00 P
SI.623  113.100  1.00 S
SI.624  108.700  1.00 P
SI.624  115.100  1.00 S
# 2016 10 20 20 36 4.300000 72.569000 124.774000 6.6000 0.000000 0.000000 0.000000 0.000000 142
SI.620   99.100  1.00 P
SI.620  101.600  1.00 S
SI.622   99.900  1.00 P
SI.622  103.200  1.00 S
SI.623  103.400  1.00 P
SI.623  109.000  1.00 S
SI.621  103.300  1.00 P
SI.621  108.800  1.00 S
SI.624  104.700  1.00 P
SI.624  111.100  1.00 S
# 2016 10 20 21 34 0.900000 72.067000 127.014000 13.3000 0.000000 0.000000 0.000000 0.000000 143
SI.627  128.400  1.00 P
SI.627  130.200  1.00 S
SI.629  129.700  1.00 P
SI.629  132.700  1.00 S
SI.625  131.900  1.00 P
SI.625  136.400  1.00 S
# 2016 10 20 23 26 2.400000 72.575000 124.786000 5.5000 0.000000 0.000000 0.000000 0.000000 144
SI.620   88.100  1.00 P
SI.620   90.600  1.00 S
SI.622   88.900  1.00 P
SI.622   92.200  1.00 S
SI.623   92.300  1.00 P
SI.623   98.000  1.00 S
SI.624   93.700  1.00 P
SI.624  100.100  1.00 S
# 2016 10 20 23 26 2.900000 72.573000 124.784000 7.5000 0.000000 0.000000 0.000000 0.000000 145
SI.620  142.100  1.00 P
SI.620  144.700  1.00 S
SI.622  143.000  1.00 P
SI.622  146.300  1.00 S
SI.623  146.300  1.00 P
SI.623  152.000  1.00 S
SI.624  147.800  1.00 P
SI.624  154.100  1.00 S
# 2016 10 21 2 14 1.500000 72.583000 124.821000 1.9000 0.000000 0.000000 0.000000 0.000000 146
SI.620  134.100  1.00 P
SI.620  136.600  1.00 S
SI.622  134.900  1.00 P
SI.622  138.200  1.00 S
SI.623  138.400  1.00 P
SI.623  144.100  1.00 S
SI.624  139.700  1.00 P
SI.624  146.200  1.00 S
# 2016 10 21 5 6 3.300000 72.575000 124.782000 10.1000 0.000000 0.000000 0.000000 0.000000 147
SI.620   93.300  1.00 P
SI.620   95.900  1.00 S
SI.622   94.100  1.00 P
SI.622   97.500  1.00 S
SI.623   97.500  1.00 P
SI.623  103.300  1.00 S
SI.621   97.500  1.00 P
SI.621  103.100  1.00 S
SI.624   98.900  1.00 P
SI.624  105.400  1.00 S
SI.628  103.500  1.00 P
SI.628  113.500  1.00 S
# 2016 10 21 5 8 3.100000 72.568000 124.774000 5.9000 0.000000 0.000000 0.000000 0.000000 148
SI.620   95.100  1.00 P
SI.620   97.600  1.00 S
SI.622   95.900  1.00 P
SI.622   99.100  1.00 S
SI.623   99.300  1.00 P
SI.623  104.900  1.00 S
SI.623  104.900  1.00 S
SI.621   99.300  1.00 P
SI.621  104.800  1.00 S
SI.624  100.700  1.00 P
SI.624  107.100  1.00 S
# 2016 10 21 5 8 4.200000 72.566000 124.742000 8.3000 0.000000 0.000000 0.000000 0.000000 149
SI.620  168.000  1.00 P
SI.620  170.500  1.00 S
SI.623  172.300  1.00 P
SI.623  178.000  1.00 S
SI.624  174.000  1.00 P
SI.624  180.400  1.00 S
# 2016 10 21 5 9 3.100000 72.575000 124.805000 2.7000 0.000000 0.000000 0.000000 0.000000 150
SI.620   37.600  1.00 S
SI.622   39.100  1.00 S
SI.623   44.900  1.00 S
SI.628   56.100  1.00 S
# 2016 10 21 20 22 0.400000 72.069000 127.076000 11.3000 0.000000 0.000000 0.000000 0.000000 151
SI.627  127.800  1.00 S
SI.629  127.200  1.00 P
SI.628  135.400  1.00 S
SI.624  139.700  1.00 S
# 2016 10 22 10 18 29.000000 69.757000 129.272000 15.6000 0.000000 0.000000 0.000000 0.000000 152
SI.631  114.100  1.00 S
SI.632  115.300  1.00 S
SI.625  137.600  1.00 S
SI.623  143.200  1.00 S
# 2016 10 22 17 54 1.200000 73.184000 123.265000 11.9000 0.000000 0.000000 0.000000 0.000000 153
SI.620  152.100  1.00 S
SI.621  170.600  1.00 S
SI.624  170.200  1.00 S
SI.626  180.800  1.00 S
# 2016 10 25 14 56 4.700000 72.733000 124.900000 5.9000 0.000000 0.000000 0.000000 0.000000 154
SI.620  110.500  1.00 S
SI.622  114.500  1.00 S
SI.624  119.900  1.00 S
SI.628  128.200  1.00 S
# 2016 10 25 21 44 1.100000 72.698000 124.862000 5.8000 0.000000 0.000000 0.000000 0.000000 155
SI.620  137.700  1.00 S
SI.622  141.900  1.00 S
SI.624  147.500  1.00 S
SI.628  155.800  1.00 S
# 2016 10 26 0 47 1.600000 72.558000 125.888000 19.3000 0.000000 0.000000 0.000000 0.000000 156
SI.624  144.400  1.00 S
SI.622  145.600  1.00 S
SI.623  146.500  1.00 S
SI.628  151.100  1.00 S
# 2016 10 26 7 6 5.300000 72.300000 129.185000 0.0000 0.000000 0.000000 0.000000 0.000000 157
SI.630  121.100  1.00 S
SI.628  129.900  1.00 S
SI.632  133.600  1.00 S
# 2016 10 26 12 7 5.300000 72.714000 124.876000 4.9000 0.000000 0.000000 0.000000 0.000000 158
SI.620  118.000  1.00 S
SI.622  122.100  1.00 S
SI.624  121.000  1.00 P
SI.624  127.700  1.00 S
SI.628  136.200  1.00 S
# 2016 10 26 17 4 4.800000 72.712000 124.854000 5.1000 0.000000 0.000000 0.000000 0.000000 159
SI.620  104.600  1.00 S
SI.622  109.400  1.00 S
SI.623  114.600  1.00 S
SI.624  114.600  1.00 S
# 2016 10 26 19 19 3.700000 72.515000 126.490000 0.6000 0.000000 0.000000 0.000000 0.000000 160
SI.624   96.600  1.00 S
SI.625  106.700  1.00 S
SI.627  108.300  1.00 S
SI.631  131.300  1.00 S
# 2016 10 27 16 2 2.700000 72.711000 124.857000 6.1000 0.000000 0.000000 0.000000 0.000000 161
SI.620   91.700  1.00 S
SI.622   96.100  1.00 S
SI.624  101.500  1.00 S
SI.628  110.200  1.00 S
# 2016 10 27 23 12 3.900000 72.729000 124.869000 5.4000 0.000000 0.000000 0.000000 0.000000 162
SI.620  154.200  1.00 S
SI.622  158.500  1.00 S
SI.624  163.800  1.00 S
SI.630  187.700  1.00 S
# 2016 10 27 23 14 3.100000 72.707000 124.883000 4.9000 0.000000 0.000000 0.000000 0.000000 163
SI.620   35.000  1.00 S
SI.624   44.500  1.00 S
SI.621   46.100  1.00 S
SI.630   68.200  1.00 S
# 2016 10 27 23 23 4.200000 72.707000 124.865000 3.9000 0.000000 0.000000 0.000000 0.000000 164
SI.620  106.800  1.00 S
SI.622  111.100  1.00 S
SI.624  116.700  1.00 S
# 2016 10 28 4 17 5.400000 72.449000 125.628000 17.7000 0.000000 0.000000 0.000000 0.000000 165
SI.622  114.800  1.00 S
SI.623  115.800  1.00 S
SI.628  124.600  1.00 S
SI.631  145.900  1.00 S
# 2016 10 28 7 31 1.200000 72.707000 124.895000 1.4000 0.000000 0.000000 0.000000 0.000000 166
SI.620  137.100  1.00 S
SI.622  141.300  1.00 S
SI.624  146.900  1.00 S
SI.621  148.400  1.00 S
# 2016 10 28 14 40 2.800000 72.201000 126.362000 5.1000 0.000000 0.000000 0.000000 0.000000 167
SI.625   88.500  1.00 S
SI.623   92.900  1.00 S
SI.628   96.100  1.00 S
SI.626   96.500  1.00 S
# 2016 10 29 8 30 5.900000 72.045000 127.682000 6.1000 0.000000 0.000000 0.000000 0.000000 168
SI.629  113.200  1.00 P
SI.627  117.500  1.00 S
SI.627  118.100  1.00 S
SI.625  126.700  1.00 S
SI.631  131.300  1.00 S
# 2016 10 29 19 27 4.500000 72.551000 124.393000 15.6000 0.000000 0.000000 0.000000 0.000000 169
SI.620  105.600  1.00 S
# 2016 10 30 7 57 0.000000 72.654000 124.355000 39.5000 0.000000 0.000000 0.000000 0.000000 170
SI.620  131.500  1.00 S
SI.622  135.600  1.00 S
SI.628  149.500  1.00 S
# 2016 10 30 13 21 3.800000 72.548000 126.543000 2.0000 0.000000 0.000000 0.000000 0.000000 171
SI.624   97.800  1.00 S
SI.628  102.300  1.00 S
SI.626  116.100  1.00 S
SI.631  132.700  1.00 S
# 2016 10 30 20 43 3.600000 72.801000 123.660000 2.9000 0.000000 0.000000 0.000000 0.000000 172
SI.620   98.000  1.00 S
SI.623  115.100  1.00 S
SI.628  125.200  1.00 S
SI.626  126.300  1.00 S
# 2016 10 31 8 9 4.800000 72.266000 126.659000 15.6000 0.000000 0.000000 0.000000 0.000000 173
SI.627  110.100  1.00 S
SI.625  110.900  1.00 S
SI.623  113.100  1.00 S
SI.629  116.800  1.00 S
SI.631  131.300  1.00 S
# 2016 10 31 8 33 5.600000 72.016000 127.445000 17.1000 0.000000 0.000000 0.000000 0.000000 174
SI.629  119.800  1.00 S
SI.630  124.200  1.00 S
SI.628  127.800  1.00 S
SI.626  129.700  1.00 S
# 2016 10 31 12 17 28.000000 72.046000 127.478000 4.5000 0.000000 0.000000 0.000000 0.000000 175
SI.629   64.700  1.00 S
SI.627   66.100  1.00 S
SI.630   68.900  1.00 S
SI.628   72.100  1.00 S
# 2016 11 1 9 4 4.900000 72.725000 124.767000 18.8000 0.000000 0.000000 0.000000 0.000000 176
SI.620  100.200  1.00 P
SI.620  103.100  1.00 S
SI.622  102.400  1.00 P
SI.622  108.000  1.00 S
SI.624  106.000  1.00 P
SI.624  113.300  1.00 S
SI.628  110.600  1.00 P
SI.628  122.000  1.00 S
# 2016 11 1 15 35 2.800000 72.023000 127.439000 14.2000 0.000000 0.000000 0.000000 0.000000 177
SI.629   88.900  1.00 P
SI.629   91.400  1.00 S
SI.627   89.900  1.00 P
SI.627   92.900  1.00 S
SI.630   91.700  1.00 P
SI.630   95.900  1.00 S
# 2016 11 2 8 44 0.600000 73.045000 122.065000 18.5000 0.000000 0.000000 0.000000 0.000000 178
SI.620  135.400  1.00 P
SI.620  146.700  1.00 S
SI.621  143.100  1.00 P
SI.621  159.300  1.00 S
SI.623  144.500  1.00 P
SI.623  162.400  1.00 S
SI.625  147.100  1.00 P
SI.625  167.100  1.00 S
# 2016 11 2 13 42 3.900000 72.605000 124.579000 18.6000 0.000000 0.000000 0.000000 0.000000 179
SI.620   92.500  1.00 P
SI.620   95.000  1.00 S
SI.621   97.600  1.00 P
SI.621  103.900  1.00 S
SI.624   99.200  1.00 P
SI.624  107.000  1.00 S
SI.628  103.700  1.00 P
SI.628  115.200  1.00 S
# 2016 11 2 16 27 5.100000 71.902000 128.871000 0.0000 0.000000 0.000000 0.000000 0.000000 180
SI.630  112.600  1.00 P
SI.630  116.300  1.00 S
SI.632  114.400  1.00 P
SI.632  119.800  1.00 S
SI.628  122.400  1.00 P
SI.628  132.500  1.00 S
# 2016 11 2 21 0 3.400000 72.330000 126.725000 21.9000 0.000000 0.000000 0.000000 0.000000 181
SI.628   37.300  1.00 P
SI.628   40.800  1.00 S
SI.624   38.100  1.00 P
SI.624   42.000  1.00 S
SI.627   38.400  1.00 P
SI.627   42.700  1.00 S
SI.623   39.500  1.00 P
SI.623   44.300  1.00 S
# 2016 11 2 23 41 3.400000 70.303000 131.251000 0.0000 0.000000 0.000000 0.000000 0.000000 182
SI.632  113.600  1.00 P
SI.632  134.400  1.00 S
SI.631  118.400  1.00 P
SI.631  141.400  1.00 S
SI.629  151.600  1.00 S
SI.627  159.400  1.00 S
SI.625  133.500  1.00 P
SI.625  166.300  1.00 S
SI.622  138.500  1.00 P
SI.622  175.400  1.00 S
# 2016 11 4 5 53 32.000000 72.651000 124.742000 18.4000 0.000000 0.000000 0.000000 0.000000 183
SI.620   63.600  1.00 P
SI.620   66.700  1.00 S
SI.622   66.200  1.00 P
SI.622   70.000  1.00 S
SI.624   69.400  1.00 P
SI.624   77.000  1.00 S
SI.628   74.200  1.00 P
SI.628   85.000  1.00 S
# 2016 11 5 5 55 4.400000 72.286000 130.175000 37.2000 0.000000 0.000000 0.000000 0.000000 184
SI.632  116.600  1.00 P
SI.632  127.900  1.00 S
SI.622  127.000  1.00 P
SI.622  147.300  1.00 S
SI.621  129.400  1.00 P
SI.621  149.000  1.00 S
SI.620  131.700  1.00 P
SI.620  152.600  1.00 S
# 2016 11 5 6 10 5.700000 72.296000 129.702000 16.2000 0.000000 0.000000 0.000000 0.000000 185
SI.632   59.700  1.00 P
SI.632   70.700  1.00 S
SI.624   65.700  1.00 P
SI.624   80.000  1.00 S
SI.621   72.500  1.00 P
SI.621   92.100  1.00 S
SI.620   74.800  1.00 P
SI.620   96.200  1.00 S
# 2016 11 5 6 25 2.400000 72.288000 129.718000 17.1000 0.000000 0.000000 0.000000 0.000000 186
SI.632  100.800  1.00 P
SI.632  111.400  1.00 S
SI.628  101.600  1.00 P
SI.628  112.900  1.00 S
SI.621  113.600  1.00 P
SI.621  133.100  1.00 S
SI.620  115.800  1.00 P
SI.620  137.200  1.00 S
# 2016 11 5 6 28 0.400000 72.288000 129.905000 15.7000 0.000000 0.000000 0.000000 0.000000 187
SI.632   80.300  1.00 P
SI.632   90.900  1.00 S
SI.628   81.700  1.00 P
SI.628   93.600  1.00 S
SI.621   93.100  1.00 P
SI.621  113.800  1.00 S
SI.620   95.300  1.00 P
SI.620  118.700  1.00 S
# 2016 11 5 6 41 2.800000 72.315000 129.853000 17.4000 0.000000 0.000000 0.000000 0.000000 188
SI.632   96.400  1.00 P
SI.632  107.500  1.00 S
SI.628   97.600  1.00 P
SI.628  109.000  1.00 S
SI.626  105.200  1.00 P
SI.626  122.200  1.00 S
SI.620  111.200  1.00 P
SI.620  132.200  1.00 S
# 2016 11 5 6 52 5.900000 72.311000 129.615000 19.1000 0.000000 0.000000 0.000000 0.000000 189
SI.628  123.000  1.00 P
SI.628  133.900  1.00 S
SI.631  130.500  1.00 P
SI.631  146.200  1.00 S
SI.621  134.600  1.00 P
SI.621  153.900  1.00 S
SI.620  136.700  1.00 P
SI.620  158.500  1.00 S
# 2016 11 5 7 43 3.300000 72.276000 129.550000 16.5000 0.000000 0.000000 0.000000 0.000000 190
SI.628  101.500  1.00 P
SI.628  112.400  1.00 S
SI.631  109.000  1.00 P
SI.631  124.500  1.00 S
SI.626  109.400  1.00 P
SI.626  125.300  1.00 S
SI.621  113.500  1.00 P
SI.621  132.500  1.00 S
# 2016 11 5 7 47 5.200000 72.383000 129.679000 19.4000 0.000000 0.000000 0.000000 0.000000 191
SI.624   64.900  1.00 P
SI.624   79.700  1.00 S
SI.626   68.200  1.00 P
SI.626   84.600  1.00 S
SI.621   71.900  1.00 P
SI.621   91.300  1.00 S
SI.620   74.000  1.00 P
SI.620   95.600  1.00 S
# 2016 11 5 8 0 2.700000 72.311000 129.530000 18.7000 0.000000 0.000000 0.000000 0.000000 192
SI.624   39.400  1.00 P
SI.624   53.500  1.00 S
SI.631   42.200  1.00 P
SI.631   57.800  1.00 S
SI.621   46.200  1.00 P
SI.621   65.700  1.00 S
SI.620   48.400  1.00 P
SI.620   69.600  1.00 S
# 2016 11 5 8 2 3.800000 72.324000 129.632000 21.7000 0.000000 0.000000 0.000000 0.000000 193
SI.628  105.200  1.00 P
SI.628  116.200  1.00 S
SI.631  112.300  1.00 P
SI.631  128.200  1.00 S
SI.621  116.600  1.00 P
SI.621  136.200  1.00 S
SI.620  118.900  1.00 P
SI.620  139.500  1.00 S
# 2016 11 5 8 4 1.100000 72.274000 129.539000 22.2000 0.000000 0.000000 0.000000 0.000000 194
SI.632   91.800  1.00 P
SI.632  101.700  1.00 S
SI.628   91.700  1.00 P
SI.628  102.600  1.00 S
SI.627   92.900  1.00 P
SI.627  104.500  1.00 S
SI.624   96.500  1.00 P
SI.624  110.500  1.00 S
# 2016 11 5 8 43 3.500000 72.282000 129.581000 0.0000 0.000000 0.000000 0.000000 0.000000 195
SI.630  101.200  1.00 P
SI.630  107.400  1.00 S
SI.630  109.100  1.00 S
SI.628  107.300  1.00 P
SI.628  118.300  1.00 S
SI.624  112.000  1.00 P
SI.624  126.300  1.00 S
SI.631  115.000  1.00 P
SI.631  130.300  1.00 S
# 2016 11 5 9 9 3.500000 72.293000 129.692000 17.2000 0.000000 0.000000 0.000000 0.000000 196
SI.632  105.700  1.00 P
SI.632  116.600  1.00 S
SI.628  106.500  1.00 P
SI.628  117.700  1.00 S
SI.631  113.900  1.00 P
SI.631  129.600  1.00 S
SI.621  118.000  1.00 P
SI.621  137.600  1.00 S
# 2016 11 5 10 31 45.000000 72.286000 129.635000 18.4000 0.000000 0.000000 0.000000 0.000000 197
SI.628   74.200  1.00 P
SI.628   85.200  1.00 S
SI.631   81.400  1.00 P
SI.631   97.000  1.00 S
SI.621   85.700  1.00 P
SI.621  105.100  1.00 S
SI.620   87.900  1.00 P
SI.620  110.300  1.00 S
# 2016 11 5 11 54 4.300000 72.298000 129.754000 5.0000 0.000000 0.000000 0.000000 0.000000 198
SI.632   56.100  1.00 P
SI.632   66.000  1.00 S
SI.629   57.400  1.00 P
SI.629   69.300  1.00 S
SI.624   61.000  1.00 P
SI.624   75.200  1.00 S
SI.631   63.800  1.00 P
SI.631   79.400  1.00 S
# 2016 11 5 11 56 37.000000 72.315000 129.673000 19.0000 0.000000 0.000000 0.000000 0.000000 199
SI.628   74.400  1.00 P
SI.628   85.400  1.00 S
SI.631   81.600  1.00 P
SI.631   97.800  1.00 S
SI.621   85.800  1.00 P
SI.621  105.100  1.00 S
SI.620   88.000  1.00 P
SI.620  110.300  1.00 S
# 2016 11 5 14 1 0.800000 72.309000 129.840000 5.1000 0.000000 0.000000 0.000000 0.000000 200
SI.630   74.200  1.00 P
SI.630   82.300  1.00 S
SI.632   79.500  1.00 P
SI.632   89.900  1.00 S
SI.628   80.300  1.00 P
SI.628   91.100  1.00 S
SI.627   81.900  1.00 P
SI.627   94.300  1.00 S
SI.624   85.000  1.00 P
SI.624  100.400  1.00 S
# 2016 11 5 16 14 1.300000 71.925000 130.716000 7.8000 0.000000 0.000000 0.000000 0.000000 201
SI.632   86.900  1.00 P
SI.632   95.200  1.00 S
SI.628   95.700  1.00 P
SI.628  114.100  1.00 S
SI.626  103.000  1.00 P
SI.626  121.300  1.00 S
SI.621  105.900  1.00 P
SI.621  131.600  1.00 S
# 2016 11 5 19 6 4.200000 72.282000 129.523000 0.0000 0.000000 0.000000 0.000000 0.000000 202
SI.630  104.600  1.00 P
SI.630  111.600  1.00 S
SI.632  110.800  1.00 P
SI.632  121.300  1.00 S
SI.628  111.300  1.00 P
SI.628  121.900  1.00 S
SI.624  115.500  1.00 P
SI.624  129.600  1.00 S
# 2016 11 6 9 35 13.000000 72.225000 126.842000 10.5000 0.000000 0.000000 0.000000 0.000000 203
SI.627  123.000  1.00 P
SI.627  124.900  1.00 S
SI.628  123.800  1.00 P
SI.628  127.400  1.00 S
SI.625  124.800  1.00 P
SI.625  128.100  1.00 S
SI.624  126.000  1.00 P
SI.624  130.500  1.00 S
# 2016 11 6 16 3 4.200000 72.310000 129.063000 12.7000 0.000000 0.000000 0.000000 0.000000 204
SI.630   48.200  1.00 P
SI.630   53.300  1.00 S
SI.628   53.300  1.00 P
SI.628   61.800  1.00 S
SI.627   54.400  1.00 P
SI.627   64.100  1.00 S
SI.624   58.000  1.00 P
SI.624   69.100  1.00 S
# 2016 11 6 22 51 2.600000 72.297000 129.810000 16.2000 0.000000 0.000000 0.000000 0.000000 205
SI.630   92.100  1.00 P
SI.630   99.600  1.00 S
SI.630  100.600  1.00 S
SI.624  102.800  1.00 P
SI.624  118.400  1.00 S
SI.631  105.700  1.00 P
SI.631  121.300  1.00 S
SI.621  110.000  1.00 P
SI.621  129.200  1.00 S
# 2016 11 7 5 19 1.700000 72.819000 126.128000 0.1000 0.000000 0.000000 0.000000 0.000000 206
SI.624  135.500  1.00 P
SI.624  141.000  1.00 S
SI.622  137.800  1.00 P
SI.622  144.800  1.00 S
SI.628  138.500  1.00 P
SI.628  146.300  1.00 S
SI.630  148.500  1.00 P
SI.630  162.900  1.00 S
# 2016 11 7 10 22 41.000000 72.301000 127.209000 12.3000 0.000000 0.000000 0.000000 0.000000 207
SI.628   62.700  1.00 P
SI.628   65.000  1.00 S
SI.627   64.100  1.00 P
SI.627   67.500  1.00 S
SI.624   66.500  1.00 P
SI.624   71.400  1.00 S
SI.630   68.100  1.00 P
SI.630   73.700  1.00 S
# 2016 11 7 15 14 4.100000 72.586000 126.477000 1.3000 0.000000 0.000000 0.000000 0.000000 208
SI.624   98.700  1.00 P
SI.624  100.500  1.00 S
SI.628  101.600  1.00 P
SI.628  105.400  1.00 S
SI.623  102.200  1.00 P
SI.623  107.700  1.00 S
SI.622  103.400  1.00 P
SI.622  109.100  1.00 S
# 2016 11 7 22 4 1.700000 72.317000 126.521000 12.6000 0.000000 0.000000 0.000000 0.000000 209
SI.624  138.900  1.00 P
SI.624  142.100  1.00 S
SI.625  140.300  1.00 P
SI.625  141.900  1.00 S
SI.628  138.900  1.00 P
SI.628  142.700  1.00 S
SI.623  139.300  1.00 P
SI.623  143.200  1.00 S
# 2016 11 7 23 18 5.800000 72.009000 130.834000 22.4000 0.000000 0.000000 0.000000 0.000000 210
SI.632   59.700  1.00 P
SI.632   69.200  1.00 S
SI.630   60.200  1.00 P
SI.630   72.000  1.00 S
SI.628   67.100  1.00 P
SI.628   83.200  1.00 S
SI.624   71.700  1.00 P
SI.624   91.200  1.00 S
# 2016 11 7 23 47 1.400000 72.049000 130.880000 18.7000 0.000000 0.000000 0.000000 0.000000 211
SI.632   85.700  1.00 P
SI.632   96.200  1.00 S
SI.630   86.400  1.00 P
SI.630   98.300  1.00 S
SI.624   97.900  1.00 P
SI.624  116.300  1.00 S
SI.626   99.600  1.00 P
SI.626  118.900  1.00 S
# 2016 11 8 11 12 5.200000 72.307000 126.869000 10.9000 0.000000 0.000000 0.000000 0.000000 212
SI.628  114.900  1.00 P
SI.628  117.200  1.00 S
SI.627  116.000  1.00 P
SI.627  119.300  1.00 S
SI.624  117.000  1.00 P
SI.624  120.900  1.00 S
SI.625  117.300  1.00 P
SI.625  121.200  1.00 S
# 2016 11 8 12 55 4.700000 72.073000 128.951000 15.5000 0.000000 0.000000 0.000000 0.000000 213
SI.631  113.000  1.00 P
SI.631  125.100  1.00 S
SI.624  113.800  1.00 P
SI.624  126.500  1.00 S
SI.621  119.200  1.00 P
SI.621  136.900  1.00 S
SI.620  124.100  1.00 P
SI.620  144.600  1.00 S
# 2016 11 8 17 5 2.500000 72.193000 126.830000 16.3000 0.000000 0.000000 0.000000 0.000000 214
SI.627  147.200  1.00 P
SI.627  149.500  1.00 S
SI.628  148.800  1.00 P
SI.628  152.800  1.00 S
SI.624  150.600  1.00 P
SI.624  155.800  1.00 S
SI.623  151.100  1.00 P
SI.623  156.200  1.00 S
# 2016 11 9 4 18 5.800000 72.883000 124.826000 21.6000 0.000000 0.000000 0.000000 0.000000 215
SI.620  114.900  1.00 P
SI.620  119.800  1.00 S
SI.624  120.500  1.00 P
SI.624  129.000  1.00 S
SI.621  122.300  1.00 P
SI.621  132.300  1.00 S
SI.626  128.400  1.00 P
SI.626  143.000  1.00 S
# 2016 11 9 4 22 0.200000 72.897000 124.932000 0.0000 0.000000 0.000000 0.000000 0.000000 216
SI.620  131.300  1.00 P
SI.620  135.100  1.00 S
SI.622  133.900  1.00 P
SI.622  141.300  1.00 S
SI.624  135.700  1.00 P
SI.624  144.900  1.00 S
SI.621  139.000  1.00 P
SI.621  149.000  1.00 S
# 2016 11 9 5 42 5.300000 71.840000 129.705000 31.7000 0.000000 0.000000 0.000000 0.000000 217
SI.632   56.300  1.00 P
SI.632   61.300  1.00 S
SI.630   57.800  1.00 P
SI.630   65.800  1.00 S
SI.628   64.800  1.00 P
SI.628   78.200  1.00 S
SI.624   69.200  1.00 P
SI.624   85.800  1.00 S
