 2017  414 0459 19.4 L  72.277 127.411 17.9  BER  7 0.2 0.4LBER 0.5CBER        1
 GAP=158        0.58       1.7     5.6  3.0  0.2848E+01  0.1017E+01  0.2016E+01E
 ACTION:UP  20-12-23 23:35 OP:elen STATUS:               ID:20170414045811     I
 OLDACT:REG 20-12-21 23:05 OP:elen STATUS:               ID:20170414045811     3
 2017-04-14-0458-11M.NSN___039                                                 6
 STAT SP IPHASW D HRMM SECON CODA AMPLIT PERI AZIMU VELO AIN AR TRES W  DIS CAZ7
 628  0Z IP        459 23.05   21                        137   -0.2310 16.4 327 
 628  0N ES        459 26.28                             137    0.1910 16.4 327 
 628  0N  IAML     459 26.45        23.3 0.08                          16.4 327 
 627  0Z IP        459 23.80   19                        127   -0.2510 23.1 220 
 627  0N ES        459 27.53                             127    0.1110 23.1 220 
 627  0N  IAML     459 28.15         7.8 0.21                          23.1 220 
 630  0Z IP        459 26.00   20                        114   -0.13 9 38.5 125 
 630  0N ES        459 31.33                             114    0.30 9 38.5 125 
 630  0E  IAML     459 31.56         2.7 0.16                          38.5 125 
 629  0Z IP        459 25.93   20                        113   -0.27 9 38.9 185 
 629  0N ES        459 31.21                             113    0.07 9 38.9 185 
 629  0N  IAML     459 31.83         2.1 0.37                          38.9 185 
 626  0Z IP        459 29.62   24                        104   -0.34 8 64.1 228 
 626  0E ES        459 37.59                             104   -0.07 8 64.1 228 
 626  0N  IAML     459 37.71         1.9 0.21                          64.1 228 
 622  0Z IP        459 31.28   26                        101   -0.06 8 73.4 286 
 622  0E ES        459 40.52                             101    0.47 8 73.4 286 
 622  0E  IAML     459 41.08         1.3 0.14                          73.4 286 
 631  0Z IP        459 35.11                              70   -0.02 7 98.1 183 
 631  0N ES        459 47.07                              70    0.47 7 98.1 183 
 631  0E  IAML     459 47.29         3.2 0.19                          98.1 183 
                                                                                
 2017  414 0540  3.6 L  73.878 132.357 43.6  BER 11 0.6 2.0LBER 2.5CBER        1
 GAP=329        0.26      44.6   109.0999.9  0.3068E+04 -0.4822E+06 -0.2188E+06E
 ACTION:UP  20-12-24 18:59 OP:elen STATUS:               ID:20170414053940     I
 OLDACT:REG 20-12-21 23:33 OP:elen STATUS:               ID:20170414053940     3
 2017-04-14-0539-40M.NSN___039                                                 6
 STAT SP IPHASW D HRMM SECON CODA AMPLIT PERI AZIMU VELO AIN AR TRES W  DIS CAZ7
 628  0Z IP        540 34.87   88                         91   -0.1110  236 228 
 628  0N ES        540 57.66                              91   -0.2110  236 228 
 628  0N  IAML     540 58.24         6.9 0.27                           236 228 
 630  0Z IP        540 35.41   91                         91   -0.11 9  240 215 
 630  0N ES        540 58.60                              91   -0.19 9  240 215 
 630  0N  IAML     541  0.59         3.0 0.11                           240 215 
 624  0Z IP        540 36.44   98                         90   -0.33 8  251 234 
 624  0N ES        541  0.38                              90   -0.58 8  251 234 
 624  0E  IAML     541  1.18         7.7 0.19                           251 234 
 627  0Z IP        540 38.90   91                         90    0.69 6  263 224 
 627  0N ES        541  4.62                              90    1.17 6  263 224 
 627  0N  IAML     541  5.38         6.7 0.37                           263 224 
 623  0Z IP        540 40.19   93                         90    0.59 4  275 234 
 623  0N ES        541  6.86                              90    1.00 4  275 234 
 623  0E  IAML     541  8.55         3.7 0.25                           275 234 
 622  0Z IP        540 40.14   93                         90    0.17 3  278 238 
 622  0N ES        541  6.77                              90    0.27 3  278 238 
 622  0N  IAML     541  8.06        12.3 0.28                           278 238 
 625  0Z IP        540 40.79   96                         90    0.80 3  278 230 
 625  0N ES        541  7.91                              90    1.38 3  278 230 
 625  0E  IAML     541  9.84         7.7 0.41                           278 230 
 620  0Z IP        540 41.34   93                         90   -0.15 1  291 246 
 620  0N ES        541  8.87                              90   -0.25 1  291 246 
 620  0N  IAML     541 11.79         3.1 0.13                           291 246 
 626  0Z IP        540 44.61   86                         90    1.60 0  304 226 
 626  0N ES        541 14.54                              90    2.79 0  304 226 
 626  0E  IAML     541 17.62         6.2 0.17                           304 226 
 621  0Z IP        540 44.45  105                         90    0.97 0  308 236 
 621  0N ES        541 14.19                              90    1.62 0  308 236 
 621  0E  IAML     541 17.49         7.3 0.19                           308 236 
 631  0Z IP        540 47.86   87                         90    2.43 0  325 214 
 631  0E ES        541 20.16                              90    4.22 0  325 214 
 631  0N  IAML     541 22.92        34.6 0.39                           325 214 
                                                                                
 2017  416 0523 42.7 L  71.953 127.095 16.4  BER 13 0.4 1.5LBER 2.5CBER        1
 GAP= 84        0.78       1.6     4.9  3.1  0.2820E+01  0.4170E+01  0.1002E+00E
 ACTION:UP  20-12-26 19:23 OP:elen STATUS:               ID:20170416052232     I
 OLDACT:REG 20-12-24 20:31 OP:elen STATUS:               ID:20170416052232     3
 2017-04-16-0522-32M.NSN___039                                                 6
 STAT SP IPHASW D HRMM SECON CODA AMPLIT PERI AZIMU VELO AIN AR TRES W  DIS CAZ7
 629  0Z IP        523 45.45   82                        154   -0.1810 8.01 109 
 629  0N ES        523 48.09                             154    0.3410 8.01 109 
 629  0N  IAML     523 48.18       179.5 0.06                          8.01 109 
 627  0Z IP        523 46.35   83                        130   -0.3310 18.7 348 
 627  0N ES        523 49.70                             130    0.1310 18.7 348 
 627  0E  IAML     523 49.90       231.5 0.18                          18.7 348 
 626  0Z IP        523 48.77   80                        112   -0.45 9 37.4 259 
 626  0N ES        523 53.87                             112   -0.10 9 37.4 259 
 626  0N  IAML     523 53.97        63.4 0.13                          37.4 259 
 625  0Z IP        523 49.48   82                        110   -0.38 9 42.0 306 
 625  0N ES        523 55.09                             110    0.02 9 42.0 306 
 625  0N  IAML     523 55.32        56.1 0.21                          42.0 306 
 630  0Z IP        523 49.98   86                        108   -0.26 9 44.5  72 
 630  0N ES        523 55.91                             108    0.18 9 44.5  72 
 630  0E  IAML     523 56.36        36.3 0.12                          44.5  72 
 628  0Z IP        523 50.46   78                        106   -0.58 9 49.9   2 
 628  0N ES        523 56.76                             106   -0.36 9 49.9   2 
 628  0E  IAML     523 57.87        59.4 0.22                          49.9   2 
 623  0Z IP        523 52.70   88                        103   -0.14 8 61.8 313 
 623  0N ES        524  0.64                             103    0.41 8 61.8 313 
 623  0E  IAML     524  0.98        12.3 0.17                          61.8 313 
 631  0Z IP        523 52.69   91                        103   -0.19 8 62.0 175 
 631  0N ES        524  0.61                             103    0.31 8 62.0 175 
 631  0E  IAML     524  0.91       108.1 0.18                          62.0 175 
 624  0Z IP        523 53.19   87                        102   -0.10 8 64.7 335 
 624  0N ES        524  1.53                             102    0.53 8 64.7 335 
 624  0E  IAML     524  3.80        21.0 0.28                          64.7 335 
 621  0Z IP        523 55.38   86                         99   -0.29 8 80.1 290 
 621  0N ES        524  5.30                              99    0.18 8 80.1 290 
 621  0N  IAML     524 10.84        11.6 0.16                          80.1 290 
 632  0Z IP        523 55.75   95                         99   -0.04 7 81.0 121 
 632  0N ES        524  5.91                              99    0.58 7 81.0 121 
 632  0E  IAML     524  8.88        12.0 0.12                          81.0 121 
 622  0Z IP        523 55.88   87                         98   -0.01 7 81.7 313 
 622  0E ES        524  6.15                              98    0.65 7 81.7 313 
 622  0E  IAML     524 12.01        20.7 0.15                          81.7 313 
 620  0Z IP        524  2.06  120                         70    0.10 6  122 311 
 620  0N ES        524 16.86                              70    0.86 6  122 311 
 620  0E  IAML     524 20.08        17.2 0.19                           122 311 
                                                                                
 2017  416 1220 13.8 L  73.007 124.371 13.8  BER 11 0.3 1.0LBER 1.9CBER        1
 GAP=304        0.48       3.0     9.2  3.0  0.9585E+00 -0.9434E+01 -0.3425E+01E
 ACTION:UP  20-12-26 21:48 OP:elen STATUS:               ID:20170416121850     I
 OLDACT:REG 20-12-24 20:45 OP:elen STATUS:               ID:20170416121850     3
 2017-04-16-1218-50M.NSN___039                                                 6
 STAT SP IPHASW D HRMM SECON CODA AMPLIT PERI AZIMU VELO AIN AR TRES W  DIS CAZ7
 620  0Z IP       1220 20.39   51                        108   -0.0710 39.4 181 
 620  0E ES       1220 25.17                             108   -0.1210 39.4 181 
 620  0E  IAML    1220 25.58        31.0 0.21                          39.4 181 
 622  0Z IP       1220 25.06   52                         98   -0.13 9 70.4 153 
 622  0N ES       1220 33.21                              98   -0.27 9 70.4 153 
 622  0N  IAML    1220 35.37         6.5 0.26                          70.4 153 
 624  0Z IP       1220 27.87   67                         96    0.16 8 86.5 132 
 624  0N ES       1220 38.08                              96    0.25 8 86.5 132 
 624  0E  IAML    1220 38.84         6.0 0.17                          86.5 132 
 623  0Z IP       1220 28.16   54                         96    0.08 8 88.9 148 
 623  0N ES       1220 38.59                              96    0.12 8 88.9 148 
 623  0N  IAML    1220 40.17         9.0 0.14                          88.9 148 
 621  0Z IP       1220 28.93   52                         96    0.12 8 93.4 169 
 621  0N ES       1220 39.92                              96    0.18 8 93.4 169 
 621  0N  IAML    1220 40.81         7.4 0.14                          93.4 169 
 625  0Z IP       1220 31.65   57                         94    0.36 7  110 147 
 625  0N ES       1220 44.60                              94    0.57 7  110 147 
 625  0N  IAML    1220 45.44         1.3 0.14                           110 147 
 628  0Z IP       1220 31.80   70                         94   -0.24 7  114 125 
 628  0N ES       1220 44.85                              94   -0.49 7  114 125 
 628  0N  IAML    1220 45.59         3.2 0.18                           114 125 
 627  0Z IP       1220 34.62   66                         70   -0.15 6  132 137 
 627  0N ES       1220 49.76                              70   -0.30 6  132 137 
 627  0N  IAML    1220 50.58         2.0 0.34                           132 137 
 626  0Z IP       1220 35.26   65                         70   -0.21 6  137 155 
 626  0N ES       1220 50.87                              70   -0.40 6  137 155 
 626  0E  IAML    1220 51.61        11.4 0.22                           137 155 
 629  0Z IP       1220 38.18   65                         51    0.31 6  156 139 
 629  0E ES       1220 55.91                              51    0.50 6  156 139 
 629  0E  IAML    1220 56.69         1.9 0.25                           156 139 
 630  0Z IP       1220 39.31   72                         49   -0.06 5  168 126 
 630  0E ES       1220 57.85                              49   -0.16 5  168 126 
 630  0E  IAML    1221  0.14         1.9 0.10                           168 126 
                                                                                
 2017  416 1257 48.3 D  68.869 131.738 71.9  BER  9 0.7 2.2LBER                1
 GAP=347        2.47      39.1   166.9244.4  0.5831E+04  0.2462E+05  0.7403E+04E
 ACTION:UP  20-12-26 22:56 OP:elen STATUS:               ID:20170416125807     I
 OLDACT:REG 20-12-24 20:51 OP:elen STATUS:               ID:20170416125807     3
 2017-04-16-1258-07M.NSN___039                                                 6
 STAT SP IPHASW D HRMM SECON CODA AMPLIT PERI AZIMU VELO AIN AR TRES W  DIS CAZ7
 632  0Z IP       1258 30.82                             101   -0.8510  318 343 
 632  0N ES       1259  4.98                             100   -0.6410  318 343 
 632  0N  IAML    1259  5.17         4.9 0.14                           318 343 
 629  0Z IP       1258 39.93                             100    0.7610  379 336 
 629  0N ES       1259 20.72                             100    1.63 9  379 336 
 629  0E  IAML    1259 39.09         2.1 0.45                           379 336 
 626  0Z IP       1258 41.31                             100   -0.2510  399 330 
 626  0E ES       1259 23.09                              99   -0.2910  399 330 
 626  0E  IAML    1259 45.64         3.8 0.35                           399 330 
 627  0Z IP       1258 42.83                             100    0.7310  403 336 
 627  0N ES       1259 25.69                              99    1.33 9  403 336 
 627  0E  IAML    1259 42.40         4.8 0.39                           403 336 
 625  0Z IP       1258 44.61                              99   -0.0210  424 333 
 625  0N ES       1259 28.77                              99   -0.1310  424 333 
 625  0N  IAML    1259 50.66         5.6 0.41                           424 333 
 628  0Z IP       1258 45.14                              99   -0.1110  429 339 
 628  0E ES       1259 29.75                              99   -0.2610  429 339 
 628  0E  IAML    1259 51.75         3.8 0.31                           429 339 
 623  0Z IP       1258 46.84                              99   -0.3310  445 333 
 623  0N ES       1259 32.64                              99   -0.8210  445 333 
 623  0E  IAML    1259 53.30         3.2 0.45                           445 333 
 624  0Z IP       1258 47.99                              99    0.1510  450 336 
 624  0E ES       1259 34.64                              99   -0.0210  450 336 
 624  0E  IAML    1259 54.13         6.5 0.29                           450 336 
 622  0Z IP       1258 49.50                              99   -0.0210  464 332 
 622  0N ES       1259 37.23                              99   -0.4410  464 332 
 622  0N  IAML    1259 39.41         3.6 0.30                           464 332 
                                                                                
 2017  416 1821  5.3 L  72.938 125.007  1.7  BER 13 0.3 1.3LBER 2.4CBER        1
 GAP=274        0.58       3.1     6.3  5.7 -0.6830E+00 -0.3333E+01 -0.3056E+01E
 ACTION:UP  20-12-27 00:47 OP:elen STATUS:               ID:20170416181941     I
 OLDACT:REG 20-12-24 20:59 OP:elen STATUS:               ID:20170416181941     3
 2017-04-16-1819-41M.NSN___039                                                 6
 STAT SP IPHASW D HRMM SECON CODA AMPLIT PERI AZIMU VELO AIN AR TRES W  DIS CAZ7
 620  0Z IP       1821 11.60   79                         92    0.1210 38.4 215 
 620  0E ES       1821 16.27                              92    0.3010 38.4 215 
 620  0E  IAML    1821 18.35        20.2 0.16                          38.4 215 
 622  0Z IP       1821 14.23   83                         91   -0.07 9 56.2 169 
 622  0E ES       1821 20.81                              91   -0.03 9 56.2 169 
 622  0N  IAML    1821 20.82        23.1 0.27                          56.2 169 
 624  0Z IP       1821 16.12   90                         91    0.19 9 66.5 140 
 624  0N ES       1821 24.11                              91    0.44 9 66.5 140 
 624  0N  IAML    1821 24.84        18.5 0.25                          66.5 140 
 623  0Z IP       1821 17.07   85                         91    0.16 9 72.7 159 
 623  0E ES       1821 25.73                              91    0.36 9 72.7 159 
 623  0E  IAML    1821 26.39        16.1 0.19                          72.7 159 
 621  0Z IP       1821 18.44   78                         91   -0.32 8 84.2 183 
 621  0N ES       1821 28.05                              91   -0.51 8 84.2 183 
 621  0E  IAML    1821 29.12        15.1 0.21                          84.2 183 
 625  0Z IP       1821 19.96   85                         91   -0.14 8 92.8 156 
 625  0N ES       1821 30.82                              91   -0.06 8 92.8 156 
 625  0N  IAML    1821 32.15         4.3 0.38                          92.8 156 
 628  0Z IP       1821 20.12   85                         91   -0.02 8 93.1 129 
 628  0N ES       1821 31.05                              91    0.10 8 93.1 129 
 628  0N  IAML    1821 32.39        16.4 0.29                          93.1 129 
 627  0Z IP       1821 23.51   88                         91    0.21 7  113 143 
 627  0E ES       1821 36.89                              91    0.48 7  113 143 
 627  0E  IAML    1821 38.22         4.4 0.21                           113 143 
 626  0Z IP       1821 24.38   87                         91   -0.39 7  122 163 
 626  0N ES       1821 38.38                              91   -0.58 7  122 163 
 626  0E  IAML    1821 38.73        21.4 0.23                           122 163 
 629  0Z IP       1821 26.93   76                         91   -0.13 6  137 144 
 629  0E ES       1821 42.83                              91   -0.09 6  137 144 
 629  0E  IAML    1821 47.02         3.3 0.46                           137 144 
 630  0Z IP       1821 28.17   78                         90   -0.54 6  147 129 
 630  0E ES       1821 45.06                              90   -0.71 6  147 129 
 630  0E  IAML    1821 46.35        10.8 0.24                           147 129 
 631  0Z IP       1821 34.15   89                         48   -0.30 4  188 155 
 631  0N ES       1821 55.38                              48   -0.33 4  188 155 
 631  0E  IAML    1821 56.98         8.3 0.23                           188 155 
 632  0Z IP       1821 36.81   87                         48    0.29 4  206 136 
 632  0N ES       1822  0.00                              48    0.71 4  206 136 
 632  0E  IAML    1822  3.02         4.0 0.37                           206 136 
                                                                                
