 2017  4 5 1410 52.8 L  71.469 129.082  0.0  BER 10 0.6 1.7LBER 2.5CBER        1
 GAP=296        0.92       7.7    46.9 19.5 -0.2649E+03  0.8213E+03 -0.1155E+03E
 ACTION:UP  20-12-21 00:57 OP:elen STATUS:               ID:20170405140956     I
 OLDACT:UP  20-12-20 03:02 OP:elen STATUS:               ID:20170405140956     3
 OLDACT:UP  20-12-17 00:06 OP:elen STATUS:               ID:20170405140956     3
 OLDACT:REG 20-12-13 13:22 OP:elen STATUS:               ID:20170405140956     3
 2017-04-05-1409-56M.NSN___039                                                 6
 STAT SP IPHASW D HRMM SECON CODA AMPLIT PERI AZIMU VELO AIN AR TRES W  DIS CAZ7
 631  0Z IP       1411  3.23   94                         53   -0.0510 65.7 264 
 631  0E ES       1411 11.26                              53    0.3010 65.7 264 
 631  0N  IAML    1411 12.28        28.6 0.17                          65.7 264 
 629  0Z IP       1411  4.71   96                         53   -0.90 9 80.5 310 
 629  0N ES       1411 13.77                              53   -1.23 9 80.5 310 
 629  0N  IAML    1411 16.28         9.9 0.21                          80.5 310 
 626  0Z IP       1411 11.13  106                         53   -0.24 8  117 295 
 626  0N ES       1411 24.81                              53   -0.15 8  117 295 
 626  0N  IAML    1411 29.66        16.6 0.18                           117 295 
 628  0Z IP       1411 12.40   82                         53   -0.05 8  124 328 
 628  0N ES       1411 26.97                              53    0.15 8  124 328 
 628  0N  IAML    1411 32.64        11.3 0.18                           124 328 
 625  0Z IP       1411 13.83   87                         53    0.36 7  130 309 
 625  0N ES       1411 29.36                              53    0.77 7  130 309 
 625  0N  IAML    1411 33.02        22.4 0.21                           130 309 
 624  0Z IP       1411 16.80   72                         53    0.42 6  148 321 
 624  0N ES       1411 34.63                              53    1.01 6  148 321 
 624  0N  IAML    1411 37.41        30.9 0.20                           148 321 
 623  0Z IP       1411 16.69   81                         53    0.10 6  150 311 
 623  0N ES       1411 34.51                              53    0.53 6  150 311 
 623  0N  IAML    1411 37.18        10.9 0.20                           150 311 
 621  0Z IP       1411 19.20   95                         53   -0.05 6  166 301 
 621  0N ES       1411 38.62                              53    0.03 6  166 301 
 621  0E  IAML    1411 40.83        12.2 0.14                           166 301 
 622  0Z IP       1411 19.68   86                         53   -0.05 6  170 312 
 622  0N ES       1411 39.50                              53    0.08 6  170 312 
 622  0N  IAML    1411 41.87        19.3 0.17                           170 312 
 620  0Z IP       1411 25.49   90                         36    0.88 4  210 311 
 620  0N ES       1411 49.48                              36    1.61 4  210 311 
 620  0E  IAML    1411 50.64         9.1 0.34                           210 311 
                                                                                
 2017  4 6 0838 42.9 L  72.423 129.564  0.3  BER 10 0.3 1.0LBER 2.1CBER        1
 GAP=276        0.51       4.6    21.1  9.8  0.8440E+02  0.1871E+03  0.3810E+02E
 ACTION:UP  20-12-21 11:42 OP:elen STATUS:               ID:20170406083758     I
 OLDACT:UP  20-12-20 10:20 OP:elen STATUS:               ID:20170406083758     3
 OLDACT:UP  20-12-17 00:35 OP:elen STATUS:               ID:20170406083758     3
 OLDACT:REG 20-12-13 13:33 OP:elen STATUS:               ID:20170406083758     3
 2017-04-06-0837-58M.NSN___039                                                 6
 STAT SP IPHASW D HRMM SECON CODA AMPLIT PERI AZIMU VELO AIN AR TRES W  DIS CAZ7
 630  0Z IP        838 51.70   57                         53   -0.3810 57.3 228 
 630  0N ES        838 58.20                              53   -0.5610 57.3 228 
 630  0E  IAML     838 59.08         4.6 0.32                          57.3 228 
 628  0Z IP        838 55.91   54                         53   -0.03 9 81.6 269 
 628  0N ES        839  5.39                              53   -0.04 9 81.6 269 
 628  0N  IAML     839  6.74         7.1 0.22                          81.6 269 
 627  0Z IP        838 58.22   59                         53    0.29 8 94.2 250 
 627  0N ES        839  9.43                              53    0.55 8 94.2 250 
 627  0E  IAML     839 10.65         5.5 0.18                          94.2 250 
 629  0Z IP        838 58.08   72                         53    0.08 8 94.6 235 
 629  0N ES        839  9.14                              53    0.15 8 94.6 235 
 629  0N  IAML     839 10.76         1.9 0.30                          94.6 235 
 632  0Z IP        838 58.38   81                         53    0.13 8 96.2 190 
 632  0N ES        839  9.68                              53    0.25 8 96.2 190 
 632  0E  IAML     839 11.80         4.6 0.32                          96.2 190 
 624  0Z IP        839  0.59   77                         53    0.01 8  111 275 
 624  0N ES        839 13.56                              53    0.10 8  111 275 
 624  0N  IAML     839 14.48        13.0 0.22                           111 275 
 626  0Z IP        839  4.21   83                         53   -0.15 7  135 245 
 626  0N ES        839 19.89                              53   -0.12 7  135 245 
 626  0N  IAML     839 21.55         3.0 0.36                           135 245 
 631  0Z IP        839  5.19   85                         53    0.05 7  140 216 
 631  0N ES        839 21.50                              53    0.15 7  140 216 
 631  0E  IAML     839 23.21         3.0 0.23                           140 216 
 622  0Z IP        839  5.45   70                         53   -0.25 6  143 273 
 622  0N ES        839 22.04                              53   -0.28 6  143 273 
 622  0E  IAML     839 24.42         1.8 0.17                           143 273 
 621  0Z IP        839  8.64   76                         53    0.12 6  161 263 
 621  0N ES        839 27.55                              53    0.35 6  161 263 
 621  0N  IAML     839 30.04         2.0 0.17                           161 263 
                                                                                
 2017  4 6 1728  1.6 L  72.764 125.715 10.8  BER 10 0.4 0.9LBER 1.9CBER        1
 GAP=234        0.67       3.1     6.0  4.5  0.5258E+01 -0.7542E+01 -0.3150E+01E
 ACTION:UP  20-12-21 12:27 OP:elen STATUS:               ID:20170406172639     I
 OLDACT:UP  20-12-20 10:56 OP:elen STATUS:               ID:20170406172639     3
 OLDACT:UP  20-12-17 22:23 OP:elen STATUS:               ID:20170406172639     3
 OLDACT:REG 20-12-15 19:37 OP:elen STATUS:               ID:20170406172639     3
 2017-04-06-1726-39M.NSN___039                                                 6
 STAT SP IPHASW D HRMM SECON CODA AMPLIT PERI AZIMU VELO AIN AR TRES W  DIS CAZ7
 624  0Z IP       1728  7.81   52                        104    0.0510 37.2 150 
 624  0N ES       1728 12.77                             104    0.5110 37.2 150 
 624  0N  IAML    1728 13.91         6.5 0.11                          37.2 150 
 622  0Z IP       1728  7.84   49                        103   -0.0910 38.3 201 
 622  0N ES       1728 12.73                             103    0.1710 38.3 201 
 622  0E  IAML    1728 14.00        10.3 0.41                          38.3 201 
 620  0Z IP       1728  9.28   53                        100    0.0110 47.0 256 
 620  0N ES       1728 15.28                             100    0.4110 47.0 256 
 620  0E  IAML    1728 15.49        25.5 0.18                          47.0 256 
 623  0Z IP       1728  9.42   62                         99   -0.1410 48.9 178 
 623  0N ES       1728 15.48                              99    0.1110 48.9 178 
 623  0E  IAML    1728 17.38         3.3 0.15                          48.9 178 
 628  0Z IP       1728 11.58   47                         95   -0.13 9 62.8 130 
 628  0N ES       1728 19.31                              95    0.21 9 62.8 130 
 628  0N  IAML    1728 19.87        12.7 0.25                          62.8 130 
 621  0Z IP       1728 12.54   57                         94   -0.39 9 70.4 204 
 621  0N ES       1728 21.02                              94   -0.19 9 70.4 204 
 621  0E  IAML    1728 21.75         2.5 0.16                          70.4 204 
 626  0Z IP       1728 16.77   51                         92   -0.52 8 98.3 174 
 626  0E ES       1728 28.24                              92   -0.52 8 98.3 174 
 626  0N  IAML    1728 29.14         1.6 0.15                          98.3 174 
 630  0Z IP       1728 19.73   74                         91   -0.43 7  117 130 
 630  0N ES       1728 33.53                              91   -0.19 7  117 130 
 630  0E  IAML    1728 34.32         3.9 0.15                           117 130 
 631  0Z IP       1728 26.31   93                         51   -0.27 5  161 160 
 631  0N ES       1728 44.89                              51    0.06 5  161 160 
 631  0E  IAML    1728 46.34         3.2 0.16                           161 160 
 632  0Z IP       1728 28.58   90                         49    0.31 5  175 138 
 632  0N ES       1728 48.98                              49    1.23 5  175 138 
 632  0E  IAML    1728 50.06         4.5 0.31                           175 138 
                                                                                
 2017  4 7 1729  3.5 D  74.730 128.815  0.9  BER  9 0.5 1.6LBER 2.8CBER        1
 GAP=343        2.24     655.6   767.7867.6  0.4981E+06  0.6602E+06  0.5687E+06E
 ACTION:UP  20-12-21 13:07 OP:elen STATUS:               ID:20170407172858     I
 OLDACT:UP  20-12-20 15:13 OP:elen STATUS:               ID:20170407172858     3
 OLDACT:UP  20-12-18 22:39 OP:elen STATUS:               ID:20170407172858     3
 OLDACT:REG 20-12-15 19:48 OP:elen STATUS:               ID:20170407172858     3
 2017-04-07-1728-58M.NSN___039                                                 6
 STAT SP IPHASW D HRMM SECON CODA AMPLIT PERI AZIMU VELO AIN AR TRES W  DIS CAZ7
 624  0Z IP       1729 43.00  116                         46   -0.6210  264 199 
 624  0N ES       1730 13.76                              48   -0.6610  264 199 
 624  0E  IAML    1730 22.09         2.0 0.22                           264 199 
 628  0Z IP       1729 43.02  116                         46   -0.7710  265 192 
 628  0N ES       1730 13.72                              48   -1.0110  265 192 
 628  0E  IAML    1730 15.16         1.6 0.15                           265 192 
 622  0Z IP       1729 45.17  101                         46   -0.2010  278 205 
 622  0N ES       1730 17.40                              48   -0.1710  278 205 
 622  0N  IAML    1730 19.84         1.7 0.32                           278 205 
 623  0Z IP       1729 46.17  113                         46   -0.0710  285 201 
 623  0N ES       1730 19.22                              48    0.0910  285 201 
 623  0N  IAML    1730 24.09         2.1 0.12                           285 201 
 627  0Z IP       1729 47.69  106                         46   -0.0710  297 192 
 627  0N ES       1730 21.76                              48   -0.1110  297 192 
 627  0N  IAML    1730 27.15         1.0 0.14                           297 192 
 621  0Z IP       1729 49.69  111                         46    0.3110  310 206 
 621  0N ES       1730 25.22                              48    0.4510  310 206 
 621  0N  IAML    1730 28.46         2.6 0.23                           310 206 
 629  0Z IP       1729 50.20  117                         46    0.1010  316 189 
 629  0E ES       1730 26.06                              48   -0.0110  316 189 
 629  0N  IAML    1730 28.83         1.5 0.21                           316 189 
 626  0Z IP       1729 52.35  110                         46    0.6010  329 197 
 626  0E ES       1730 29.85                              48    0.8110  329 197 
 626  0N  IAML    1730 32.66         5.5 0.29                           329 197 
 631  0Z IP       1729 58.11  125                         46    0.7010  375 189 
 631  0N ES       1730 39.81                              48    0.5910  375 189 
 631  0E  IAML    1730 43.09         7.3 0.14                           375 189 
                                                                                
 2017  4 8 1004 45.7 L  72.631 124.955  8.0  BER 12 0.5 1.5LBER 2.6CBER        1
 GAP=191        0.97       4.5     9.4  5.7  0.2673E+02 -0.1836E+02 -0.2854E+01E
 ACTION:UP  20-12-21 14:32 OP:elen STATUS:               ID:20170408100319     I
 OLDACT:UP  20-12-20 16:21 OP:elen STATUS:               ID:20170408100319     3
 OLDACT:UP  20-12-19 02:06 OP:elen STATUS:               ID:20170408100319     3
 OLDACT:REG 20-12-15 20:09 OP:elen STATUS:               ID:20170408100319     3
 2017-04-08-1003-19M.NSN___039                                                 6
 STAT SP IPHASW D HRMM SECON CODA AMPLIT PERI AZIMU VELO AIN AR TRES W  DIS CAZ7
 620  0Z IP       10 4 49.10   78                        111   -0.1010 20.4 278 
 620  0N ES       10 4 52.40                             111    0.6510 20.4 278 
 620  0E  IAML    10 4 52.80       171.2 0.15                          20.4 278 
 622  0Z IP       10 4 49.30   86                        108   -0.4710 24.2 150 
 622  0N ES       10 4 52.82                             108    0.0710 24.2 150 
 622  0E  IAML    10 4 53.10        74.9 0.37                          24.2 150 
 623  0Z IP       10 4 52.26   80                        100   -0.48 9 43.5 141 
 623  0N ES       10 4 58.11                             100    0.23 9 43.5 141 
 623  0N  IAML    10 4 59.03        75.1 0.25                          43.5 141 
 624  0Z IP       10 4 53.11   93                         99   -0.25 9 47.4 111 
 624  0N ES       10 4 59.48                              99    0.51 9 47.4 111 
 624  0N  IAML    10 5  1.03        27.4 0.11                          47.4 111 
 625  0Z IP       10 4 55.37  106                         97   -0.60 8 64.1 142 
 625  0N ES       10 5  3.50                              97    0.02 8 64.1 142 
 625  0N  IAML    10 5  3.88         8.5 0.32                          64.1 142 
 628  0Z IP       10 4 57.62  104                         96   -0.53 8 77.9 108 
 628  0N ES       10 5  7.40                              96    0.15 8 77.9 108 
 628  0E  IAML    10 5  8.95        21.9 0.21                          77.9 108 
 627  0Z IP       10 4 59.88  107                         95   -0.08 8 89.3 129 
 627  0N ES       10 5 11.19                              95    0.82 8 89.3 129 
 627  0N  IAML    10 5 12.24         8.1 0.25                          89.3 129 
 626  0Z IP       10 4 59.53   99                         95   -0.66 7 90.7 156 
 626  0E ES       10 5 10.66                              95   -0.11 7 90.7 156 
 626  0E  IAML    10 5 11.00         8.5 0.17                          90.7 156 
 629  0Z IP       10 5  3.50   89                         94   -0.04 7  112 133 
 629  0N ES       10 5 17.47                              94    0.90 7  112 133 
 629  0E  IAML    10 5 18.54         6.7 0.21                           112 133 
 630  0Z IP       10 5  5.80   97                         81   -0.53 6  130 117 
 630  0N ES       10 5 21.43                              81    0.04 6  130 117 
 630  0E  IAML    10 5 25.71        18.6 0.18                           130 117 
 631  0Z IP       10 5 10.15  104                         51   -0.49 5  159 149 
 631  0E ES       10 5 28.84                              51   -0.01 5  159 149 
 631  0N  IAML    10 5 30.82        14.2 0.13                           159 149 
 632  0Z IP       10 5 14.26  104                         48    0.59 4  184 128 
 632  0N ES       10 5 35.96                              48    1.87 4  184 128 
 632  0E  IAML    10 5 36.82        10.4 0.35                           184 128 
                                                                                
