 2017  4 8 1004 45.7 L  72.617 124.934  7.6  BER 13 0.5 1.4LBER 2.8CBER        1
 GAP=185        0.96       3.4     7.9  5.6  0.1308E+02 -0.1414E+02 -0.9903E+00E
 ACTION:UP  20-12-21 15:15 OP:elen STATUS:               ID:20170408100354     I
 OLDACT:UP  20-12-20 16:45 OP:elen STATUS:               ID:20170408100354     3
 OLDACT:UP  20-12-19 13:04 OP:elen STATUS:               ID:20170408100354     3
 OLDACT:REG 20-12-19 09:34 OP:elen STATUS:               ID:20170408100354     3
 2017-04-08-1003-54M.NSN___039                                                 6
 STAT SP IPHASW D HRMM SECON CODA AMPLIT PERI AZIMU VELO AIN AR TRES W  DIS CAZ7
 620  0Z IP       10 4 49.12   92                        110   -0.0510 20.0 282 
 620  0N ES       10 4 52.40                             110    0.7310 20.0 282 
 620  0E  IAML    10 4 52.80       170.6 0.15                          20.0 282 
 622  0Z IP       10 4 49.31  112                        108   -0.3710 23.3 147 
 622  0N ES       10 4 52.78                             108    0.2410 23.3 147 
 622  0E  IAML    10 4 53.18        75.7 0.20                          23.3 147 
 623  0Z IP       10 4 52.27  100                        100   -0.41 9 42.8 139 
 623  0N ES       10 4 58.13                             100    0.39 9 42.8 139 
 623  0N  IAML    10 4 59.15        73.9 0.30                          42.8 139 
 624  0Z IP       10 4 53.13  119                         99   -0.31 9 47.6 109 
 624  0N ES       10 4 59.48                              99    0.43 9 47.6 109 
 624  0N  IAML    10 5  1.02        33.6 0.15                          47.6 109 
 621  0Z IP       10 4 52.92   98                         99   -0.67 9 48.4 182 
 621  0N ES       10 4 59.20                              99   -0.11 9 48.4 182 
 621  0E  IAML    10 5  1.72        20.3 0.22                          48.4 182 
 625  0Z IP       10 4 55.33  121                         97   -0.58 8 63.4 141 
 625  0N ES       10 5  3.31                              97   -0.02 8 63.4 141 
 625  0N  IAML    10 5  3.88         8.4 0.32                          63.4 141 
 628  0Z IP       10 4 57.63  111                         95   -0.61 8 78.1 107 
 628  0N ES       10 5  7.38                              95    0.02 8 78.1 107 
 628  0E  IAML    10 5  8.94        21.7 0.19                          78.1 107 
 627  0Z IP       10 4 59.89  107                         95   -0.06 8 89.0 128 
 627  0N ES       10 5 11.08                              95    0.76 8 89.0 128 
 627  0N  IAML    10 5 12.24         8.1 0.25                          89.0 128 
 626  0Z IP       10 4 59.78  122                         95   -0.30 8 89.6 155 
 626  0N ES       10 5 10.85                              95    0.31 8 89.6 155 
 626  0E  IAML    10 5 11.00         8.5 0.18                          89.6 155 
 629  0Z IP       10 5  3.42  112                         94   -0.10 7  112 132 
 629  0N ES       10 5 17.26                              94    0.78 7  112 132 
 629  0E  IAML    10 5 18.54         6.7 0.20                           112 132 
 630  0Z IP       10 5  5.81  123                         81   -0.58 6  130 116 
 630  0N ES       10 5 21.44                              81   -0.01 6  130 116 
 630  0E  IAML    10 5 25.71        18.5 0.18                           130 116 
 631  0Z IP       10 5 10.17  120                         51   -0.45 5  158 148 
 631  0N ES       10 5 28.83                              51    0.06 5  158 148 
 631  0N  IAML    10 5 30.82        14.2 0.13                           158 148 
 632  0Z IP       10 5 14.26  118                         48    0.54 4  184 127 
 632  0N ES       10 5 35.99                              48    1.85 4  184 127 
 632  0E  IAML    10 5 37.29         8.6 0.16                           184 127 
                                                                                
 2017  4 9 0902 44.8 L  73.422 128.568  0.0  BER  7 0.6 1.1LBER 2.1CBER        1
 GAP=320        0.57       6.9    28.8  8.4  0.3380E+02  0.1089E+03  0.3179E+02E
 ACTION:UP  20-12-21 17:39 OP:elen STATUS:               ID:20170409090159     I
 OLDACT:UP  20-12-20 17:21 OP:elen STATUS:               ID:20170409090159     3
 OLDACT:UP  20-12-19 15:40 OP:elen STATUS:               ID:20170409090159     3
 OLDACT:REG 20-12-19 09:55 OP:elen STATUS:               ID:20170409090159     3
 2017-04-09-0901-59M.NSN___039                                                 6
 STAT SP IPHASW D HRMM SECON CODA AMPLIT PERI AZIMU VELO AIN AR TRES W  DIS CAZ7
 628  0Z IP        9 3  4.59   68                         53    0.1810  123 203 
 628  0E ES        9 3 19.12                              53    0.3810  123 203 
 628  0N  IAML     9 3 20.27         3.3 0.27                           123 203 
 624  0Z IP        9 3  5.36   70                         53   -0.0510  130 217 
 624  0N ES        9 3 20.45                              53   -0.0310  130 217 
 624  0N  IAML     9 3 28.95         2.5 0.12                           130 217 
 630  0Z IP        9 3  8.54   80                         53   -0.20 8  151 183 
 630  0E  IAML     9 3 25.63         1.5 0.30                           151 183 
 630  0N ES        9 3 25.87                              53   -0.36 8  151 183 
 629  0Z IP        9 3 11.80   64                         53   -0.30 7  172 195 
 629  0N ES        9 3 31.62                              53   -0.42 7  172 195 
 629  0E  IAML     9 3 32.87         1.3 0.33                           172 195 
 621  0Z IP        9 3 13.23   65                         36   -0.42 7  184 223 
 621  0N ES        9 3 34.07                              36   -0.65 7  184 223 
 621  0E  IAML     9 3 35.86         2.1 0.11                           184 223 
 626  0Z IP        9 3 14.69   63                         36    0.24 6  191 207 
 626  0N ES        9 3 36.55                              36    0.44 6  191 207 
 626  0N  IAML     9 3 41.07         2.1 0.10                           191 207 
 631  0Z IP        9 3 20.24   78                         36    1.18 4  230 192 
 631  0N ES        9 3 46.11                              36    2.03 4  230 192 
 631  0N  IAML     9 3 47.90        11.1 0.17                           230 192 
                                                                                
 2017  410 1520  9.1 L  72.016 128.475  0.0  BER  9 1.1 1.0LBER 1.8CBER        1
 GAP=195        2.04       6.5    26.3 15.6  0.1041E+03  0.1596E+03  0.1610E+02E
 ACTION:UP  20-12-21 18:30 OP:elen STATUS:               ID:20170410151847     I
 OLDACT:UP  20-12-20 18:17 OP:elen STATUS:               ID:20170410151847     3
 OLDACT:REG 20-12-19 10:26 OP:elen STATUS:               ID:20170410151847     3
 2017-04-10-1518-47M.NSN___039                                                 6
 STAT SP IPHASW D HRMM SECON CODA AMPLIT PERI AZIMU VELO AIN AR TRES W  DIS CAZ7
 630  0Z IP       1520 10.02   48                         53   -0.4710 8.40 322 
 630  0E ES       1520 11.29                              53   -0.2410 8.40 322 
 630  0E  IAML    1520 11.34       509.0 0.06                          8.40 322 
 629  0Z IP       1520 14.70   53                         53   -1.00 9 41.3 257 
 629  0N ES       1520 19.41                              53   -1.14 9 41.3 257 
 629  0E  IAML    1520 20.90         5.0 0.10                          41.3 257 
 627  0Z IP       1520 16.65   55                         53   -0.84 8 52.6 283 
 627  0N ES       1520 22.81                              53   -0.83 8 52.6 283 
 627  0N  IAML    1520 25.10        13.5 0.36                          52.6 283 
 632  0Z IP       1520 17.74   60                         53    0.10 8 53.5 157 
 632  0E ES       1520 24.74                              53    0.83 8 53.5 157 
 632  0E  IAML    1520 26.35         6.8 0.18                          53.5 157 
 628  0Z IP       1520 18.26   59                         53   -0.79 8 62.4 314 
 628  0E ES       1520 25.73                              53   -0.61 8 62.4 314 
 628  0E  IAML    1520 26.94         9.5 0.33                          62.4 314 
 624  0Z IP       1520 23.91   55                         53    0.35 7 90.8 305 
 624  0E ES       1520 35.30                              53    1.16 7 90.8 305 
 624  0E  IAML    1520 37.71         6.3 0.18                          90.8 305 
 623  0Z IP       1520 26.02   49                         53    1.16 7 99.1 292 
 623  0E ES       1520 39.02                              53    2.63 7 99.1 292 
 623  0E  IAML    1520 44.74         2.2 0.12                          99.1 292 
 621  0Z IP       1520 29.23   63                         53    0.32 6  124 280 
 621  0E ES       1520 44.58                              53    1.18 6  124 280 
 621  0E  IAML    1520 48.44         2.7 0.18                           124 280 
 620  0Z IP       1520 34.93   68                         53    0.91 5  157 299 
 620  0N ES       1520 54.44                              53    2.19 5  157 299 
 620  0N  IAML    1520 55.50         7.7 0.26                           157 299 
                                                                                
 2017  410 1520  9.1 L  72.021 128.500  0.4  BER 10 1.1 1.0LBER 1.7CBER        1
 GAP=203        2.11       7.3    29.4 16.1  0.1443E+03  0.2075E+03  0.2620E+02E
 ACTION:UP  20-12-21 18:53 OP:elen STATUS:               ID:20170410151924     I
 OLDACT:UP  20-12-20 18:56 OP:elen STATUS:               ID:20170410151924     3
 OLDACT:REG 20-12-19 10:35 OP:elen STATUS:               ID:20170410151924     3
 2017-04-10-1519-24M.NSN___039                                                 6
 STAT SP IPHASW D HRMM SECON CODA AMPLIT PERI AZIMU VELO AIN AR TRES W  DIS CAZ7
 630  0Z IP       1520 10.03   52                         53   -0.4910 8.56 315 
 630  0N ES       1520 11.30                              53   -0.2610 8.56 315 
 630  0E  IAML    1520 11.31       516.4 0.06                          8.56 315 
 629  0Z IP       1520 14.77   49                         53   -1.09 9 42.3 257 
 629  0E ES       1520 19.59                              53   -1.21 9 42.3 257 
 629  0E  IAML    1520 20.90         5.0 0.10                          42.3 257 
 627  0Z IP       1520 16.65   49                         53   -0.96 8 53.3 282 
 627  0N ES       1520 22.96                              53   -0.86 8 53.3 282 
 627  0N  IAML    1520 24.87        18.1 0.40                          53.3 282 
 632  0Z IP       1520 17.73   62                         53    0.05 8 53.7 158 
 632  0E ES       1520 24.82                              53    0.89 8 53.7 158 
 632  0E  IAML    1520 26.35         6.8 0.18                          53.7 158 
 628  0Z IP       1520 18.12   56                         53   -0.98 8 62.6 313 
 628  0E ES       1520 25.55                              53   -0.84 8 62.6 313 
 628  0E  IAML    1520 26.95         9.4 0.33                          62.6 313 
 624  0Z IP       1520 23.54   53                         53   -0.09 7 91.2 305 
 624  0N ES       1520 34.95                              53    0.72 7 91.2 305 
 624  0E  IAML    1520 37.71         6.3 0.19                          91.2 305 
 623  0Z IP       1520 26.02   42                         53    1.06 7 99.7 291 
 623  0E ES       1520 39.05                              53    2.51 7 99.7 291 
 623  0E  IAML    1520 44.74         2.2 0.13                          99.7 291 
 622  0Z IP       1520 28.52   51                         53    0.60 6  118 295 
 622  0E ES       1520 43.63                              53    1.98 6  118 295 
 622  0E  IAML    1520 48.20         3.4 0.12                           118 295 
 621  0Z IP       1520 29.42   53                         53    0.38 6  125 280 
 621  0N ES       1520 45.12                              53    1.53 6  125 280 
 621  0E  IAML    1520 48.44         2.6 0.17                           125 280 
 620  0Z IP       1520 34.85   48                         53    0.74 5  157 299 
 620  0E ES       1520 54.54                              53    2.17 5  157 299 
 620  0N  IAML    1520 55.50         7.7 0.27                           157 299 
                                                                                
 2017  410 1813  3.4 L  70.885 129.313  0.0  BER 13 1.1 2.2LBER 2.9CBER        1
 GAP=315        1.00       9.2    25.5 10.7 -0.7695E+02  0.1276E+03 -0.5775E+02E
 ACTION:UP  20-12-20 20:12 OP:elen STATUS:               ID:20170410181211     I
 OLDACT:UP  20-12-20 19:32 OP:elen STATUS:               ID:20170410181211     3
 OLDACT:REG 20-12-19 10:48 OP:elen STATUS:               ID:20170410181211     3
 2017-04-10-1812-11M.NSN___039                                                 6
 STAT SP IPHASW D HRMM SECON CODA AMPLIT PERI AZIMU VELO AIN AR TRES W  DIS CAZ7
 632  0Z IP       1813 15.43  117                         53   -0.3610 77.4 354 
 632  0E ES       1813 24.79                              53   -0.0310 77.4 354 
 632  0E  IAML    1813 26.61        71.8 0.19                          77.4 354 
 631  0Z IP       1813 17.82  126                         53   -0.62 9 94.1 309 
 631  0E ES       1813 28.77                              53   -0.63 9 94.1 309 
 631  0E  IAML    1813 28.93       141.4 0.21                          94.1 309 
 630  0Z IP       1813 25.13  115                         53   -0.16 7  137 346 
 630  0N ES       1813 41.49                              53    0.24 7  137 346 
 630  0E  IAML    1813 43.87        55.4 0.16                           137 346 
 629  0Z IP       1813 24.92  120                         53   -0.24 7  137 330 
 629  0N ES       1813 41.16                              53    0.14 7  137 330 
 629  0N  IAML    1813 43.23        16.7 0.33                           137 330 
 627  0Z IP       1813 28.53  120                         53   -0.41 6  160 330 
 627  0E ES       1813 47.31                              53   -0.25 6  160 330 
 627  0N  IAML    1813 49.40        23.6 0.18                           160 330 
 626  0Z IP       1813 28.54  117                         53   -0.64 6  162 315 
 626  0E ES       1813 47.42                              53   -0.56 6  162 315 
 626  0E  IAML    1813 48.77        29.1 0.26                           162 315 
 625  0Z IP       1813 31.93  114                         36   -0.23 5  183 323 
 625  0N ES       1813 53.18                              36    0.04 5  183 323 
 625  0N  IAML    1813 54.17        20.0 0.18                           183 323 
 628  0Z IP       1813 32.36  124                         36   -0.07 5  185 337 
 628  0N ES       1813 53.94                              36    0.33 5  185 337 
 628  0E  IAML    1813 55.54        37.9 0.32                           185 337 
 623  0Z IP       1813 35.21  112                         36    0.63 4  204 324 
 623  0N ES       1813 59.16                              36    1.83 4  204 324 
 623  0E  IAML    1813 59.89        16.5 0.29                           204 324 
 624  0Z IP       1813 35.77   99                         36    0.79 4  207 330 
 624  0N ES       1814  0.04                              36    2.02 4  207 330 
 624  0N  IAML    1814  1.66        43.7 0.16                           207 330 
 621  0Z IP       1813 36.57  116                         36    0.84 4  213 315 
 621  0N ES       1814  1.32                              36    2.00 4  213 315 
 621  0E  IAML    1814  2.04        26.4 0.45                           213 315 
 622  0Z IP       1813 38.40  125                         36    1.51 3  223 323 
 622  0N ES       1814  4.56                              36    3.24 3  223 323 
 622  0N  IAML    1814  5.18        77.5 0.27                           223 323 
 620  0Z IP       1813 44.51  113                         36    3.00 2  263 321 
 620  0N ES       1814 15.05                              36    5.74 2  263 321 
 620  0E  IAML    1814 16.19        14.1 0.21                           263 321 
                                                                                
 2017  413 0651 19.4 L  73.450 125.409  2.4  BER 10 0.7 1.0LBER 1.8CBER        1
 GAP=311        0.77       5.8    19.8  8.1  0.5053E+01 -0.1111E+02 -0.9044E+01E
 ACTION:UP  20-12-23 22:37 OP:elen STATUS:               ID:20170413065005     I
 OLDACT:REG 20-12-21 22:59 OP:elen STATUS:               ID:20170413065005     3
 2017-04-13-0650-05M.NSN___039                                                 6
 STAT SP IPHASW D HRMM SECON CODA AMPLIT PERI AZIMU VELO AIN AR TRES W  DIS CAZ7
 620  0Z IP        651 34.70   52                         91    0.1810 95.3 202 
 620  0E ES        651 45.87                              91    0.2810 95.3 202 
 620  0E  IAML     651 46.51         6.3 0.25                          95.3 202 
 624  0Z IP        651 37.69   49                         91    0.46 9  112 165 
 624  0N ES        651 51.14                              91    0.87 9  112 165 
 624  0N  IAML     651 52.30         4.8 0.23                           112 165 
 622  0Z IP        651 37.23   42                         91   -0.02 9  113 182 
 622  0E ES        651 50.28                              91   -0.03 9  113 182 
 622  0N  IAML     651 52.76         4.2 0.17                           113 182 
 623  0Z IP        651 39.25   51                         91   -0.13 8  126 175 
 623  0N ES        651 53.73                              91   -0.27 8  126 175 
 623  0N  IAML     651 55.09         3.0 0.37                           126 175 
 628  0Z IP        651 39.90   63                         91   -0.17 8  130 153 
 628  0E ES        651 54.93                              91   -0.26 8  130 153 
 628  0E  IAML     651 58.53         2.5 0.19                           130 153 
 621  0Z IP        651 41.64   56                         91   -0.36 8  142 187 
 621  0N ES        651 57.94                              91   -0.59 8  142 187 
 621  0N  IAML     651 59.83         3.0 0.23                           142 187 
 625  0Z IP        651 42.15   53                         91   -0.13 8  144 170 
 625  0N ES        651 58.87                              91   -0.14 8  144 170 
 625  0E  IAML     652  6.31         1.8 0.51                           144 170 
 627  0Z IP        651 44.19   46                         91   -0.20 7  158 160 
 627  0N ES        652  2.41                              91   -0.26 7  158 160 
 627  0E  IAML     652  3.56         2.0 0.42                           158 160 
 626  0Z IP        651 46.43   58                         48   -0.54 6  176 173 
 626  0E ES        652  6.26                              48   -0.86 6  176 173 
 626  0E  IAML     652  7.06         3.3 0.24                           176 173 
 631  0Z IP        651 56.21   80                         48    2.02 3  237 164 
 631  0N ES        652 23.16                              48    3.55 3  237 164 
 631  0E  IAML     652 31.16         2.2 0.26                           237 164 
                                                                                
