 2017  315 0234 46.2 L  72.684 123.658 11.7  BER  7 0.2 1.4LBER 1.2CBER        1
 GAP=321        0.50       4.8    13.7  4.2  0.2600E+02  0.2654E+02  0.1032E+02E
 ACTION:ARG 20-12-21 03:09 OP:mn   STATUS:               ID:20170315023314     I
 2017-03-15-0233-14M.a_____039                                                 6
 STAT SP IPHASW D HRMM SECON CODA AMPLIT PERI AZIMU VELO AIN AR TRES W  DIS CAZ7
 620  0Z IP     C  234 50.42   22                        115    0.1010 23.2  98 
 620  0N ES        234 53.47                             115    0.1310 23.2  98 
 620  0Z  IAML     234 53.72        98.8 0.21                          23.2  98 
 622  0Z IP     D  234 55.88   25                         97   -0.26 9 61.6 115 
 622  0N ES        235  3.13                              97   -0.27 9 61.6 115 
 622  0Z  IAML     235  3.67        33.0 0.21                          61.6 115 
 623  0Z IP     C  234 58.89   33                         94   -0.28 8 81.1 119 
 623  0N ES        235  8.32                              94   -0.33 8 81.1 119 
 623  0Z  IAML     235  8.92        20.2 0.23                          81.1 119 
 624  0Z IP     D  235  0.65   36                         93    0.00 8 90.5 104 
 624  0N ES        235 11.21                              93    0.00 8 90.5 104 
 624  0Z  IAML     235 11.73        24.6 0.16                          90.5 104 
 625  0Z IP     D  235  2.47   46                         93    0.30 7  100 123 
 625  0N ES        235 14.41                              93    0.58 7  100 123 
 625  0Z  IAML     235 15.16         4.1 0.13                           100 123 
 626  0Z IP     C  235  5.33   53                         92    0.04 6  120 137 
 626  0E ES        235 19.26                              92    0.02 6  120 137 
 626  0Z  IAML     235 19.81         6.8 0.24                           120 137 
 629  0Z IP     D  235  9.69   53                         52   -0.01 5  150 122 
 629  0E ES        235 27.07                              52    0.21 5  150 122 
 629  0Z  IAML     235 28.99         5.3 0.19                           150 122 
                                                                                
 2017  317 1007 14.7 L  72.231 125.977  0.0  BER  7 0.4 0.5LBER 0.9CBER        1
 GAP=117        1.06       2.3     7.0  7.2  0.5679E+01 -0.2146E+01 -0.1441E+01E
 ACTION:ARG 20-12-21 03:09 OP:mn   STATUS:               ID:20170317100556     I
 2017-03-17-1005-56M.a_____039                                                 6
 STAT SP IPHASW D HRMM SECON CODA AMPLIT PERI AZIMU VELO AIN AR TRES W  DIS CAZ7
 625  0Z IP     C 10 7 15.52   28                         53   -0.4910 7.76 145 
 625  0E ES       10 7 17.05                              53    0.0710 7.76 145 
 625  0Z  IAML    10 7 17.31        20.4 0.18                          7.76 145 
 623  0Z IP     D 10 7 16.27   23                         53   -0.5510 12.9 325 
 623  0E ES       10 7 18.51                              53    0.1210 12.9 325 
 623  0Z  IAML    10 7 19.03        21.6 0.25                          12.9 325 
 624  0Z IP     C 10 7 19.09   37                         53   -0.31 9 29.1  20 
 624  0E ES       10 7 23.21                              53    0.37 9 29.1  20 
 624  0Z  IAML    10 7 23.77         9.2 0.17                          29.1  20 
 622  0Z IP     D 10 7 19.65   28                         53   -0.29 9 32.6 317 
 622  0E ES       10 7 24.34                              53    0.56 9 32.6 317 
 622  0Z  IAML    10 7 28.80         4.3 0.60                          32.6 317 
 621  0Z IP     C 10 7 20.43   28                         53   -0.32 9 37.5 262 
 621  0N ES       10 7 25.73                              53    0.55 9 37.5 262 
 621  0Z  IAML    10 7 27.08         9.0 0.28                          37.5 262 
 628  0Z IP     D 10 7 21.20   28                         53   -0.54 9 43.9  64 
 628  0N ES       10 7 27.17                              53    0.27 9 43.9  64 
 628  0Z  IAML    10 7 28.42         8.2 0.15                          43.9  64 
 629  0Z IP     D 10 7 23.73   40                         53   -0.07 8 56.9 126 
 629  0E ES       10 7 31.37                              53    0.91 8 56.9 126 
 629  0Z  IAML    10 7 32.24         3.3 0.27                          56.9 126 
                                                                                
 2017  320 1900 34.5 L  72.427 126.130 18.6  BER  7 0.1 0.6LBER 0.5CBER        1
 GAP=128        0.34       1.2     2.7  1.9 -0.5335E+00  0.8219E-02  0.8741E+00E
 ACTION:ARG 20-12-21 03:09 OP:mn   STATUS:               ID:20170320190000     I
 2017-03-20-1900-00M.a_____039                                                 6
 STAT SP IPHASW D HRMM SECON CODA AMPLIT PERI AZIMU VELO AIN AR TRES W  DIS CAZ7
 624  0Z IP     D 19 0 37.68   22                        158   -0.0210 7.30  42 
 624  0E ES       19 0 40.10                             158    0.0810 7.30  42 
 624  0Z  IAML    19 0 40.49        27.4 0.14                          7.30  42 
 623  0Z IP     C 19 0 38.40   17                        137   -0.1110 16.9 228 
 623  0N ES       19 0 41.37                             137   -0.0410 16.9 228 
 623  0Z  IAML    19 0 41.66        25.9 0.19                          16.9 228 
 622  0Z IP     C 19 0 39.71   25                        123   -0.08 9 27.6 274 
 622  0N ES       19 0 43.71                             123    0.08 9 27.6 274 
 622  0Z  IAML    19 0 44.04         5.4 0.12                          27.6 274 
 625  0Z IP     D 19 0 39.68   20                        122   -0.21 9 28.3 182 
 625  0N ES       19 0 43.66                             122   -0.14 9 28.3 182 
 625  0Z  IAML    19 0 44.10         2.9 0.17                          28.3 182 
 628  0Z IP     D 19 0 40.69   25                        117   -0.04 9 34.4  95 
 628  0N ES       19 0 45.33                             117    0.08 9 34.4  95 
 628  0Z  IAML    19 0 46.85         8.3 0.26                          34.4  95 
 621  0Z IP     D 19 0 43.02   27                        109    0.01 9 50.1 238 
 621  0N ES       19 0 49.31                             109    0.11 9 50.1 238 
 621  0Z  IAML    19 0 49.89         2.7 0.30                          50.1 238 
 626  0Z IP     C 19 0 44.66   24                        105    0.14 8 60.3 183 
 626  0N ES       19 0 52.05                             105    0.23 8 60.3 183 
 626  0Z  IAML    19 0 52.41         4.2 0.32                          60.3 183 
                                                                                
 2017  326 0836 34.7 L  72.002 127.684 14.8  BER  7 0.3 1.5LBER 0.9CBER        1
 GAP=131        0.60       1.8     4.0  4.0  0.1097E+01  0.1104E+00  0.1703E+01E
 ACTION:ARG 20-12-21 03:09 OP:mn   STATUS:               ID:20170326083527     I
 2017-03-26-0835-27M.a_____039                                                 6
 STAT SP IPHASW D HRMM SECON CODA AMPLIT PERI AZIMU VELO AIN AR TRES W  DIS CAZ7
 629  0Z IP     C  836 37.77   15                        134   -0.3010 15.2 238 
 629  0N ES        836 40.52                             134   -0.0210 15.2 238 
 629  0Z  IAML     836 40.82       360.6 0.20                          15.2 238 
 630  0Z IP     D  836 38.91   22                        121   -0.2010 23.5  69 
 630  0E ES        836 42.54                             121    0.2010 23.5  69 
 630  0Z  IAML     836 43.12       190.9 0.17                          23.5  69 
 627  0Z IP     C  836 39.40   35                        117   -0.2410 27.3 298 
 627  0N ES        836 43.30                             117    0.0610 27.3 298 
 627  0Z  IAML     836 43.48        88.3 0.34                          27.3 298 
 625  0Z IP     D  836 44.17   34                        103    0.08 9 57.4 290 
 625  0E ES        836 51.55                             103    0.60 9 57.4 290 
 625  0Z  IAML     836 51.71        10.9 0.18                          57.4 290 
 626  0Z IP     D  836 43.96   29                        102   -0.31 8 58.4 258 
 626  0N ES        836 51.25                             102   -0.01 8 58.4 258 
 626  0Z  IAML     836 51.63        35.8 0.21                          58.4 258 
 632  0Z IP     D  836 45.56   41                        100   -0.17 8 68.0 134 
 632  0E ES        836 54.09                             100    0.31 8 68.0 134 
 632  0Z  IAML     836 55.46        17.7 0.12                          68.0 134 
 631  0Z IP     D  836 45.76   37                        100   -0.12 8 69.0 193 
 631  0E ES        836 54.35                             100    0.31 8 69.0 193 
 631  0Z  IAML     836 54.70        21.7 0.11                          69.0 193 
                                                                                
 2017  4 2 0422  1.6 L  72.764 125.716 11.7  BER 10 0.4 1.2LBER 1.8CBER        1
 GAP=234        0.76       3.6     6.8  5.0  0.6980E+01 -0.9668E+01 -0.4179E+01E
 ACTION:UP  20-12-20 22:46 OP:elen STATUS:               ID:20170402042039     I
 OLDACT:UP  20-12-20 00:44 OP:elen STATUS:               ID:20170402042039     3
 OLDACT:UP  20-12-16 20:09 OP:elen STATUS:               ID:20170402042039     3
 OLDACT:UP  20-12-16 14:06 OP:elen STATUS:               ID:20170402042039     3
 OLDACT:REG 20-12-12 10:59 OP:elen STATUS:               ID:20170402042039     3
 2017-04-02-0420-39M.NSN___039                                                 6
 STAT SP IPHASW D HRMM SECON CODA AMPLIT PERI AZIMU VELO AIN AR TRES W  DIS CAZ7
 624  0Z IP        422  7.79   50                        105    0.0210 37.1 150 
 624  0N ES        422 12.83                             105    0.5410 37.1 150 
 624  0N  IAML     422 13.96        16.4 0.13                          37.1 150 
 622  0Z IP        422  7.79   47                        105   -0.1510 38.3 201 
 622  0N ES        422 12.79                             105    0.1910 38.3 201 
 622  0N  IAML     422 13.69        13.8 0.15                          38.3 201 
 620  0Z IP        422  9.30   52                        101    0.0310 47.0 256 
 620  0N ES        422 15.36                             101    0.4710 47.0 256 
 620  0N  IAML     422 15.71        31.6 0.15                          47.0 256 
 623  0Z IP        422  9.41   48                        101   -0.1410 48.9 178 
 623  0N ES        422 15.58                             101    0.2010 48.9 178 
 623  0E  IAML     422 17.17         7.4 0.15                          48.9 178 
 628  0Z IP        422 11.53   56                         97   -0.17 9 62.7 130 
 628  0N ES        422 19.37                              97    0.27 9 62.7 130 
 628  0N  IAML     422 19.92        27.0 0.25                          62.7 130 
 621  0Z IP        422 12.50   48                         96   -0.42 9 70.4 204 
 621  0N ES        422 20.98                              96   -0.23 9 70.4 204 
 621  0E  IAML     422 21.82         5.2 0.18                          70.4 204 
 626  0Z IP        422 16.65   47                         93   -0.63 8 98.3 174 
 626  0N ES        422 28.16                              93   -0.58 8 98.3 174 
 626  0E  IAML     422 28.49         3.2 0.21                          98.3 174 
 630  0Z IP        422 19.71   62                         92   -0.43 7  117 130 
 630  0N ES        422 33.47                              92   -0.23 7  117 130 
 630  0E  IAML     422 34.42         8.4 0.10                           117 130 
 631  0Z IP        422 26.15   76                         51   -0.32 5  161 160 
 631  0N ES        422 44.66                              51    0.01 5  161 160 
 631  0E  IAML     422 45.70         6.6 0.23                           161 160 
 632  0Z IP        422 28.64   56                         49    0.48 5  175 138 
 632  0N ES        422 49.00                              49    1.43 5  175 138 
 632  0E  IAML     422 50.12         7.9 0.31                           175 138 
                                                                                
 2017  4 5 0307 36.7 L  71.684 129.043 11.8  BER 11 0.5 1.0LBER 1.8CBER        1
 GAP=205        0.84       2.6    12.7  4.7  0.9158E+01  0.2398E+02 -0.4605E+01E
 ACTION:UP  20-12-21 00:10 OP:elen STATUS:               ID:20170405030618     I
 OLDACT:UP  20-12-20 01:44 OP:elen STATUS:               ID:20170405030618     3
 OLDACT:UP  20-12-16 21:32 OP:elen STATUS:               ID:20170405030618     3
 OLDACT:REG 20-12-13 13:11 OP:elen STATUS:               ID:20170405030618     3
 2017-04-05-0306-18M.NSN___039                                                 6
 STAT SP IPHASW D HRMM SECON CODA AMPLIT PERI AZIMU VELO AIN AR TRES W  DIS CAZ7
 632  0Z IP        3 7 39.22   48                        133   -0.2110 12.3 175 
 632  0N ES        3 7 42.07                             133    0.6410 12.3 175 
 632  0N  IAML     3 7 42.69        27.1 0.05                          12.3 175 
 630  0Z IP        3 7 44.47   65                        100   -0.42 9 50.2 331 
 630  0N ES        3 7 50.96                             100    0.08 9 50.2 331 
 630  0E  IAML     3 7 51.40         6.5 0.12                          50.2 331 
 629  0Z IP        3 7 46.88   48                         97   -0.49 8 66.2 295 
 629  0N ES        3 7 55.19                              97    0.04 8 66.2 295 
 629  0E  IAML     3 7 56.96         2.5 0.13                          66.2 295 
 631  0Z IP        3 7 47.53   58                         96   -0.60 8 71.0 244 
 631  0N ES        3 7 56.26                              96   -0.21 8 71.0 244 
 631  0N  IAML     3 7 56.72         6.8 0.14                          71.0 244 
 627  0Z IP        3 7 50.25   43                         94   -0.25 7 86.3 305 
 627  0N ES        3 8  1.00                              94    0.43 7 86.3 305 
 627  0E  IAML     3 8  1.36         3.5 0.22                          86.3 305 
 628  0Z IP        3 7 52.64   55                         93   -0.49 7  103 322 
 628  0N ES        3 8  5.23                              93    0.10 7  103 322 
 628  0E  IAML     3 8  7.84         6.4 0.21                           103 322 
 626  0Z IP        3 7 53.31   55                         93   -0.51 7  107 284 
 626  0N ES        3 8  6.21                              93   -0.10 7  107 284 
 626  0E  IAML     3 8  9.71         7.5 0.24                           107 284 
 624  0Z IP        3 7 57.38   55                         92    0.08 6  130 314 
 624  0N ES        3 8 13.29                              92    0.95 6  130 314 
 624  0N  IAML     3 8 15.76         6.6 0.19                           130 314 
 623  0Z IP        3 7 57.86   54                         92   -0.09 6  134 304 
 623  0N ES        3 8 14.04                              92    0.58 6  134 304 
 623  0E  IAML     3 8 17.30         2.9 0.24                           134 304 
 621  0Z IP        3 8  0.75   54                         52   -0.02 5  154 293 
 621  0N ES        3 8 19.13                              52    0.79 5  154 293 
 621  0E  IAML     3 8 21.93         2.3 0.14                           154 293 
 622  0Z IP        3 8  0.73   57                         52    0.08 5  154 305 
 622  0N ES        3 8 19.09                              52    0.96 5  154 305 
 622  0N  IAML     3 8 21.09         5.1 0.20                           154 305 
                                                                                
 2017  4 5 0307 36.8 L  71.678 129.033 11.8  BER 10 0.5 1.0LBER 2.0CBER        1
 GAP=211        0.93       3.6    14.7  5.5  0.2032E+02  0.2682E+02 -0.9115E+01E
 ACTION:UP  20-12-21 00:33 OP:elen STATUS:               ID:20170405030650     I
 OLDACT:UP  20-12-20 02:02 OP:elen STATUS:               ID:20170405030650     3
 OLDACT:UP  20-12-16 23:26 OP:elen STATUS:               ID:20170405030650     3
 OLDACT:REG 20-12-13 13:16 OP:elen STATUS:               ID:20170405030650     3
 2017-04-05-0306-50M.NSN___039                                                 6
 STAT SP IPHASW D HRMM SECON CODA AMPLIT PERI AZIMU VELO AIN AR TRES W  DIS CAZ7
 632  0Z IP        3 7 39.21   74                        134   -0.2310 11.7 173 
 632  0N ES        3 7 42.08                             134    0.7010 11.7 173 
 632  0N  IAML     3 7 42.69        26.9 0.04                          11.7 173 
 629  0Z IP        3 7 46.83   63                         97   -0.61 8 66.2 296 
 629  0N ES        3 7 55.19                              97   -0.03 8 66.2 296 
 629  0E  IAML     3 7 56.96         2.5 0.14                          66.2 296 
 631  0Z IP        3 7 47.53   78                         96   -0.58 8 70.4 245 
 631  0N ES        3 7 56.25                              96   -0.13 8 70.4 245 
 631  0N  IAML     3 7 56.72         6.9 0.15                          70.4 245 
 627  0Z IP        3 7 50.24   59                         94   -0.35 7 86.4 305 
 627  0N ES        3 8  1.01                              94    0.34 7 86.4 305 
 627  0E  IAML     3 8  1.36         3.5 0.22                          86.4 305 
 628  0Z IP        3 7 52.64   64                         93   -0.61 7  103 322 
 628  0N ES        3 8  5.21                              93   -0.08 7  103 322 
 628  0E  IAML     3 8  7.84         6.3 0.23                           103 322 
 626  0Z IP        3 7 53.30   55                         93   -0.56 7  107 284 
 626  0N ES        3 8  6.38                              93    0.04 7  107 284 
 626  0E  IAML     3 8  9.71         7.4 0.23                           107 284 
 624  0Z IP        3 7 57.28   56                         92   -0.13 6  130 315 
 624  0N ES        3 8 13.30                              92    0.83 6  130 315 
 624  0N  IAML     3 8 15.76         6.6 0.21                           130 315 
 623  0Z IP        3 7 58.00   61                         92   -0.04 6  134 304 
 623  0N ES        3 8 14.60                              92    1.04 6  134 304 
 623  0E  IAML     3 8 17.30         3.0 0.25                           134 304 
 622  0Z IP        3 8  0.73   76                         52   -0.01 5  154 305 
 622  0N ES        3 8 19.30                              52    1.07 5  154 305 
 622  0N  IAML     3 8 21.09         5.1 0.19                           154 305 
 621  0Z IP        3 8  0.61   76                         52   -0.23 5  154 293 
 621  0N ES        3 8 19.05                              52    0.65 5  154 293 
 621  0E  IAML     3 8 21.93         2.4 0.14                           154 293 
                                                                                
