 2016 10 9 0036 44.7 L  72.929 124.986  0.0  BER  8 0.4 1.3LBER 1.4CBER        1
 GAP=274        0.67       7.3     8.7  9.4 -0.2537E+02 -0.3175E+02  0.5575E+02E
 ACTION:ARG 20-04-11 14:12 OP:mn   STATUS:               ID:20161009003553     I
 2016-10-09-0035-53M.SIOLA_039                                                 6
 STAT SP IPHASW D HRMM SECON CODA AMPLIT PERI AZIMU VELO AIN AR TRES W  DIS CAZ7
 620  0Z IP     C  036 50.84   52                         53    0.1510 37.3 215 
 620  0N ES        036 55.36                              53    0.2910 37.3 215 
 620  0Z  IAML     036 56.58        17.0 0.10                          37.3 215 
 622  0Z IP     D  036 53.46   45                         53   -0.11 9 55.4 169 
 622  0N ES        036 59.76                              53   -0.29 9 55.4 169 
 622  0Z  IAML     037  0.06        25.9 0.26                          55.4 169 
 623  0Z IP     C  036 56.30   31                         53    0.09 9 72.1 159 
 623  0N ES        037  4.89                              53    0.27 9 72.1 159 
 623  0Z  IAML     037  5.81         6.2 0.16                          72.1 159 
 621  0Z IP     C  036 57.58   30                         53   -0.42 8 83.2 182 
 621  0N ES        037  7.24                              53   -0.48 8 83.2 182 
 621  0Z  IAML     037  8.38        14.7 0.25                          83.2 182 
 628  0Z IP     C  036 59.56   41                         53    0.03 8 93.0 128 
 628  0E ES        037 10.72                              53    0.35 8 93.0 128 
 628  0Z  IAML     037 11.62        12.3 0.18                          93.0 128 
 629  0Z IP     C  037  6.49   34                         53    0.09 6  136 144 
 629  0N ES        037 23.04                              53    0.79 6  136 144 
 629  0Z  IAML     037 23.64         7.5 0.18                           136 144 
 630  0Z IP     C  037  7.39   41                         53   -0.71 6  147 129 
 630  0E ES        037 24.67                              53   -0.52 6  147 129 
 630  0Z  IAML     037 26.44         5.9 0.13                           147 129 
 632  0Z IP     C  037 15.92   58                         36   -0.13 4  205 135 
 632  0E ES        037 39.74                              36    0.80 4  205 135 
 632  0Z  IAML     037 40.61         5.6 0.22                           205 135 
                                                                                
 2016 1124 2250 45.4 L  72.826 124.758  8.5  BER 13 0.2 3.2LBER 2.4CBER        1
 GAP=307        0.36       3.2     8.7  6.3 -0.1041E+02 -0.5899E+01 -0.2430E+00E
 ACTION:REG 18-11-20 00:07 OP:art  STATUS:               ID:20161124224841     I
 2016-11-24-2248-41M.arct__039                                                 6
 STAT SP IPHASW D HRMM SECON CODA AMPLIT PERI AZIMU VELO AIN AR TRES W  DIS CAZ7
 620  0Z  IAML    2250 54.68      4036.6 0.64                          23.6 215 
 622  0Z  IAML    2251  0.84      1684.0 0.68                          46.7 156 
 624  0Z IP       2250 55.59   88                         97   -0.0710 63.9 127 
 624  0Z  IAML    2251  2.86      1099.7 0.57                          63.9 127 
 624  0N ES       2251  3.09                              97   -0.0610 63.9 127 
 623  0Z  IAML    2251  8.33       561.1 0.56                          65.1 149 
 621  0Z IP       2250 57.01   92                         97    0.0810 71.8 176 
 621  0E ES       2251  5.43                              97    0.0810 71.8 176 
 621  0Z  IAML    2251  6.85      1077.3 0.86                          71.8 176 
 625  0Z  IAML    2251 13.05       292.7 0.58                          85.7 147 
 628  0E  IAML    2251 10.63       974.9 0.46                          92.8 120 
 627  0Z  IAML    2251 16.38       393.3 0.52                           109 136 
 626  0Z IP       2251  3.42   85                         81   -0.04 8  113 157 
 626  0N ES       2251 16.42                              81   -0.22 8  113 157 
 626  0Z  IAML    2251 16.82       523.9 0.33                           113 157 
 629  0E  IAML    2251 24.43       607.8 0.54                           132 138 
 629  0Z  IAML    2251 24.66       380.4 0.76                           132 138 
 630  0Z IP       2251  8.55   67                         81   -0.07 6  146 123 
 630  0N ES       2251 25.98                              81    0.41 6  146 123 
 630  0Z  IAML    2251 27.37       827.2 0.39                           146 123 
 631  0Z  IAML    2251 34.85       925.8 0.71                           181 151 
 632  0E  IAML    2251 40.33       812.0 0.94                           203 131 
                                                                                
 2017  3 2 1359 59.7 L  72.706 124.882  5.9  BER  7 0.3 0.5LBER 0.5CBER        1
 GAP=221        0.61       3.2     5.4  5.6  0.3768E+01 -0.1207E+02  0.1616E+01E
 ACTION:ARG 20-12-21 03:09 OP:mn   STATUS:               ID:20170302140000     I
 2017-03-02-1400-00M.a_____039                                                 6
 STAT SP IPHASW D HRMM SECON CODA AMPLIT PERI AZIMU VELO AIN AR TRES W  DIS CAZ7
 620  0Z IP     C 14 0  2.62   12                        107   -0.2010 18.7 252 
 620  0N ES       14 0  5.48                             107    0.3710 18.7 252 
 620  0Z  IAML    14 0  6.17        11.7 0.22                          18.7 252 
 623  0Z IP     C 14 0  7.90   23                         96   -0.06 9 51.6 145 
 623  0E ES       14 0 13.91                              96   -0.09 9 51.6 145 
 623  0Z  IAML    14 0 16.05         2.6 0.31                          51.6 145 
 624  0Z IP     C 14 0  7.90   21                         96   -0.30 9 53.1 118 
 624  0N ES       14 0 14.45                              96    0.02 9 53.1 118 
 624  0Z  IAML    14 0 14.90         4.1 0.20                          53.1 118 
 621  0Z IP     D 14 0  8.53   18                         95   -0.50 9 58.2 180 
 621  0E ES       14 0 15.65                              95   -0.20 9 58.2 180 
 621  0Z  IAML    14 0 15.67         1.7 0.16                          58.2 180 
 628  0Z IP     C 14 0 12.90   19                         94   -0.04 8 83.1 113 
 628  0Z  IAML    14 0 22.84         2.9 0.36                          83.1 113 
 628  0N ES       14 0 23.10                              94    0.47 8 83.1 113 
 626  0Z IP     D 14 0 15.66   34                         93    0.14 7 99.3 156 
 626  0N ES       14 0 27.55                              93    0.47 7 99.3 156 
 626  0Z  IAML    14 0 28.04         1.5 0.25                          99.3 156 
 631  0Z IP     C 14 0 26.12   35                         50    0.25 5  167 150 
 631  0N ES       14 0 45.20                              50    0.21 5  167 150 
 631  0Z  IAML    14 0 47.10         2.3 0.16                           167 150 
                                                                                
 2017  3 2 2335 19.4 L  71.889 130.572  1.6  BER  9 0.3 2.2LBER 1.6CBER        1
 GAP=309        0.47       3.8    11.8  4.5  0.6465E+01 -0.1203E+02 -0.2230E+01E
 ACTION:ARG 20-12-21 03:09 OP:mn   STATUS:               ID:20170302233415     I
 2017-03-02-2334-15M.a_____039                                                 6
 STAT SP IPHASW D HRMM SECON CODA AMPLIT PERI AZIMU VELO AIN AR TRES W  DIS CAZ7
 630  0Z IP     D 2335 31.87   44                         91   -0.3610 80.3 286 
 630  0N ES       2335 41.28                              91   -0.2810 80.3 286 
 630  0Z  IAML    2335 43.42        41.9 0.46                          80.3 286 
 629  0Z IP       2335 37.45   41                         91    0.03 9  113 274 
 629  0N ES       2335 50.48                              91   -0.05 9  113 274 
 629  0Z  IAML    2335 53.93        34.4 0.22                           113 274 
 627  0Z IP     C 2335 39.82   41                         91    0.29 8  126 283 
 627  0E ES       2335 54.80                              91    0.60 8  126 283 
 627  0Z  IAML    2335 56.48        53.7 0.35                           126 283 
 631  0Z IP     C 2335 40.09   51                         91    0.13 8  129 246 
 631  0N ES       2335 55.12                              91    0.18 8  129 246 
 631  0Z  IAML    2335 57.97        43.5 0.23                           129 246 
 628  0Z IP     D 2335 40.39   43                         91    0.23 8  130 298 
 628  0E ES       2335 55.68                              91    0.40 8  130 298 
 628  0Z  IAML    2335 57.32        76.3 0.22                           130 298 
 626  0Z IP     D 2335 44.27   42                         90   -0.20 6  157 272 
 626  0Z  IAML    2336  4.64        71.8 0.38                           157 272 
 625  0Z IP     C 2335 44.25   52                         90   -0.13 6  157 284 
 625  0Z  IAML    2336  5.34        33.8 0.29                           157 284 
 626  0N ES       2336  2.30                              90   -0.44 6  157 272 
 625  0N ES       2336  2.27                              90   -0.31 6  157 284 
 623  0Z IP     C 2335 46.55   82                         50   -0.13 6  172 289 
 623  0N ES       2336  6.29                              50   -0.28 6  172 289 
 623  0Z  IAML    2336 11.56        26.0 0.29                           172 289 
 621  0Z IP     C 2335 50.02   49                         48    0.20 5  198 282 
 621  0N ES       2336 12.41                              48    0.41 5  198 282 
 621  0Z  IAML    2336 17.02        22.5 0.24                           198 282 
                                                                                
 2017  3 4 2135  3.6 L  72.709 124.944  6.7  BER  7 0.4 1.3LBER 0.9CBER        1
 GAP=221        0.77       4.9     8.3  7.0  0.2172E+02 -0.2605E+02 -0.6309E+01E
 ACTION:ARG 20-12-21 03:09 OP:mn   STATUS:               ID:20170304213342     I
 2017-03-04-2133-42M.a_____039                                                 6
 STAT SP IPHASW D HRMM SECON CODA AMPLIT PERI AZIMU VELO AIN AR TRES W  DIS CAZ7
 620  0Z IP     C 2135  6.89   22                        107   -0.1710 20.7 253 
 620  0N ES       2135  9.93                             107    0.3210 20.7 253 
 620  0Z  IAML    2135 10.05        86.0 0.13                          20.7 253 
 622  0Z IP     C 2135  8.63   25                        101   -0.2010 32.2 157 
 622  0E ES       2135 12.74                             101    0.0810 32.2 157 
 622  0Z  IAML    2135 12.96        43.3 0.27                          32.2 157 
 623  0Z IP     D 2135 11.57   25                         97   -0.16 9 50.7 147 
 623  0E ES       2135 17.74                              97    0.06 9 50.7 147 
 623  0Z  IAML    2135 18.46        11.2 0.28                          50.7 147 
 625  0Z IP     C 2135 14.52   28                         95   -0.46 8 71.4 146 
 625  0N ES       2135 23.03                              95   -0.28 8 71.4 146 
 625  0Z  IAML    2135 24.79         5.7 0.30                          71.4 146 
 628  0Z IP     D 2135 16.21   34                         94   -0.36 8 81.4 114 
 628  0E ES       2135 26.07                              94    0.01 8 81.4 114 
 628  0Z  IAML    2135 27.53        11.0 0.31                          81.4 114 
 630  0Z IP     C 2135 25.48   35                         93    0.55 6  134 120 
 630  0E ES       2135 41.91                              93    1.38 6  134 120 
 630  0Z  IAML    2135 43.85        28.1 0.25                           134 120 
 631  0Z IP     C 2135 29.65   45                         50    0.06 5  166 150 
 631  0N ES       2135 48.84                              50    0.25 5  166 150 
 631  0Z  IAML    2135 50.49         7.9 0.16                           166 150 
                                                                                
 2017  3 7 0447 21.6 L  72.728 124.938  4.0  BER 10 0.5 1.7LBER 1.4CBER        1
 GAP=228        0.96       5.5     8.2  7.6  0.1702E+02 -0.1731E+02 -0.5531E+01E
 ACTION:ARG 20-12-21 03:09 OP:mn   STATUS:               ID:20170307044601     I
 2017-03-07-0446-01M.a_____039                                                 6
 STAT SP IPHASW D HRMM SECON CODA AMPLIT PERI AZIMU VELO AIN AR TRES W  DIS CAZ7
 620  0Z IP     C  447 25.10   28                        100    0.0110 21.3 247 
 620  0N ES        447 28.18                             100    0.5610 21.3 247 
 620  0Z  IAML     447 28.45       381.6 0.12                          21.3 247 
 622  0Z IP     D  447 26.62   34                         96   -0.5110 34.3 158 
 622  0E ES        447 30.86                              96   -0.3010 34.3 158 
 622  0Z  IAML     447 31.27        70.8 0.22                          34.3 158 
 623  0Z IP     D  447 29.64   30                         94   -0.39 9 52.7 148 
 623  0E ES        447 36.57                              94    0.39 9 52.7 148 
 623  0Z  IAML     447 37.13        23.8 0.25                          52.7 148 
 624  0Z IP     D  447 29.73   35                         94   -0.32 9 52.8 122 
 624  0E ES        447 36.78                              94    0.57 9 52.8 122 
 624  0Z  IAML     447 37.43        56.6 0.20                          52.8 122 
 625  0Z IP     C  447 32.96   49                         93   -0.33 8 73.3 147 
 625  0N ES        447 41.46                              93   -0.36 8 73.3 147 
 625  0Z  IAML     447 42.87        11.5 0.26                          73.3 147 
 628  0Z IP     D  447 34.30   39                         93   -0.45 8 82.5 115 
 628  0E ES        447 44.74                              93    0.40 8 82.5 115 
 628  0Z  IAML     447 45.61        24.7 0.35                          82.5 115 
 627  0Z IP     D  447 36.70   44                         92   -0.34 7 97.0 134 
 627  0N ES        447 48.67                              92    0.36 7 97.0 134 
 627  0Z  IAML     447 48.90        10.6 0.36                          97.0 134 
 630  0Z IP     C  447 43.03   38                         92   -0.12 6  136 121 
 630  0N ES        448  0.14                              92    1.26 6  136 121 
 630  0Z  IAML     448  1.93        78.9 0.21                           136 121 
 631  0Z IP     D  447 47.59   48                         50   -0.56 5  168 151 
 631  0E ES        448  7.03                              50   -0.49 5  168 151 
 631  0Z  IAML     448  9.42        22.3 0.20                           168 151 
 632  0Z IP     D  447 51.04   71                         48    0.17 4  191 130 
 632  0N ES        448 13.95                              48    1.73 4  191 130 
 632  0Z  IAML     448 14.76        14.6 0.48                           191 130 
                                                                                
 2017  313 0553 59.8 L  72.720 124.920  7.9  BER  9 0.4 1.0LBER 1.4CBER        1
 GAP=226        0.79       4.0     7.0  6.2  0.7662E+01 -0.2015E+02 -0.3332E+01E
 ACTION:ARG 20-12-21 03:09 OP:mn   STATUS:               ID:20170313055233     I
 2017-03-13-0552-33M.a_____039                                                 6
 STAT SP IPHASW D HRMM SECON CODA AMPLIT PERI AZIMU VELO AIN AR TRES W  DIS CAZ7
 620  0Z IP     C  554  3.31   33                        111    0.0010 20.4 249 
 620  0N ES        554  6.41                             111    0.5410 20.4 249 
 620  0Z  IAML     554  6.63        51.0 0.11                          20.4 249 
 622  0Z IP     D  554  4.88   42                        103   -0.4510 33.7 157 
 622  0E ES        554  9.34                             103   -0.0210 33.7 157 
 622  0Z  IAML     554  9.50        13.0 0.16                          33.7 157 
 623  0Z IP     D  554  8.18   38                         98   -0.04 9 52.2 147 
 623  0E ES        554 14.89                              98    0.53 9 52.2 147 
 623  0Z  IAML     554 16.90         6.3 0.22                          52.2 147 
 624  0Z IP     D  554  8.08   38                         98   -0.24 9 52.8 120 
 624  0N ES        554 14.63                              98    0.10 9 52.8 120 
 624  0Z  IAML     554 16.07        11.1 0.14                          52.8 120 
 621  0Z IP     C  554  8.88   33                         97   -0.56 9 59.8 181 
 621  0E ES        554 16.03                              97   -0.45 9 59.8 181 
 621  0Z  IAML     554 16.67         4.6 0.19                          59.8 181 
 628  0Z IP     D  554 12.56   44                         95   -0.45 8 82.6 115 
 628  0N ES        554 22.87                              95    0.22 8 82.6 115 
 628  0Z  IAML     554 24.27         6.2 0.16                          82.6 115 
 627  0Z IP     D  554 15.02   50                         94   -0.22 7 96.8 133 
 627  0N ES        554 26.90                              94    0.39 7 96.8 133 
 627  0Z  IAML     554 31.39         2.7 0.14                          96.8 133 
 630  0Z IP     D  554 21.36   40                         81    0.01 6  136 120 
 630  0N ES        554 37.94                              81    0.86 6  136 120 
 630  0Z  IAML     554 40.24        17.6 0.22                           136 120 
 631  0Z IP     D  554 25.86   55                         48   -0.02 5  168 150 
 631  0E ES        554 45.43                              48    0.52 5  168 150 
 631  0Z  IAML     554 47.39         5.4 0.37                           168 150 
                                                                                
 2017  313 0809  6.0 L  72.451 125.063 16.1  BER  7 0.3 1.2LBER 1.3CBER        1
 GAP=132        0.68       1.9     5.8  6.9  0.3339E+01 -0.9419E+01 -0.1120E+01E
 ACTION:ARG 20-12-21 03:09 OP:mn   STATUS:               ID:20170313080741     I
 2017-03-13-0807-41M.a_____039                                                 6
 STAT SP IPHASW D HRMM SECON CODA AMPLIT PERI AZIMU VELO AIN AR TRES W  DIS CAZ7
 623  0Z IP     D  8 9 10.61   38                        119   -0.4510 27.4 120 
 623  0E ES        8 9 14.56                             119   -0.1810 27.4 120 
 623  0Z  IAML     8 9 15.47        41.9 0.23                          27.4 120 
 621  0Z IP     D  8 9 11.20   33                        117   -0.3110 30.4 191 
 621  0E ES        8 9 15.58                             117    0.0610 30.4 191 
 621  0Z  IAML     8 9 17.34        23.5 0.15                          30.4 191 
 620  0Z IP     D  8 9 11.72   34                        115   -0.1210 33.0 314 
 620  0N ES        8 9 16.45                             115    0.3710 33.0 314 
 620  0Z  IAML     8 9 17.87        44.7 0.14                          33.0 314 
 624  0Z IP     D  8 9 12.75   25                        110   -0.2410 40.9  86 
 624  0N ES        8 9 18.26                             110    0.1910 40.9  86 
 624  0Z  IAML     8 9 18.61        42.4 0.14                          40.9  86 
 625  0Z IP     C  8 9 13.68   53                        107   -0.22 9 47.0 131 
 625  0N ES        8 9 19.84                             107    0.20 9 47.0 131 
 625  0Z  IAML     8 9 21.34        10.0 0.26                          47.0 131 
 628  0Z IP     D  8 9 17.39   42                        100   -0.07 8 70.5  94 
 628  0N ES        8 9 26.13                             100    0.32 8 70.5  94 
 628  0Z  IAML     8 9 27.51        18.6 0.24                          70.5  94 
 626  0Z IP     D  8 9 17.71   45                        100    0.13 8 71.1 152 
 626  0E ES        8 9 26.64                             100    0.63 8 71.1 152 
 626  0Z  IAML     8 9 26.87         6.5 0.21                          71.1 152 
                                                                                
