 2017  423 2313 42.5 L  72.610 124.848 18.4  BER 12 0.5 1.3LBER 2.4CBER        1
 GAP=179        0.90       3.5     8.7  3.1  0.1178E+02 -0.9489E+01  0.1667E+01E
 ACTION:UP  21-01-01 14:08 OP:elen STATUS:               ID:20170423231216     I
 OLDACT:REG 20-12-30 23:59 OP:elen STATUS:               ID:20170423231216     3
 2017-04-23-2312-16M.NSN___036                                                 6
 STAT SP IPHASW D HRMM SECON CODA AMPLIT PERI AZIMU VELO AIN AR TRES W  DIS CAZ7
 620  0Z IP       2313 46.48   80                        136   -0.0710 17.4 287 
 620  0N ES       2313 50.18                             136    0.7010 17.4 287 
 620  0E  IAML    2313 50.37        79.3 0.10                          17.4 287 
 622  0Z IP       2313 47.05   83                        126   -0.3310 24.4 140 
 622  0N ES       2313 51.23                             126    0.3210 24.4 140 
 622  0N  IAML    2313 52.56        48.0 0.16                          24.4 140 
 623  0Z IP       2313 49.73   80                        111   -0.37 9 44.1 136 
 623  0N ES       2313 55.88                             111    0.26 9 44.1 136 
 623  0E  IAML    2313 56.62        82.7 0.25                          44.1 136 
 621  0Z IP       2313 50.11   78                        110   -0.53 9 47.6 178 
 621  0N ES       2313 56.52                             110   -0.03 9 47.6 178 
 621  0E  IAML    2313 56.54        16.1 0.14                          47.6 178 
 624  0Z IP       2313 50.63   84                        109   -0.35 9 50.1 107 
 624  0N ES       2313 57.40                             109    0.26 9 50.1 107 
 624  0E  IAML    2313 58.06        49.5 0.19                          50.1 107 
 625  0Z IP       2313 52.86   87                        104   -0.29 8 64.6 138 
 625  0E ES       2314  1.25                             104    0.35 8 64.6 138 
 625  0N  IAML    2314  3.61         7.8 0.27                          64.6 138 
 628  0Z IP       2313 54.98   89                        101   -0.62 8 80.6 106 
 628  0N ES       2314  4.93                             101   -0.21 8 80.6 106 
 628  0N  IAML    2314  6.54        12.5 0.19                          80.6 106 
 626  0Z IP       2313 56.45   85                         70   -0.63 7 90.1 153 
 626  0N ES       2314  7.49                              70   -0.20 7 90.1 153 
 626  0E  IAML    2314  8.44        13.9 0.16                          90.1 153 
 627  0Z IP       2313 56.83   83                         70   -0.31 7 90.8 126 
 627  0E ES       2314  8.15                              70    0.35 7 90.8 126 
 627  0E  IAML    2314  9.54         4.7 0.16                          90.8 126 
 629  0Z IP       2314  0.22   88                         70   -0.20 7  113 131 
 629  0N ES       2314 14.02                              70    0.56 7  113 131 
 629  0E  IAML    2314 16.94         4.7 0.22                           113 131 
 630  0Z IP       2314  3.25   84                         70    0.07 6  132 115 
 630  0N ES       2314 19.30                              70    1.04 6  132 115 
 630  0E  IAML    2314 20.72         6.7 0.13                           132 115 
 631  0Z IP       2314  6.59   87                         49    0.15 5  158 147 
 631  0N ES       2314 25.05                              49    1.17 5  158 147 
 631  0E  IAML    2314 26.89        13.4 0.18                           158 147 
                                                                                
 2017  424 0609 59.2 L  71.950 128.139  0.5  BER 12 0.9 1.2LBER 2.3CBER        1
 GAP=183        1.72       4.4    17.3999.9 -0.7595E+01  0.1154E+05  0.1263E+04E
 ACTION:UP  21-01-01 16:20 OP:elen STATUS:               ID:20170424060854     I
 OLDACT:REG 20-12-31 14:11 OP:elen STATUS:               ID:20170424060854     3
 2017-04-24-0608-54M.NSN___036                                                 6
 STAT SP IPHASW D HRMM SECON CODA AMPLIT PERI AZIMU VELO AIN AR TRES W  DIS CAZ7
 630  0Z IP        610  1.51   71                         90   -0.2310 15.4  25 
 630  0N ES        610  3.92                              90    0.3610 15.4  25 
 630  0E  IAML     610  4.34       168.7 0.18                          15.4  25 
 629  0Z IP        610  2.98   73                         90   -0.8710 28.7 266 
 629  0N ES        610  6.54                              90   -0.6610 28.7 266 
 629  0E  IAML     610  7.12        78.2 0.26                          28.7 266 
 627  0Z IP        610  5.40   71                         90   -0.88 9 44.0 296 
 627  0E ES        610 10.67                              90   -0.74 9 44.0 296 
 627  0N  IAML     610 12.85        27.8 0.40                          44.0 296 
 628  0Z IP        610  8.28   86                         90   -0.63 8 60.6 326 
 628  0N ES        610 15.63                              90   -0.34 8 60.6 326 
 628  0N  IAML     610 26.94         8.2 0.10                          60.6 326 
 631  0Z IP        610 10.57   81                         90    0.33 8 69.0 207 
 631  0N ES        610 19.55                              90    1.29 8 69.0 207 
 631  0N  IAML     610 19.79         8.9 0.22                          69.0 207 
 626  0Z IP        610 10.19   78                         90   -0.74 8 73.2 266 
 626  0N ES        610 19.01                              90   -0.44 8 73.2 266 
 626  0N  IAML     610 22.80         7.0 0.14                          73.2 266 
 625  0Z IP        610 10.39   83                         90   -0.67 8 74.2 291 
 625  0E ES        610 19.34                              90   -0.35 8 74.2 291 
 625  0E  IAML     610 20.74         5.6 0.26                          74.2 291 
 624  0Z IP        610 12.80   86                         90   -0.22 7 86.5 314 
 624  0N ES        610 23.48                              90    0.40 7 86.5 314 
 624  0N  IAML     610 27.07        10.3 0.17                          86.5 314 
 623  0Z IP        610 14.90   91                         90    1.07 7 91.6 298 
 623  0N ES        610 27.08                              90    2.61 7 91.6 298 
 623  0N  IAML     610 31.83         3.8 0.12                          91.6 298 
 622  0Z IP        610 17.30   76                         90    0.41 7  111 301 
 622  0N ES        610 31.19                              90    1.42 7  111 301 
 622  0N  IAML     610 37.03         6.5 0.14                           111 301 
 621  0Z IP        610 17.61   77                         90    0.10 7  115 285 
 621  0N ES        610 31.72                              90    0.87 7  115 285 
 621  0E  IAML     610 35.97         6.1 0.30                           115 285 
 620  0Z IP        610 23.31   89                         90    0.12 5  151 303 
 620  0N ES        610 41.60                              90    0.93 5  151 303 
 620  0N  IAML     610 44.92         7.6 0.19                           151 303 
                                                                                
 2017  424 0755 27.5 L  71.950 128.141  0.0  BER 12 0.9 1.0LBER 1.9CBER        1
 GAP=183        1.73       4.6    16.0 11.9 -0.2757E+02  0.8140E+02 -0.1637E+02E
 ACTION:UP  21-01-01 17:36 OP:elen STATUS:               ID:20170424075403     I
 OLDACT:REG 20-12-31 14:25 OP:elen STATUS:               ID:20170424075403     3
 2017-04-24-0754-03M.NSN___036                                                 6
 STAT SP IPHASW D HRMM SECON CODA AMPLIT PERI AZIMU VELO AIN AR TRES W  DIS CAZ7
 630  0Z IP        755 29.80   68                         53   -0.2310 15.3  24 
 630  0E ES        755 32.18                              53    0.3010 15.3  24 
 630  0E  IAML     755 32.63       115.0 0.18                          15.3  24 
 629  0Z IP        755 31.30   53                         53   -0.8510 28.7 266 
 629  0N ES        755 34.77                              53   -0.7810 28.7 266 
 629  0N  IAML     755 35.07        49.0 0.23                          28.7 266 
 627  0Z IP        755 33.69   52                         53   -0.89 9 44.1 296 
 627  0E ES        755 38.89                              53   -0.87 9 44.1 296 
 627  0N  IAML     755 41.19        14.0 0.31                          44.1 296 
 628  0Z IP        755 36.46   55                         53   -0.76 8 60.6 326 
 628  0E ES        755 43.62                              53   -0.69 8 60.6 326 
 628  0E  IAML     755 45.58        14.0 0.21                          60.6 326 
 631  0Z IP        755 38.85   67                         53    0.31 8 69.0 207 
 631  0N ES        755 47.74                              53    1.13 8 69.0 207 
 631  0N  IAML     755 48.14         6.1 0.32                          69.0 207 
 626  0Z IP        755 38.68   62                         53   -0.55 8 73.3 266 
 626  0N ES        755 47.42                              53   -0.38 8 73.3 266 
 626  0N  IAML     755 51.10         3.9 0.13                          73.3 266 
 625  0Z IP        755 38.85   56                         53   -0.52 8 74.3 291 
 625  0N ES        755 47.68                              53   -0.36 8 74.3 291 
 625  0N  IAML     755 51.95         4.1 0.42                          74.3 291 
 624  0Z IP        755 41.45   57                         53    0.12 7 86.6 314 
 624  0N ES        755 52.13                              53    0.71 7 86.6 314 
 624  0E  IAML     755 54.00        11.9 0.24                          86.6 314 
 623  0Z IP        755 43.24   56                         53    1.11 7 91.7 298 
 623  0N ES        755 55.29                              53    2.47 7 91.7 298 
 623  0N  IAML     756  1.08         3.6 0.38                          91.7 298 
 622  0Z IP        755 45.69   58                         53    0.49 7  111 301 
 622  0N ES        755 59.48                              53    1.36 7  111 301 
 622  0N  IAML     756  1.67         4.1 0.19                           111 301 
 621  0Z IP        755 45.96   59                         53    0.14 6  115 285 
 621  0N ES        755 59.95                              53    0.75 6  115 285 
 621  0N  IAML     756  5.48         3.1 0.21                           115 285 
 620  0Z IP        755 52.00   59                         53    0.50 5  151 303 
 620  0E ES        756 10.32                              53    1.30 5  151 303 
 620  0E  IAML     756 13.25         5.1 0.22                           151 303 
                                                                                
 2017  424 0755 27.2 L  71.938 128.154  0.0  BER 12 0.8 1.0LBER 2.0CBER        1
 GAP=187        1.54       4.1    14.9 10.7 -0.2310E+02  0.7089E+02 -0.1370E+02E
 ACTION:UP  21-01-01 23:40 OP:elen STATUS:               ID:20170424075442     I
 OLDACT:REG 20-12-31 14:32 OP:elen STATUS:               ID:20170424075442     3
 2017-04-24-0754-42M.NSN___036                                                 6
 STAT SP IPHASW D HRMM SECON CODA AMPLIT PERI AZIMU VELO AIN AR TRES W  DIS CAZ7
 630  0Z IP        755 29.78   75                         53   -0.1510 16.4  21 
 630  0N ES        755 32.14                              53    0.2310 16.4  21 
 630  0E  IAML     755 32.63       115.4 0.18                          16.4  21 
 629  0Z IP        755 31.32   57                         53   -0.6310 29.1 269 
 629  0N ES        755 34.80                              53   -0.5910 29.1 269 
 629  0N  IAML     755 34.96        49.6 0.24                          29.1 269 
 627  0Z IP        755 33.68   56                         53   -0.80 9 45.1 297 
 627  0E ES        755 38.90                              53   -0.86 9 45.1 297 
 627  0N  IAML     755 41.19        14.3 0.31                          45.1 297 
 628  0Z IP        755 36.50   55                         53   -0.67 8 62.0 327 
 628  0N ES        755 43.81                              53   -0.61 8 62.0 327 
 628  0E  IAML     755 45.58        14.0 0.21                          62.0 327 
 631  0Z IP        755 38.33   80                         53    0.21 8 68.0 208 
 631  0N ES        755 47.05                              53    0.98 8 68.0 208 
 631  0N  IAML     755 48.14         6.1 0.32                          68.0 208 
 626  0Z IP        755 38.49   63                         53   -0.53 8 73.6 267 
 626  0N ES        755 47.25                              53   -0.38 8 73.6 267 
 626  0N  IAML     755 51.10         3.9 0.12                          73.6 267 
 625  0Z IP        755 38.59   66                         53   -0.66 8 75.2 292 
 625  0N ES        755 47.42                              53   -0.60 8 75.2 292 
 625  0N  IAML     755 51.95         4.2 0.42                          75.2 292 
 624  0Z IP        755 41.50   61                         53    0.24 7 87.8 314 
 624  0N ES        755 52.46                              53    0.96 7 87.8 314 
 624  0E  IAML     755 54.00        12.0 0.25                          87.8 314 
 623  0Z IP        755 42.72   60                         53    0.69 7 92.7 299 
 623  0E ES        755 54.61                              53    1.77 7 92.7 299 
 623  0N  IAML     756  0.89         2.9 0.25                          92.7 299 
 622  0Z IP        755 45.72   60                         53    0.62 7  112 301 
 622  0E ES        755 59.80                              53    1.65 7  112 301 
 622  0N  IAML     756  4.31         4.0 0.25                           112 301 
 621  0Z IP        755 45.89   59                         53    0.21 6  116 285 
 621  0N ES        756  0.04                              53    0.90 6  116 285 
 621  0N  IAML     756  5.49         3.0 0.20                           116 285 
 620  0Z IP        755 51.75   59                         53    0.34 5  152 304 
 620  0N ES        756 10.20                              53    1.14 5  152 304 
 620  0E  IAML     756 13.25         5.0 0.22                           152 304 
                                                                                
 2017  425 0652 23.9 L  71.952 128.132  0.0  BER  9 0.8 1.2LBER 2.1CBER        1
 GAP=181        1.70       4.6    16.0 12.5 -0.2666E+02  0.7507E+02 -0.1615E+02E
 ACTION:UP  21-01-02 01:38 OP:elen STATUS:               ID:20170425065114     I
 OLDACT:REG 20-12-31 19:06 OP:elen STATUS:               ID:20170425065114     3
 2017-04-25-0651-14M.NSN___027                                                 6
 STAT SP IPHASW D HRMM SECON CODA AMPLIT PERI AZIMU VELO AIN AR TRES W  DIS CAZ7
 630  0Z IP        652 26.18   85                         53   -0.2410 15.2  26 
 630  0E ES        652 28.80                              53    0.5410 15.2  26 
 630  0E  IAML     652 29.11       220.3 0.20                          15.2  26 
 629  0Z IP        652 27.55   63                         53   -0.9710 28.5 265 
 629  0N ES        652 31.16                              53   -0.7310 28.5 265 
 629  0E  IAML     652 31.82        95.0 0.25                          28.5 265 
 627  0Z IP        652 30.04   64                         53   -0.89 9 43.7 295 
 627  0N ES        652 35.52                              53   -0.54 9 43.7 295 
 627  0E  IAML     652 38.27        30.9 0.53                          43.7 295 
 628  0Z IP        652 32.83   74                         53   -0.73 8 60.3 326 
 628  0N ES        652 40.31                              53   -0.30 8 60.3 326 
 628  0N  IAML     652 47.06        11.6 0.14                          60.3 326 
 631  0Z IP        652 35.05   90                         53    0.08 8 69.1 207 
 631  0N ES        652 44.17                              53    1.13 8 69.1 207 
 631  0N  IAML     652 44.52        10.0 0.33                          69.1 207 
 625  0Z IP        652 35.26   67                         53   -0.46 8 73.9 291 
 625  0N ES        652 44.57                              53    0.22 8 73.9 291 
 625  0N  IAML     652 48.33         6.8 0.40                          73.9 291 
 624  0Z IP        652 37.49   63                         53   -0.18 8 86.2 314 
 624  0N ES        652 48.42                              53    0.70 8 86.2 314 
 624  0N  IAML     652 50.56        18.4 0.21                          86.2 314 
 623  0Z IP        652 39.13   64                         53    0.65 7 91.3 298 
 623  0E ES        652 51.26                              53    2.14 7 91.3 298 
 623  0N  IAML     652 57.27         5.5 0.26                          91.3 298 
 621  0Z IP        652 42.42   59                         53    0.25 7  114 285 
 621  0N ES        652 56.94                              53    1.43 7  114 285 
 621  0E  IAML     653  0.65         5.5 0.17                           114 285 
                                                                                
 2017  426 1834 24.0 L  71.565 131.051  0.0  BER  8 0.5 1.2LBER 2.2CBER        1
 GAP=317        0.53       5.5    20.9  7.5 -0.1328E+02  0.9984E+02 -0.1319E+02E
 ACTION:UP  21-01-02 21:22 OP:elen STATUS:               ID:20170426183339     I
 OLDACT:REG 21-01-02 11:40 OP:elen STATUS:               ID:20170426183339     3
 2017-04-26-1833-39M.NSN___024                                                 6
 STAT SP IPHASW D HRMM SECON CODA AMPLIT PERI AZIMU VELO AIN AR TRES W  DIS CAZ7
 630  0Z IP       1834 41.31   72                         53   -0.3210  111 302 
 630  0N ES       1834 54.16                              53   -0.3510  111 302 
 630  0E  IAML    1834 56.40         3.7 0.22                           111 302 
 631  0Z IP       1834 45.48   84                         53   -0.20 9  136 264 
 631  0N ES       1835  1.35                              53   -0.16 9  136 264 
 631  0N  IAML    1835  2.99        10.1 0.20                           136 264 
 629  0Z IP       1834 45.67   68                         53   -0.11 9  137 289 
 629  0N ES       1835  1.72                              53    0.04 9  137 289 
 629  0N  IAML    1835  2.63         3.8 0.41                           137 289 
 627  0Z IP       1834 48.76   81                         53    0.20 8  154 295 
 627  0N ES       1835  7.02                              53    0.53 8  154 295 
 627  0N  IAML    1835  8.71         4.0 0.27                           154 295 
 628  0Z IP       1834 49.82   73                         53   -0.24 7  164 306 
 628  0E ES       1835  8.91                              53   -0.18 7  164 306 
 628  0N  IAML    1835 12.51         4.1 0.20                           164 306 
 625  0Z IP       1834 53.04   71                         36    0.13 6  185 294 
 625  0N ES       1835 14.44                              36    0.42 6  185 294 
 625  0N  IAML    1835 19.40         2.1 0.26                           185 294 
 624  0Z IP       1834 54.00   74                         36    0.06 6  193 304 
 624  0N ES       1835 16.12                              36    0.32 6  193 304 
 624  0N  IAML    1835 21.58         4.0 0.26                           193 304 
 621  0Z IP       1834 58.65   71                         36    0.98 4  225 291 
 621  0E ES       1835 24.18                              36    1.93 4  225 291 
 621  0N  IAML    1835 30.39         1.7 0.25                           225 291 
                                                                                
