 2016  819 0959 26.9 L  71.928 129.994  0.0  BER 13 0.2 4.0LBER                1
 GAP=280        0.47       2.0    19.0  7.0  0.2241E+02  0.1159E+03  0.7091E+01E
 ACTION:REG 25-04-10 18:57 OP:mn   STATUS:               ID:20160819095900     I
 2016_08_19T09-59-00.mseed                                                     6
 STAT SP IPHASW D HRMM SECON CODA AMPLIT PERI AZIMU VELO AIN AR TRES W  DIS CAZ7
 632  0E IP        959 35.00                              53   -0.0410 50.9 220 
 632  0N ES        959 40.95                              53   -0.0710 50.9 220 
 632  0Z  IAML     959 42.18      3428.0 0.50                          50.9 220 
 630  0Z IP        959 35.97                              53   -0.4910 59.9 287 
 630  0N ES        959 42.95                              53   -0.5110 59.9 287 
 630  0Z  IAML     959 46.27      6335.7 0.50                          59.9 287 
 629  0Z IP        959 41.61                              53   -0.07 8 92.9 271 
 629  0N ES        959 52.54                              53    0.04 8 92.9 271 
 629  0Z  IAML     959 54.21      5389.1 0.68                          92.9 271 
 627  0Z IP        959 43.92                              53    0.17 8  106 283 
 627  0N ES        959 56.12                              53    0.04 8  106 283 
 627  0Z  IAML     959 57.55      6763.1 0.60                           106 283 
 628  0Z IP        959 44.64                              53    0.13 8  111 300 
 628  0N ES        959 57.57                              53    0.17 8  111 300 
 628  0Z  IAML     959 57.77     13247.3 0.30                           111 300 
 631  0Z IP        959 45.23                              53    0.33 7  113 240 
 631  0N ES        959 58.28                              53    0.22 7  113 240 
 631  0Z  IAML    10 0  1.30      2476.7 0.62                           113 240 
 625  0Z IP        959 48.89                              53    0.29 7  137 283 
 625  0N ES       10 0  4.75                              53    0.28 7  137 283 
 626  0Z IP        959 48.58                              53   -0.17 7  137 270 
 626  0N ES       10 0  4.52                              53   -0.20 7  137 270 
 626  0Z  IAML    10 0 10.31      1874.4 0.66                           137 270 
 624  0Z IP        959 49.30                              53    0.00 6  141 297 
 624  0E ES       10 0  5.97                              53    0.30 6  141 297 
 624  0Z  IAML    10 0  8.14      5848.4 0.52                           141 297 
 623  0Z IP        959 51.25                              53    0.24 6  152 289 
 623  0N ES       10 0  9.06                              53    0.43 6  152 289 
 623  0Z  IAML    10 0 14.10      3316.0 0.94                           152 289 
 622  0Z  IAML    10 0 18.96      1930.7 0.68                           170 292 
 621  0Z IP        959 55.04                              36    0.02 5  178 282 
 621  0N ES       10 0 15.56                              36   -0.01 5  178 282 
 621  0Z  IAML    10 0 16.65      3575.6 0.48                           178 282 
 620  0Z  IAML    10 0 30.78      4656.0 8.67                           208 296 
                                                                                
 2016  820 1506 15.1 L  71.950 130.028  0.0  BER  9 0.4 1.5LBER 1.6CBER        1
 GAP=283        0.61       3.6    29.6 10.5  0.7633E+02  0.2703E+03  0.2315E+02E
 ACTION:ARG 20-05-11 21:31 OP:mn   STATUS:               ID:20160820150518     I
 2016-08-20-1505-18M.arct__039                                                 6
 STAT SP IPHASW D HRMM SECON CODA AMPLIT PERI AZIMU VELO AIN AR TRES W  DIS CAZ7
 632  0Z IP     C 15 6 23.53   49                         53   -0.2110 53.6 219 
 632  0N ES       15 6 30.12                              53    0.1110 53.6 219 
 632  0Z  IAML    15 6 31.02        32.4 0.08                          53.6 219 
 630  0Z IP     C 15 6 24.19   55                         53   -0.6210 60.4 284 
 630  0N ES       15 6 31.47                              53   -0.4010 60.4 284 
 630  0Z  IAML    15 6 34.99        14.1 0.08                          60.4 284 
 627  0Z IP     D 15 6 32.55   41                         53    0.42 8  107 282 
 627  0N ES       15 6 44.86                              53    0.32 8  107 282 
 627  0Z  IAML    15 6 45.43        10.4 0.14                           107 282 
 625  0Z IP     D 15 6 37.63   46                         53    0.66 7  137 282 
 625  0N ES       15 6 53.28                              53    0.37 7  137 282 
 625  0Z  IAML    15 6 53.90         9.9 0.22                           137 282 
 626  0Z IP     D 15 6 37.20   50                         53   -0.02 7  139 269 
 626  0N ES       15 6 53.15                              53   -0.18 7  139 269 
 626  0Z  IAML    15 6 56.02        10.3 0.26                           139 269 
 624  0Z IP     C 15 6 37.56   41                         53   -0.01 6  141 296 
 624  0N ES       15 6 53.82                              53   -0.12 6  141 296 
 624  0Z  IAML    15 6 57.73        12.9 0.17                           141 296 
 623  0Z IP     D 15 6 39.94   52                         53    0.60 6  152 288 
 623  0N ES       15 6 57.35                              53    0.34 6  152 288 
 623  0Z  IAML    15 7  1.67         8.8 0.62                           152 288 
 622  0Z IP     C 15 6 42.27   56                         53    0.08 5  170 291 
 622  0E ES       15 7  1.51                              53   -0.43 5  170 291 
 622  0Z  IAML    15 7  4.89         5.2 0.19                           170 291 
 621  0Z IP     C 15 6 43.48   47                         36    0.10 5  179 281 
 621  0N ES       15 7  4.13                              36    0.14 5  179 281 
 621  0Z  IAML    15 7  5.78         9.4 0.32                           179 281 
                                                                                
 2016  822 1318 49.8 L  72.376 127.112 16.4  BER  8 0.2 0.6LBER 1.4CBER        1
 GAP=105        0.47       1.6     4.0  2.5  0.2489E+01  0.3552E+01  0.1620E+01E
 ACTION:UP  21-01-08 22:12 OP:elen STATUS:               ID:20160822131743     I
 OLDACT:REG 21-01-08 15:24 OP:elen STATUS:               ID:20160822131743     3
 2016-08-22-1317-43M.arct__039                                                 6
 STAT SP IPHASW D HRMM SECON CODA AMPLIT PERI AZIMU VELO AIN AR TRES W  DIS CAZ7
 628  0Z IP       1318 52.33   40                        170   -0.1610 2.88  24 
 628  0N ES       1318 54.47                             170    0.0410 2.88  24 
 628  0N  IAML    1318 54.58        79.2 0.14                          2.88  24 
 627  0Z IP       1318 54.86   31                        118   -0.30 9 29.3 189 
 627  0E ES       1318 58.85                             118   -0.20 9 29.3 189 
 627  0E  IAML    1318 59.21        13.9 0.14                          29.3 189 
 624  0Z IP       1318 55.20   43                        117   -0.11 9 30.3 292 
 624  0N ES       1318 59.45                             117    0.15 9 30.3 292 
 624  0N  IAML    1319  0.17         9.4 0.19                          30.3 292 
 625  0Z IP       1318 56.77   43                        110   -0.06 9 41.0 237 
 625  0N ES       1319  2.17                             110    0.24 9 41.0 237 
 625  0E  IAML    1319  5.64         3.4 0.36                          41.0 237 
 623  0Z IP       1318 57.42   36                        108   -0.17 9 46.1 264 
 623  0E ES       1319  3.30                             108    0.05 9 46.1 264 
 623  0E  IAML    1319  3.64         2.5 0.18                          46.1 264 
 630  0Z IP       1318 58.72   48                        105    0.06 8 53.3 129 
 630  0E ES       1319  5.54                             105    0.44 8 53.3 129 
 630  0E  IAML    1319  6.59         4.5 0.17                          53.3 129 
 622  0Z IP       1318 59.79   39                        103   -0.06 8 61.2 278 
 622  0N ES       1319  7.38                             103    0.22 8 61.2 278 
 622  0N  IAML    1319  8.26         2.5 0.11                          61.2 278 
 626  0Z IP       1319  0.46   48                        102   -0.13 8 65.8 215 
 626  0N ES       1319  8.56                             102    0.12 8 65.8 215 
 626  0N  IAML    1319 10.91         1.7 0.06                          65.8 215 
                                                                                
 2016  824 1510 30.0 L  71.569 130.241  0.0  BER  9 0.5 1.5LBER 1.7CBER        1
 GAP=309        0.65       5.4    22.5  8.5 -0.5964E+02  0.1382E+03 -0.2368E+02E
 ACTION:UP  21-01-08 17:48 OP:elen STATUS:               ID:20160824150925     I
 OLDACT:REG 21-01-08 15:28 OP:elen STATUS:               ID:20160824150925     3
 2016-08-24-1509-25M.arct__039                                                 6
 STAT SP IPHASW D HRMM SECON CODA AMPLIT PERI AZIMU VELO AIN AR TRES W  DIS CAZ7
 632  0Z IP       1510 36.22   32                         53   -0.3910 41.2 271 
 632  0N ES       1510 40.99                              53   -0.4610 41.2 271 
 632  0E  IAML    1510 41.82        57.3 0.16                          41.2 271 
 631  0Z IP       1510 47.36   47                         53    0.19 7  108 261 
 631  0N ES       1511  0.30                              53    0.58 7  108 261 
 631  0N  IAML    1511  4.84        17.3 0.27                           108 261 
 628  0Z IP       1510 52.42   50                         53   -0.06 6  141 312 
 628  0E ES       1511  9.04                              53    0.12 6  141 312 
 628  0N  IAML    1511  9.68        11.8 0.34                           141 312 
 626  0Z IP       1510 54.14   56                         53    0.05 6  151 286 
 626  0N ES       1511 11.96                              53    0.26 6  151 286 
 626  0N  IAML    1511 16.05         4.8 0.22                           151 286 
 625  0Z IP       1510 55.33   54                         53    0.12 5  159 297 
 625  0N ES       1511 14.04                              53    0.40 5  159 297 
 625  0N  IAML    1511 16.35         7.3 0.37                           159 297 
 624  0Z IP       1510 56.49   54                         53   -0.52 5  170 308 
 624  0N ES       1511 16.04                              53   -0.72 5  170 308 
 624  0N  IAML    1511 18.49        10.4 0.23                           170 308 
 623  0Z IP       1510 57.94   60                         36    0.02 5  177 301 
 623  0E ES       1511 18.61                              36    0.28 5  177 301 
 623  0N  IAML    1511 23.33         3.6 0.31                           177 301 
 622  0Z IP       1511  0.26   58                         36    0.07 4  196 302 
 622  0N ES       1511 22.56                              36    0.30 4  196 302 
 622  0N  IAML    1511 25.19         6.4 0.26                           196 302 
 621  0Z IP       1511  1.22   61                         36    0.72 4  198 293 
 621  0N ES       1511 24.23                              36    1.44 4  198 293 
 621  0E  IAML    1511 25.52         2.6 0.22                           198 293 
                                                                                
 2016  824 1510 30.1 L  71.563 130.218  0.0  BER  9 0.5 1.5LBER 1.7CBER        1
 GAP=309        0.69       5.8    23.9  9.0 -0.6736E+02  0.1551E+03 -0.2708E+02E
 ACTION:UP  21-01-08 21:12 OP:elen STATUS:               ID:20160824150955     I
 OLDACT:REG 21-01-08 15:28 OP:elen STATUS:               ID:20160824150955     3
 2016-08-24-1509-55M.arct__039                                                 6
 STAT SP IPHASW D HRMM SECON CODA AMPLIT PERI AZIMU VELO AIN AR TRES W  DIS CAZ7
 632  0Z IP       1510 36.19   44                         53   -0.4510 40.4 272 
 632  0N ES       1510 40.97                              53   -0.4310 40.4 272 
 632  0E  IAML    1510 41.82        55.3 0.16                          40.4 272 
 631  0Z IP       1510 47.35   52                         53    0.17 7  107 262 
 631  0N ES       1511  0.22                              53    0.59 7  107 262 
 631  0N  IAML    1511  4.84        17.2 0.26                           107 262 
 628  0Z IP       1510 52.52   50                         53   -0.10 6  141 313 
 628  0N ES       1511  9.14                              53    0.10 6  141 313 
 628  0N  IAML    1511  9.68        12.3 0.35                           141 313 
 626  0Z IP       1510 54.14   50                         53   -0.01 6  151 286 
 626  0N ES       1511 11.92                              53    0.23 6  151 286 
 626  0N  IAML    1511 16.04         4.8 0.21                           151 286 
 625  0Z IP       1510 55.30   54                         53   -0.00 5  158 297 
 625  0N ES       1511 13.96                              53    0.28 5  158 297 
 625  0N  IAML    1511 16.35         7.2 0.37                           158 297 
 624  0Z IP       1510 56.55   50                         53   -0.59 5  170 309 
 624  0N ES       1511 16.10                              53   -0.76 5  170 309 
 624  0N  IAML    1511 18.49        10.4 0.22                           170 309 
 623  0Z IP       1510 58.07   59                         36    0.03 5  176 301 
 623  0N ES       1511 18.75                              36    0.33 5  176 301 
 623  0N  IAML    1511 23.33         3.5 0.31                           176 301 
 622  0Z IP       1511  0.82   57                         36    0.51 4  196 302 
 622  0N ES       1511 23.48                              36    1.13 4  196 302 
 622  0N  IAML    1511 25.19         6.3 0.27                           196 302 
 621  0Z IP       1511  1.22   61                         36    0.62 4  198 293 
 621  0N ES       1511 24.18                              36    1.33 4  198 293 
 621  0E  IAML    1511 25.52         2.5 0.22                           198 293 
                                                                                
 2016  920 1607 18.3 L                       BER        2.4CBER                1
 ACTION:UP  20-04-15 05:22 OP:alex STATUS:               ID:20160920160640     I
 OLDACT:UP  20-04-05 22:34 OP:alex STATUS:               ID:20160920160640     3
 OLDACT:ARG 20-04-05 21:50 OP:alex STATUS:               ID:20160920160640     3
 2016-09-20-1606-40M.SIOLA_039                                                 6
 STAT SP IPHASW D HRMM SECON CODA AMPLIT PERI AZIMU VELO AIN AR TRES W  DIS CAZ7
 632  0E ES       16 8 23.88                              51                    
 629  0E ES       16 8 37.98                              51                    
 629  0E  IAML    16 8 39.18        32.8 0.50                                   
 629  0Z  IAML    16 8 39.38        17.7 0.63                                   
 629  0N  IAML    16 8 43.77        13.5 0.78                                   
 625  0Z E        16 8 13.65                  163.5  5.7                        
 625  0E ES       16 8 48.87                              51                    
 625  0Z  IAML    16 8 54.77        24.0 0.35                                   
 625  0E  IAML    16 8 58.26        22.6 0.44                                   
 629  0Z E        16 8  6.31                  187.2  5.9                        
 632  0Z  IAML    16 8 28.97        44.1 0.78                                   
 625  0N  IAML    16 9  3.65        26.2 0.52                                   
 632  0Z E        16 7 56.76                  184.1  5.6                        
 631  0Z E        16 7 56.42                  195.4  8.5                        
 631  0E ES       16 8 23.34                              51                    
 631  0E  IAML    16 8 25.86        64.4 0.23                                   
 631  0Z  IAML    16 8 26.84        39.4 0.59                                   
 631  0N  IAML    16 8 31.22        27.8 0.80                                   
 631  0Z EP     C 16 7 56.34   80                         51            245     
 632  0Z EP     C 16 7 56.71   78                         51            262     
 629  0Z EP     C 16 8  6.29   80                         51            303     
 625  0Z EP     C 16 8 13.64   88                         51            338     
                                                                                
 2016 10 5 1619 46.8 L  72.933 124.974 13.0  BER  9 0.2 1.1LBER 0.4CBER        1
 GAP=274        0.41       2.7     5.5  3.4  0.1512E+01 -0.9240E+01 -0.3333E+01E
 ACTION:ARG 20-04-11 14:12 OP:mn   STATUS:               ID:20161005161823     I
 2016-10-05-1618-23M.SIOLA_039                                                 6
 STAT SP IPHASW D HRMM SECON CODA AMPLIT PERI AZIMU VELO AIN AR TRES W  DIS CAZ7
 620  0Z IP     C 1619 53.22   14                        107    0.1310 37.4 214 
 620  0E ES       1619 57.77                             107    0.0910 37.4 214 
 620  0Z  IAML    1619 58.27        10.0 0.26                          37.4 214 
 622  0Z IP     C 1619 55.67   24                        101   -0.24 9 55.9 168 
 622  0N ES       1620  2.15                             101   -0.40 9 55.9 168 
 622  0Z  IAML    1620  2.41        12.4 0.26                          55.9 168 
 624  0Z IP     C 1619 57.78   12                         98    0.18 9 66.8 139 
 624  0E ES       1620  5.66                              98    0.18 9 66.8 139 
 624  0Z  IAML    1620  6.07        13.9 0.20                          66.8 139 
 623  0Z IP     D 1619 58.49   14                         97   -0.00 9 72.6 158 
 623  0E ES       1620  7.08                              97    0.06 9 72.6 158 
 623  0Z  IAML    1620  8.02         7.1 0.21                          72.6 158 
 621  0Z IP     D 1620  0.03   18                         96   -0.20 8 83.6 182 
 621  0N ES       1620 10.27                              96    0.24 8 83.6 182 
 621  0Z  IAML    1620 10.74         9.1 0.26                          83.6 182 
 628  0Z IP     D 1620  1.57   24                         95   -0.19 8 93.6 128 
 628  0E ES       1620 12.86                              95    0.18 8 93.6 128 
 628  0Z  IAML    1620 13.38         4.9 0.14                          93.6 128 
 627  0Z IP     D 1620  4.99   37                         93    0.16 7  113 143 
 627  0E ES       1620 17.78                              93   -0.20 7  113 143 
 627  0Z  IAML    1620 18.01         3.3 0.70                           113 143 
 629  0Z IP     D 1620  8.38   25                         70   -0.09 6  137 144 
 629  0E ES       1620 24.46                              70    0.18 6  137 144 
 629  0Z  IAML    1620 25.99         5.6 0.17                           137 144 
 630  0Z IP     D 1620  9.67   29                         52   -0.24 6  148 129 
 630  0E ES       1620 26.89                              52    0.11 6  148 129 
 630  0Z  IAML    1620 27.89         4.1 0.22                           148 129 
                                                                                
