 2017  418 1005 56.5 D  69.415 122.408 15.6  BER 11 0.4 2.2LBER 2.7CBER        1
 GAP=327        1.89     163.3   227.3229.0  0.3632E+05 -0.5122E+05 -0.3735E+05E
 ACTION:UP  20-12-28 17:48 OP:elen STATUS:               ID:20170418100521     I
 OLDACT:REG 20-12-27 21:00 OP:elen STATUS:               ID:20170418100521     3
 2017-04-18-1005-21M.NSN___039                                                 6
 STAT SP IPHASW D HRMM SECON CODA AMPLIT PERI AZIMU VELO AIN AR TRES W  DIS CAZ7
 631  0Z IP       10 6 37.46  109                         46   -0.1110  286  37 
 631  0N ES       10 7  9.65                              48    0.2410  286  37 
 631  0N  IAML    10 7 14.33         8.4 0.32                           286  37 
 626  0Z IP       10 6 40.52  102                         46    0.3510  307  24 
 626  0N ES       10 7 14.96                              48    0.89 8  307  24 
 626  0N  IAML    10 7 28.22         6.0 0.24                           307  24 
 621  0Z IP       10 6 41.82   98                         46   -0.2510  322  15 
 621  0E ES       10 7 17.16                              48   -0.3310  322  15 
 621  0E  IAML    10 7 29.85         5.7 0.22                           322  15 
 625  0Z IP       10 6 44.02  106                         46    0.2010  336  22 
 625  0N ES       10 7 20.96                              48    0.3310  336  22 
 625  0E  IAML    10 7 32.95         6.4 0.25                           336  22 
 627  0Z IP       10 6 45.17  107                         46    0.2710  345  27 
 627  0E ES       10 7 22.96                              48    0.3810  345  27 
 627  0E  IAML    10 7 35.33         7.6 0.34                           345  27 
 632  0Z IP       10 6 44.30  113                         46   -0.68 9  346  43 
 632  0N ES       10 7 21.44                              48   -1.29 7  346  43 
 632  0N  IAML    10 7 37.09         6.6 0.33                           346  43 
 623  0Z IP       10 6 45.14  101                         46   -0.0010  347  19 
 623  0N ES       10 7 22.94                              48   -0.0810  347  19 
 623  0E  IAML    10 7 35.79         5.2 0.25                           347  19 
 622  0Z IP       10 6 45.93  103                         46   -0.0610  354  16 
 622  0E ES       10 7 24.28                              48   -0.2610  354  16 
 622  0E  IAML    10 7 39.70         8.7 0.29                           354  16 
 620  0Z IP       10 6 47.75   98                         46   -0.0010  368  10 
 620  0N ES       10 7 27.40                              48   -0.3210  368  10 
 620  0N  IAML    10 7 44.72         5.9 0.21                           368  10 
 630  0Z IP       10 6 47.82  112                         46    0.1010  368  34 
 630  0N ES       10 7 27.53                              48   -0.1210  368  34 
 630  0N  IAML    10 7 43.38         3.4 0.34                           368  34 
 624  0Z IP       10 6 48.10  101                         46    0.1910  369  21 
 624  0N ES       10 7 28.01                              48    0.0210  369  21 
 624  0N  IAML    10 7 42.20         5.6 0.23                           369  21 
                                                                                
 2017  418 1500 13.3 L  72.784 124.497 17.2  BER 12 0.4 1.3LBER 2.0CBER        1
 GAP=276        0.72       4.2    10.9  2.8  0.8653E+01 -0.1807E+02 -0.3639E+01E
 ACTION:UP  20-12-29 20:35 OP:elen STATUS:               ID:20170418150000     I
 OLDACT:REG 20-12-27 21:06 OP:elen STATUS:               ID:20170418150000     3
 2017-04-18-1500-00M.NSN___039                                                 6
 STAT SP IPHASW D HRMM SECON CODA AMPLIT PERI AZIMU VELO AIN AR TRES W  DIS CAZ7
 620  0Z IP       15 0 17.01   45                        138    0.0810 15.4 199 
 620  0N ES       15 0 20.21                             138    0.6110 15.4 199 
 620  0E  IAML    15 0 20.40        46.0 0.06                          15.4 199 
 622  0Z IP       15 0 20.82   62                        108   -0.35 9 46.9 144 
 622  0E ES       15 0 26.88                             108   -0.06 9 46.9 144 
 622  0E  IAML    15 0 27.41        11.0 0.25                          46.9 144 
 623  0Z IP       15 0 23.95   64                        102   -0.15 8 66.3 140 
 623  0N ES       15 0 32.25                             102    0.24 8 66.3 140 
 623  0N  IAML    15 0 32.59        15.2 0.23                          66.3 140 
 621  0Z IP       15 0 23.90   61                        102   -0.53 8 68.3 169 
 621  0N ES       15 0 32.11                             102   -0.46 8 68.3 169 
 621  0N  IAML    15 0 32.91         5.1 0.16                          68.3 169 
 624  0Z IP       15 0 24.31   72                        102   -0.13 8 68.5 119 
 624  0N ES       15 0 32.87                             102    0.28 8 68.5 119 
 624  0E  IAML    15 0 33.70        15.7 0.13                          68.5 119 
 625  0Z IP       15 0 27.09   68                         98   -0.18 7 87.0 141 
 625  0E ES       15 0 37.66                              98    0.17 7 87.0 141 
 625  0E  IAML    15 0 42.86         5.3 0.15                          87.0 141 
 628  0Z IP       15 0 28.73   62                         97   -0.31 7 98.3 115 
 628  0N ES       15 0 40.56                              97    0.02 7 98.3 115 
 628  0N  IAML    15 0 42.58         9.3 0.32                          98.3 115 
 627  0Z IP       15 0 30.88   70                         70   -0.17 7  112 130 
 627  0N ES       15 0 44.21                              70    0.18 7  112 130 
 627  0E  IAML    15 0 46.27         8.7 0.18                           112 130 
 626  0Z IP       15 0 30.64   66                         70   -0.55 7  113 152 
 626  0N ES       15 0 43.79                              70   -0.48 7  113 152 
 626  0E  IAML    15 0 46.76        15.3 0.29                           113 152 
 629  0Z IP       15 0 34.49   63                         52    0.10 6  135 134 
 629  0N ES       15 0 50.51                              52    0.70 6  135 134 
 629  0E  IAML    15 0 51.67        10.5 0.26                           135 134 
 630  0Z IP       15 0 36.66   69                         51    0.23 5  151 120 
 630  0E ES       15 0 54.25                              51    0.91 5  151 120 
 630  0E  IAML    15 0 55.69        10.5 0.13                           151 120 
 631  0Z IP       15 0 40.10   68                         49    0.14 4  181 147 
 631  0N ES       15 1  0.17                              49    0.73 4  181 147 
 631  0E  IAML    15 1  2.92         5.5 0.22                           181 147 
                                                                                
 2017  420 1302 35.6 L  72.683 129.233 14.7  BER 11 0.3 1.0LBER 1.7CBER        1
 GAP=304        0.47       2.9     9.2  2.5  0.6156E+01 -0.1250E+01 -0.1980E+01E
 ACTION:UP  20-12-30 20:06 OP:elen STATUS:               ID:20170420130148     I
 OLDACT:REG 20-12-27 21:23 OP:elen STATUS:               ID:20170420130148     3
 2017-04-20-1301-48M.NSN___039                                                 6
 STAT SP IPHASW D HRMM SECON CODA AMPLIT PERI AZIMU VELO AIN AR TRES W  DIS CAZ7
 630  0Z IP       13 2 47.72   48                         99    0.1510 74.4 205 
 630  0E ES       13 2 56.70                              99    0.3710 74.4 205 
 630  0E  IAML    13 2 57.62         4.2 0.12                          74.4 205 
 628  0Z IP       13 2 48.04   43                         99    0.1210 76.7 247 
 628  0N ES       13 2 57.25                              99    0.3110 76.7 247 
 628  0N  IAML    13 2 59.12         8.4 0.12                          76.7 247 
 627  0Z IP       13 2 51.30   41                         96   -0.05 9 98.8 231 
 627  0N ES       13 3  2.84                              96   -0.04 9 98.8 231 
 627  0N  IAML    13 3  3.72         3.6 0.20                          98.8 231 
 624  0Z IP       13 2 51.72   56                         96   -0.06 9  102 258 
 624  0N ES       13 3  3.60                              96   -0.02 9  102 258 
 624  0E  IAML    13 3  6.29        11.1 0.17                           102 258 
 629  0Z IP       13 2 52.13   45                         95   -0.40 9  106 219 
 629  0N ES       13 3  4.30                              95   -0.62 9  106 219 
 629  0N  IAML    13 3  7.12         1.6 0.12                           106 219 
 625  0Z IP       13 2 54.58   56                         70   -0.02 8  120 243 
 625  0N ES       13 3  8.54                              70    0.05 8  120 243 
 625  0N  IAML    13 3 12.64         2.7 0.28                           120 243 
 623  0Z IP       13 2 54.92   53                         70   -0.19 8  123 253 
 623  0N ES       13 3  9.14                              70   -0.24 8  123 253 
 623  0N  IAML    13 3 13.97         1.9 0.31                           123 253 
 622  0Z IP       13 2 56.57   62                         70   -0.10 7  134 260 
 622  0E ES       13 3 11.98                              70   -0.11 7  134 260 
 622  0N  IAML    13 3 16.58         2.0 0.17                           134 260 
 626  0Z IP       13 2 57.46   55                         52   -0.15 7  140 232 
 626  0N ES       13 3 13.50                              52   -0.21 7  140 232 
 626  0N  IAML    13 3 15.11         3.2 0.16                           140 232 
 621  0Z IP       13 3  0.04   50                         51    0.40 6  157 251 
 621  0N ES       13 3 17.92                              51    0.71 6  157 251 
 621  0N  IAML    13 3 19.43         3.5 0.20                           157 251 
 631  0Z IP       13 2 59.88   53                         49    0.01 6  159 206 
 631  0N ES       13 3 17.65                              49    0.03 6  159 206 
 631  0E  IAML    13 3 18.76         4.9 0.32                           159 206 
                                                                                
 2017  420 2248 47.1 L  72.037 129.281  0.0  BER 11 1.4 0.8LBER 1.2CBER        1
 GAP=248        2.60      11.1    59.2 25.5  0.4781E+03  0.1072E+04  0.1468E+03E
 ACTION:UP  20-12-31 00:24 OP:elen STATUS:               ID:20170420224802     I
 OLDACT:REG 20-12-27 21:42 OP:elen STATUS:               ID:20170420224802     3
 2017-04-20-2248-02M.NSN___039                                                 6
 STAT SP IPHASW D HRMM SECON CODA AMPLIT PERI AZIMU VELO AIN AR TRES W  DIS CAZ7
 630  0Z IP       2248 51.34   40                         53   -1.1110 33.1 278 
 630  0N ES       2248 54.63                              53   -1.7310 33.1 278 
 630  0E  IAML    2248 55.42        12.3 0.14                          33.1 278 
 632  0Z IP       2248 55.20   40                         53   -0.28 9 52.2 188 
 632  0E ES       2249  1.34                              53   -0.25 9 52.2 188 
 632  0E  IAML    2249  1.80         5.8 0.17                          52.2 188 
 629  0Z IP       2248 56.93   35                         53   -1.21 9 69.0 261 
 629  0N ES       2249  4.33                              53   -1.86 9 69.0 261 
 629  0N  IAML    2249  5.49         2.7 0.27                          69.0 261 
 627  0Z IP       2248 59.38   34                         53   -0.42 8 79.5 278 
 627  0N ES       2249  8.54                              53   -0.53 8 79.5 278 
 627  0N  IAML    2249 10.45         2.9 0.31                          79.5 278 
 628  0Z IP       2249  0.96   37                         53    0.56 8 83.2 300 
 628  0N ES       2249 11.28                              53    1.18 8 83.2 300 
 628  0N  IAML    2249 11.82         2.2 0.10                          83.2 300 
 631  0Z IP       2249  3.74   40                         53    0.57 7  101 226 
 631  0N ES       2249 16.10                              53    1.19 7  101 226 
 631  0N  IAML    2249 20.66         2.0 0.13                           101 226 
 626  0Z IP       2249  7.79   32                         53    2.59 7  113 263 
 626  0N ES       2249 23.08                              53    4.67 7  113 263 
 626  0N  IAML    2249 24.40         2.6 0.19                           113 263 
 624  0Z IP       2249  5.17   39                         53   -0.00 7  113 297 
 624  0N ES       2249 18.57                              53    0.21 7  113 297 
 624  0E  IAML    2249 22.57         2.4 0.16                           113 297 
 622  0Z IP       2249  9.75   37                         53   -0.03 6  142 290 
 622  0N ES       2249 26.53                              53    0.20 6  142 290 
 622  0E  IAML    2249 30.71         2.8 0.19                           142 290 
 621  0Z IP       2249 10.98   36                         53   -0.26 6  151 278 
 621  0N ES       2249 28.59                              53   -0.26 6  151 278 
 621  0E  IAML    2249 32.84         2.6 0.23                           151 278 
 620  0Z IP       2249 16.54   37                         36    1.00 4  181 295 
 620  0E ES       2249 38.23                              36    1.93 4  181 295 
 620  0E  IAML    2249 39.44         2.1 0.24                           181 295 
                                                                                
 2017  423 0850 54.6 D  74.708 132.788  0.0  BER  8 0.8 1.9LBER 2.9CBER        1
 GAP=341        2.77     546.5   999.9865.7  0.8505E+06  0.1351E+07  0.4726E+06E
 ACTION:UP  20-12-30 23:23 OP:elen STATUS:               ID:20170423085106     I
 OLDACT:REG 20-12-27 21:56 OP:elen STATUS:               ID:20170423085106     3
 2017-04-23-0851-06M.NSN___036                                                 6
 STAT SP IPHASW D HRMM SECON CODA AMPLIT PERI AZIMU VELO AIN AR TRES W  DIS CAZ7
 628  0Z IP        851 40.52  117                         46   -0.4410  313 217 
 628  0N ES        852 16.31                              48   -0.3710  313 217 
 628  0N  IAML     852 19.95         2.7 0.21                           313 217 
 624  0Z IP        851 41.03  117                         46   -1.1110  323 223 
 624  0N ES        852 17.18                              48   -1.62 9  323 223 
 624  0E  IAML     852 21.86         4.0 0.22                           323 223 
 630  0Z IP        851 42.07  129                         46   -0.5310  326 208 
 630  0N ES        852 19.01                              48   -0.6410  326 208 
 630  0E  IAML     852 20.92         1.8 0.16                           326 208 
 627  0Z IP        851 44.46  118                         46   -0.2110  343 215 
 627  0N ES        852 23.11                              48   -0.2510  343 215 
 627  0E  IAML     852 25.48         2.9 0.24                           343 215 
 622  0Z IP        851 45.10  114                         46    0.1310  345 227 
 622  0N ES        852 24.15                              48    0.2510  345 227 
 622  0N  IAML     852 27.59         1.7 0.38                           345 227 
 621  0Z IP        851 49.34  124                         46    0.4410  377 226 
 621  0N ES        852 31.46                              48    0.5010  377 226 
 621  0E  IAML     852 35.57         3.1 0.30                           377 226 
 626  0Z IP        851 50.50  121                         46    1.0210  382 218 
 626  0N ES        852 33.49                              48    1.4910  382 218 
 626  0E  IAML     852 36.90         5.2 0.25                           382 218 
 631  0Z IP        851 53.73  129                         46    0.6810  411 209 
 631  0E ES        852 39.03                              48    0.6010  411 209 
 631  0E  IAML     852 42.82         7.6 0.23                           411 209 
                                                                                
 2017  423 1455 43.9 L  72.893 124.401 10.0  BER  8 0.1 0.6LBER 1.4CBER        1
 GAP=296        0.27       1.8     5.0  2.8 -0.2043E+00 -0.6638E+01 -0.2034E+01E
 ACTION:UP  20-12-31 12:43 OP:elen STATUS:               ID:20170423145418     I
 OLDACT:REG 20-12-30 23:54 OP:elen STATUS:               ID:20170423145418     3
 2017-04-23-1454-18M.NSN___036                                                 6
 STAT SP IPHASW D HRMM SECON CODA AMPLIT PERI AZIMU VELO AIN AR TRES W  DIS CAZ7
 620  0Z IP       1455 48.50   35                        108    0.0210 26.7 184 
 620  0N ES       1455 51.91                             108    0.1110 26.7 184 
 620  0N  IAML    1455 52.17         7.5 0.26                          26.7 184 
 622  0Z IP       1455 53.26   37                         94   -0.14 9 58.8 148 
 622  0N ES       1456  0.15                              94   -0.17 9 58.8 148 
 622  0N  IAML    1456  0.80         2.6 0.14                          58.8 148 
 624  0Z IP       1455 56.49   45                         91    0.11 8 77.7 126 
 624  0N ES       1456  5.67                              91    0.20 8 77.7 126 
 624  0N  IAML    1456  7.60         2.5 0.13                          77.7 126 
 623  0Z IP       1455 56.38   39                         91   -0.01 8 77.8 144 
 623  0N ES       1456  5.47                              91   -0.02 8 77.8 144 
 623  0N  IAML    1456  7.34         2.3 0.20                          77.8 144 
 621  0Z IP       1455 56.84   32                         91   -0.04 8 80.8 168 
 621  0E  IAML    1456  6.32         1.9 0.18                          80.8 168 
 621  0N ES       1456  6.34                              91    0.00 8 80.8 168 
 628  0Z IP       1456  0.83   54                         91   -0.08 7  107 120 
 628  0N ES       1456 13.28                              91   -0.03 7  107 120 
 628  0E  IAML    1456 14.87         2.2 0.23                           107 120 
 626  0Z IP       1456  3.70   45                         90   -0.09 6  125 153 
 626  0N ES       1456 18.27                              90   -0.03 6  125 153 
 626  0E  IAML    1456 18.75         1.2 0.25                           125 153 
 630  0Z IP       1456  8.91   56                         51    0.02 5  160 123 
 630  0N ES       1456 27.27                              51    0.16 5  160 123 
 630  0E  IAML    1456 28.26         3.0 0.26                           160 123 
                                                                                
