 2016  829 1536 44.4 L  71.438 129.582  0.0  BER  3 0.5 0.5LBER 1.2CBER        1
 GAP=337        0.94     329.4   904.9564.5 -0.2974E+06  0.5104E+06 -0.1858E+06E
 ACTION:UP  21-01-10 17:52 OP:elen STATUS:               ID:20160829153539     I
 OLDACT:REG 21-01-08 15:33 OP:elen STATUS:               ID:20160829153539     3
 2016-08-29-1535-39M.arct__039                                                 6
 STAT SP IPHASW D HRMM SECON CODA AMPLIT PERI AZIMU VELO AIN AR TRES W  DIS CAZ7
 632  0Z IP       1536 47.90   39                         53   -0.3610 23.6 310 
 632  0N ES       1536 50.73                              53   -0.4510 23.6 310 
 632  0E  IAML    1536 52.15        16.3 0.08                          23.6 310 
 630  0Z IP       1536 57.93   32                         53    0.16 8 83.6 329 
 630  0E ES       1537  8.17                              53    0.26 8 83.6 329 
 630  0N  IAML    1537  9.73         0.8 0.08                          83.6 329 
 625  0Z IP       1537  8.48   39                         53    0.77 6  146 306 
 625  0E ES       1537 26.44                              53    1.03 6  146 306 
 625  0N  IAML    1537 29.64         1.0 0.14                           146 306 
                                                                                
 2016  829 2224 19.0 L  72.205 127.795 21.8  BER  4 0.0 0.8LBER 0.7CBER        1
 GAP=173        0.27       1.0     3.1  3.3  0.9724E+00  0.2230E+01 -0.1198E+00E
 ACTION:UP  21-01-10 18:15 OP:elen STATUS:               ID:20160829222308     I
 OLDACT:REG 21-01-08 15:34 OP:elen STATUS:               ID:20160829222308     3
 2016-08-29-2223-08M.arct__039                                                 6
 STAT SP IPHASW D HRMM SECON CODA AMPLIT PERI AZIMU VELO AIN AR TRES W  DIS CAZ7
 630  0Z IP       2224 24.04   27                        129    0.0110 23.2 128 
 630  0N ES       2224 27.85                             129    0.0110 23.2 128 
 630  0N  IAML    2224 28.01        19.4 0.11                          23.2 128 
 627  0Z IP       2224 24.83   24                        121    0.0410 29.5 251 
 627  0N ES       2224 29.22                             121    0.0410 29.5 251 
 627  0E  IAML    2224 29.60        17.5 0.18                          29.5 251 
 628  0Z IP       2224 24.98   22                        119   -0.0010 30.9 315 
 628  0N ES       2224 29.48                             119   -0.0310 30.9 315 
 628  0N  IAML    2224 29.67        13.1 0.08                          30.9 315 
 629  0Z IP       2224 25.49   28                        115   -0.0110 35.0 209 
 629  0N ES       2224 30.37                             115   -0.0510 35.0 209 
 629  0N  IAML    2224 30.58         7.6 0.22                          35.0 209 
                                                                                
 2016  830 1601 27.0 L  72.009 127.954 13.3  BER  3 0.0 0.9LBER 0.7CBER        1
 GAP=189        0.29       2.1     3.7  3.8 -0.4080E+01  0.7998E+01 -0.1239E+01E
 ACTION:UP  21-01-10 18:29 OP:elen STATUS:               ID:20160830160003     I
 OLDACT:REG 21-01-08 15:34 OP:elen STATUS:               ID:20160830160003     3
 2016-08-30-1600-03M.arct__039                                                 6
 STAT SP IPHASW D HRMM SECON CODA AMPLIT PERI AZIMU VELO AIN AR TRES W  DIS CAZ7
 630  0Z IP       16 1 30.13   30                        131   -0.0110 14.8  60 
 630  0N ES       16 1 32.56                             131    0.0110 14.8  60 
 630  0N  IAML    16 1 33.22       872.2 0.04                          14.8  60 
 629  0Z IP       16 1 31.32   23                        118   -0.0010 23.9 248 
 629  0N ES       16 1 34.63                             118    0.0010 23.9 248 
 629  0N  IAML    16 1 34.87         4.0 0.14                          23.9 248 
 627  0Z IP       16 1 33.03   24                        109    0.02 9 35.5 290 
 627  0N ES       16 1 37.58                             109   -0.01 9 35.5 290 
 627  0N  IAML    16 1 39.41         3.8 0.26                          35.5 290 
                                                                                
 2016  831  321 17.9 L                       BER                               1
 ACTION:REG 21-01-08 15:35 OP:elen STATUS:               ID:20160831032117     I
 2016-08-31-0321-17M.arct__039                                                 6
 STAT SP IPHASW D HRMM SECON CODA AMPLIT PERI AZIMU VELO AIN AR TRES W  DIS CAZ7
                                                                                
 2016  9 2 0740 56.6 L  72.778 123.834  3.6  BER  4 0.2 1.3LBER                1
 GAP=340        0.40       6.6    16.7  4.6  0.6854E+02 -0.1526E+02 -0.1410E+02E
 ACTION:ARG 20-04-02 17:38 OP:mn   STATUS:               ID:20160902073940     I
 2016-09-02-0739-40M.SIOLA_039                                                 6
 STAT SP IPHASW D HRMM SECON CODA AMPLIT PERI AZIMU VELO AIN AR TRES W  DIS CAZ7
 620  0Z IP     D  740 59.98                              99   -0.1810 21.9 129 
 620  0E ES        741  2.84                              99   -0.0210 21.9 129 
 620  0Z  IAML     741  3.13        55.9 0.11                          21.9 129 
 622  0Z IP     D  741  6.70                              93    0.22 9 62.0 127 
 622  0E ES        741 14.06                              93    0.07 9 62.0 127 
 622  0Z  IAML     741 14.97         8.7 0.57                          62.0 127 
 628  0Z IP     D  741 15.66                              92    0.23 7  118 109 
 628  0E ES        741 29.59                              92   -0.15 7  118 109 
 628  0Z  IAML     741 31.10         8.1 0.46                           118 109 
 630  0Z IP     D  741 23.10                              50   -0.33 5  170 115 
 630  0N ES        741 43.94                              50    0.11 5  170 115 
 630  0Z  IAML     741 44.65         8.5 0.25                           170 115 
                                                                                
 2016  9 2 0740 56.8 L  72.770 123.866  5.9  BER  4 0.2 1.3LBER                1
 GAP=340        0.43       7.4    17.7  4.4  0.7974E+02 -0.1811E+02 -0.1764E+02E
 ACTION:ARG 20-04-02 17:38 OP:mn   STATUS:               ID:20160902074022     I
 2016-09-02-0740-22M.SIOLA_039                                                 6
 STAT SP IPHASW D HRMM SECON CODA AMPLIT PERI AZIMU VELO AIN AR TRES W  DIS CAZ7
 620  0Z IP     D  740 59.95                             105   -0.2510 20.6 129 
 620  0E ES        741  2.80                             105   -0.0110 20.6 129 
 620  0Z  IAML     741  3.13        63.7 0.12                          20.6 129 
 622  0Z IP     D  741  6.80                              95    0.33 9 60.6 126 
 622  0E ES        741 13.90                              95    0.06 9 60.6 126 
 622  0Z  IAML     741 14.98         6.3 0.58                          60.6 126 
 628  0Z IP     D  741 15.56                              93    0.14 7  117 109 
 628  0E ES        741 29.49                              93   -0.10 7  117 109 
 628  0Z  IAML     741 31.09         8.5 0.41                           117 109 
 630  0Z IP     D  741 23.15                              48   -0.07 5  169 115 
 630  0E ES        741 43.19                              48   -0.12 5  169 115 
 630  0Z  IAML     741 44.27         9.0 0.40                           169 115 
                                                                                
 2016  9 2 0743  1.2 L  72.857 123.891  1.1  BER  4 0.3 0.3LBER                1
 GAP=331        1.33     112.2   403.1210.8 -0.4502E+05 -0.8471E+05  0.2358E+05E
 ACTION:ARG 20-04-02 17:38 OP:mn   STATUS:               ID:20160902074135     I
 2016-09-02-0741-35M.SIOLA_039                                                 6
 STAT SP IPHASW D HRMM SECON CODA AMPLIT PERI AZIMU VELO AIN AR TRES W  DIS CAZ7
 620  0Z IP     D  743  5.27                              92   -0.2810 27.2 146 
 620  0E ES        743  8.16                              92   -0.7010 27.2 146 
 620  0Z  IAML     743  8.42        21.5 0.11                          27.2 146 
 622  0Z IP     D  743 11.98                              91    0.25 9 66.2 134 
 622  0E ES        743 19.51                              91   -0.23 9 66.2 134 
 622  0Z  IAML     743 23.45         0.1 0.82 321.6 25.9      7        66.2 134 
 623  0Z IP     D  743 15.13                              90    0.25 8 86.0 133 
 623  0E ES        743 25.09                              90   -0.19 8 86.0 133 
 623  0Z  IAML     743 27.76         1.5 0.23                          86.0 133 
 624  0Z IP     C  743 16.14                              90    0.64 8 89.9 117 
 624  0E ES        743 27.31                              90    0.93 8 89.9 117 
 624  0Z  IAML     743 29.06         2.8 0.15                          89.9 117 
                                                                                
 2016  9 2 0743  1.7 L  72.790 123.841  0.9  BER  4 0.1 0.6LBER                1
 GAP=338        0.38       7.1    15.9136.7  0.7557E+02 -0.8077E+03 -0.6719E+03E
 ACTION:ARG 20-04-02 17:38 OP:mn   STATUS:               ID:20160902074205     I
 2016-09-02-0742-05M.SIOLA_039                                                 6
 STAT SP IPHASW D HRMM SECON CODA AMPLIT PERI AZIMU VELO AIN AR TRES W  DIS CAZ7
 620  0Z IP     D  743  5.24                              91   -0.1510 22.6 132 
 620  0E ES        743  8.09                              91   -0.0610 22.6 132 
 620  0Z  IAML     743  8.36        22.5 0.14                          22.6 132 
 622  0Z IP     D  743 11.82                              90    0.10 9 62.6 128 
 622  0E ES        743 19.38                              90    0.08 9 62.6 128 
 622  0Z  IAML     743 19.52         2.3 0.20                          62.6 128 
 623  0Z IP     D  743 14.82                              90   -0.06 8 82.5 128 
 623  0E ES        743 25.02                              90    0.16 8 82.5 128 
 623  0Z  IAML     743 26.32         1.3 0.17                          82.5 128 
 628  0Z IP     D  743 20.88                              90    0.27 7  119 110 
 628  0E ES        743 34.72                              90   -0.23 7  119 110 
 628  0Z  IAML     743 36.18         2.3 0.20                           119 110 
                                                                                
 2016  9 2 0747 46.3 L  72.806 123.876  0.5  BER  4 0.1 0.6LBER                1
 GAP=336        0.33       6.1    13.3525.2  0.5338E+02 -0.3336E+04 -0.2499E+04E
 ACTION:ARG 20-04-02 17:38 OP:mn   STATUS:               ID:20160902074620     I
 2016-09-02-0746-20M.SIOLA_039                                                 6
 STAT SP IPHASW D HRMM SECON CODA AMPLIT PERI AZIMU VELO AIN AR TRES W  DIS CAZ7
 620  0Z IP     D  747 49.95                              90   -0.0610 23.0 137 
 620  0E ES        747 52.74                              90   -0.0910 23.0 137 
 620  0Z  IAML     747 53.05        13.7 0.14                          23.0 137 
 622  0Z IP     D  747 56.51                              90    0.20 9 62.8 130 
 622  0E ES        748  4.05                              90    0.13 9 62.8 130 
 622  0Z  IAML     748  4.23         2.5 0.14                          62.8 130 
 623  0Z IP     D  747 59.43                              90   -0.04 8 82.7 129 
 623  0E ES        748  9.49                              90    0.02 8 82.7 129 
 623  0Z  IAML     748 10.28         2.0 0.31                          82.7 129 
 624  0Z IP     D  748  0.23                              90   -0.08 8 88.0 114 
 624  0N ES        748 10.90                              90   -0.05 8 88.0 114 
 624  0Z  IAML     748 12.69         2.8 0.19                          88.0 114 
                                                                                
 2016  9 2 0750 14.1 L  72.787 124.027 15.6  BER  1 0.0 0.3LBER                1
 GAP=360        0.30       4.0     9.7  0.0 -0.3767E+02 -0.3336E+04 -0.2499E+04E
 ACTION:ARG 20-04-02 17:38 OP:mn   STATUS:               ID:20160902075000     I
 2016-09-02-0750-00S.NSN___039                                                 6
 STAT SP IPHASW D HRMM SECON CODA AMPLIT PERI AZIMU VELO AIN AR TRES W  DIS CAZ7
 620  0Z IP        750 17.93                             130   -0.0110 18.2 144 
 620  0E E         750 18.05                  324.6  7.4      0        18.2 144 
 620  0E ES        750 20.84                             130    0.0110 18.2 144 
 620  0Z  IAML     750 21.11         6.4 0.13                          18.2 144 
                                                                                
 2016  9 2 0807 37.9 L  72.720 123.673  2.6  BER  4 0.1 0.8LBER                1
 GAP=347        0.33       7.4    12.8  3.6  0.6209E+02  0.1149E+02  0.2045E+01E
 ACTION:ARG 20-04-02 17:38 OP:mn   STATUS:               ID:20160902080611     I
 2016-09-02-0806-11M.SIOLA_039                                                 6
 STAT SP IPHASW D HRMM SECON CODA AMPLIT PERI AZIMU VELO AIN AR TRES W  DIS CAZ7
 620  0Z IP     D  8 7 41.59                              96   -0.1210 23.6 108 
 620  0E ES        8 7 44.52                              96   -0.0810 23.6 108 
 620  0Z  IAML     8 7 44.80        21.6 0.12                          23.6 108 
 622  0Z IP     D  8 7 47.98                              92    0.03 9 63.0 119 
 622  0E ES        8 7 55.60                              92    0.02 9 63.0 119 
 622  0Z  IAML     8 7 56.14         2.0 0.16                          63.0 119 
 624  0Z IP     D  8 7 52.62                              91    0.22 8 91.1 106 
 624  0E ES        8 8  3.53                              91    0.11 8 91.1 106 
 624  0Z  IAML     8 8  4.39         3.3 0.18                          91.1 106 
 630  0Z IP     C  8 8  5.03                              48   -0.09 5  173 112 
 630  0N ES        8 8 25.78                              48   -0.02 5  173 112 
 630  0Z  IAML     8 9 33.99         3.0 2.92                           173 112 
                                                                                
 2016  9 2 2150 26.4 L  72.686 124.233 20.5  BER  4 0.1 0.4LBER                1
 GAP=335        0.36       5.2    13.3  2.4  0.4530E+02 -0.1957E+02 -0.1020E+01E
 ACTION:ARG 20-04-02 17:38 OP:mn   STATUS:               ID:20160902214859     I
 2016-09-02-2148-59M.SIOLA_039                                                 6
 STAT SP IPHASW D HRMM SECON CODA AMPLIT PERI AZIMU VELO AIN AR TRES W  DIS CAZ7
 620  0Z IP     D 2150 29.71                             165   -0.0210 5.17 133 
 620  0Z  IAML    2150 32.29         7.3 0.05                          5.17 133 
 620  0E ES       2150 32.31                             165    0.0410 5.17 133 
 622  0Z IP     D 2150 34.04                             102   -0.18 9 45.2 126 
 622  0E ES       2150 40.08                             102   -0.09 9 45.2 126 
 622  0Z  IAML    2150 40.21         4.3 0.25                          45.2 126 
 623  0Z IP     D 2150 37.12                              91    0.00 8 65.1 127 
 623  0E ES       2150 45.47                              91    0.19 8 65.1 127 
 623  0Z  IAML    2150 46.02         2.0 0.22                          65.1 127 
 624  0Z IP     D 2150 38.34                              91    0.18 8 72.1 108 
 624  0E ES       2150 47.02                              91   -0.09 8 72.1 108 
 624  0Z  IAML    2150 48.24         2.5 0.14                          72.1 108 
                                                                                
 2016  9 3 0402 56.2 L  71.729 129.376  0.7  BER  4 0.6 1.3LBER                1
 GAP=255        0.97       5.5   113.5 31.8  0.5319E+03  0.3407E+04  0.1404E+03E
 ACTION:ARG 20-04-02 17:38 OP:mn   STATUS:               ID:20160903040159     I
 2016-09-03-0401-59M.SIOLA_039                                                 6
 STAT SP IPHASW D HRMM SECON CODA AMPLIT PERI AZIMU VELO AIN AR TRES W  DIS CAZ7
 632  0Z IP     D  4 2 59.38                              91   -0.0710 20.3 212 
 632  0E ES        4 3  1.78                              91   -0.1610 20.3 212 
 632  0Z  IAML     4 3  1.88        98.7 0.11                          20.3 212 
 630  0Z IP     C  4 3  4.14                              90   -0.48 9 53.0 317 
 630  0E ES        4 3 10.59                              90   -0.46 9 53.0 317 
 630  0Z  IAML     4 3 11.69        12.9 0.09                          53.0 317 
 624  0Z IP        4 3 18.76                              90    1.13 6  135 310 
 624  0E ES        4 3 34.72                              90    0.77 6  135 310 
 624  0Z  IAML     4 3 37.97         7.4 0.17                           135 310 
 622  0Z IP     D  4 3 22.40                              90    0.74 5  161 302 
 622  0E ES        4 3 41.53                              90    0.50 5  161 302 
 622  0Z  IAML     4 3 43.95         5.2 0.26                           161 302 
                                                                                
 2016  9 4 0325 43.0 L  71.966 129.612 21.6  BER  4 0.1 0.9LBER                1
 GAP=342        0.36       9.8    11.6  9.2  0.3512E+02  0.8479E+01  0.5590E+02E
 ACTION:ARG 20-04-02 17:38 OP:mn   STATUS:               ID:20160904032436     I
 2016-09-04-0324-36M.SIOLA_039                                                 6
 STAT SP IPHASW D HRMM SECON CODA AMPLIT PERI AZIMU VELO AIN AR TRES W  DIS CAZ7
 630  0Z IP     C  325 50.84                             106   -0.1810 46.0 286 
 630  0E ES        325 57.20                             106    0.1110 46.0 286 
 630  0Z  IAML     325 58.31         6.2 0.11                          46.0 286 
 627  0Z IP     D  325 57.74                              92    0.01 8 92.1 282 
 627  0N ES        326  8.76                              92   -0.15 8 92.1 282 
 627  0Z  IAML     326 13.07         6.2 0.53                          92.1 282 
 625  0Z IP     C  326  2.34                              91    0.13 7  123 283 
 625  0N ES        326 16.89                              91    0.10 7  123 283 
 625  0Z  IAML     326 23.15         2.3 0.23                           123 283 
 626  0Z IP        326  2.69                              91    0.23 7  124 268 
 626  0E ES        326 17.10                              91   -0.12 7  124 268 
                                                                                
