 2016  822 1318 49.9 L  72.371 127.100 15.8  BER  8 0.1 0.6LBER 1.4CBER        1
 GAP=101        0.33       1.0     2.7  1.7  0.1063E+01  0.1646E+01  0.7459E+00E
 ACTION:UP  21-01-08 22:12 OP:elen STATUS:               ID:20160822131743     I
 OLDACT:REG 21-01-08 15:24 OP:elen STATUS:               ID:20160822131743     3
 2016-08-22-1317-43M.arct__039                                                 6
 STAT SP IPHASW D HRMM SECON CODA AMPLIT PERI AZIMU VELO AIN AR TRES W  DIS CAZ7
 628  0Z IP       1318 52.33   40                        167   -0.1210 3.59  26 
 628  0N ES       1318 54.47                             167    0.0510 3.59  26 
 628  0N  IAML    1318 54.58        79.2 0.14                          3.59  26 
 627  0Z IP       1318 54.86   31                        118   -0.19 9 28.6 188 
 627  0E ES       1318 58.85                             118   -0.15 9 28.6 188 
 627  0E  IAML    1318 59.21        13.9 0.14                          28.6 188 
 624  0Z IP       1318 55.20   43                        116   -0.06 9 30.2 293 
 624  0N ES       1318 59.45                             116    0.07 9 30.2 293 
 624  0N  IAML    1319  0.17         9.4 0.19                          30.2 293 
 625  0Z IP       1318 56.77   43                        110    0.05 9 40.3 237 
 625  0N ES       1319  2.17                             110    0.24 9 40.3 237 
 625  0E  IAML    1319  5.64         3.4 0.36                          40.3 237 
 623  0Z IP       1318 57.42   36                        107   -0.09 9 45.6 264 
 623  0E ES       1319  3.30                             107   -0.02 9 45.6 264 
 623  0E  IAML    1319  3.64         2.5 0.18                          45.6 264 
 630  0Z IP       1318 58.72   48                        104    0.07 8 53.3 128 
 630  0E ES       1319  5.54                             104    0.20 8 53.3 128 
 630  0E  IAML    1319  6.59         4.5 0.17                          53.3 128 
 622  0Z IP       1318 59.79   39                        102   -0.01 8 60.8 278 
 622  0N ES       1319  7.38                             102    0.03 8 60.8 278 
 622  0N  IAML    1319  8.26         2.5 0.11                          60.8 278 
 626  0Z IP       1319  0.46   48                        101   -0.02 8 65.1 215 
 626  0N ES       1319  8.56                             101    0.01 8 65.1 215 
 626  0N  IAML    1319 10.91         1.7 0.06                          65.1 215 
                                                                                
 2016  823 0113 22.8 L  71.948 129.896  0.3  BER  3 0.2 1.4LBER 1.3CBER        1
 GAP=293        0.43       6.4    50.3 19.9  0.2973E+03  0.9587E+03  0.1163E+03E
 ACTION:UP  21-01-10 14:47 OP:elen STATUS:               ID:20160823011223     I
 OLDACT:REG 21-01-08 15:25 OP:elen STATUS:               ID:20160823011223     3
 2016-08-23-0112-23M.arct__039                                                 6
 STAT SP IPHASW D HRMM SECON CODA AMPLIT PERI AZIMU VELO AIN AR TRES W  DIS CAZ7
 632  0Z IP        113 30.83   39                         53   -0.0910 50.7 215 
 632  0N ES        113 36.95                              53   -0.1410 50.7 215 
 632  0E  IAML     113 38.18        33.0 0.09                          50.7 215 
 627  0Z IP        113 39.10   35                         53    0.03 8  102 282 
 627  0N ES        113 51.23                              53   -0.19 8  102 282 
 627  0N  IAML     113 52.50        14.0 0.18                           102 282 
 631  0Z IP        113 40.85   43                         53    0.31 8  111 238 
 631  0N ES        113 54.28                              53    0.27 8  111 238 
 631  0N  IAML     113 56.74        10.6 0.31                           111 238 
                                                                                
 2016  823 0652 14.7 L  70.928 129.846  0.1  BER  6 0.7 2.9LBER 1.9CBER        1
 GAP=321        0.75       9.2    26.6 10.6 -0.8866E+02  0.1373E+03 -0.5739E+02E
 ACTION:UP  21-01-10 13:37 OP:elen STATUS:               ID:20160823065124     I
 OLDACT:REG 21-01-08 15:26 OP:elen STATUS:               ID:20160823065124     3
 2016-08-23-0651-24M.arct__039                                                 6
 STAT SP IPHASW D HRMM SECON CODA AMPLIT PERI AZIMU VELO AIN AR TRES W  DIS CAZ7
 632  0Z IP        652 26.58   61                         53   -0.4710 77.2 339 
 632  0E ES        652 36.35                              53   -0.0710 77.2 339 
 632  0E  IAML     652 38.67       272.6 0.20                          77.2 339 
 631  0Z IP        652 31.42   62                         53   -0.42 9  107 301 
 631  0N ES        652 44.76                              53   -0.09 9  107 301 
 631  0E  IAML     652 48.82       731.2 0.27                           107 301 
 628  0Z IP        652 44.23   56                         36    0.02 5  190 331 
 628  0N ES        653  6.95                              36    0.33 5  190 331 
 628  0E  IAML     653  8.73        83.3 0.37                           190 331 
 625  0Z IP        652 44.54   57                         36    0.09 5  192 318 
 625  0E ES        653  7.47                              36    0.42 5  192 318 
 625  0N  IAML     653  9.85       125.5 0.28                           192 318 
 624  0Z IP        652 47.96   63                         36    0.97 4  213 326 
 624  0E ES        653 13.41                              36    1.89 4  213 326 
 624  0E  IAML     653 16.74       144.1 0.25                           213 326 
 622  0Z IP        652 50.28   59                         36    1.10 3  232 319 
 622  0N ES        653 17.41                              36    2.04 3  232 319 
 622  0E  IAML     653 19.90        86.8 0.19                           232 319 
                                                                                
 2016  824 1042 42.9 L                       BER                               1
 ACTION:REG 21-01-08 15:26 OP:elen STATUS:               ID:20160824104242     I
 2016-08-24-1042-42M.arct__039                                                 6
 STAT SP IPHASW D HRMM SECON CODA AMPLIT PERI AZIMU VELO AIN AR TRES W  DIS CAZ7
                                                                                
 2016  824 1259 27.7 D  64.565 126.878 17.0  BER  4 0.2 3.2LBER                1
 GAP=354        2.62     999.9   999.9999.9 -0.1229E+08  0.1550E+08 -0.1287E+09E
 ACTION:UP  21-01-10 20:12 OP:elen STATUS:               ID:20160824130000     I
 OLDACT:REG 21-01-08 15:27 OP:elen STATUS:               ID:20160824130000     3
 2016-08-24-1300-00M.arct__039                                                 6
 STAT SP IPHASW D HRMM SECON CODA AMPLIT PERI AZIMU VELO AIN AR TRES W  DIS CAZ7
 631  0Z IP       13 1  7.30                              46   -0.2910  763   1 
 631  0N ES       13 2 26.33                              48   -0.0310  763   1 
 631  0N  IAML    13 3 12.21         7.8 0.32                           763   1 
 626  0Z IP       13 1 14.46                              46    0.0310  818 358 
 626  0E ES       13 2 38.75                              48    0.1210  818 358 
 626  0E  IAML    13 2 42.03         2.9 0.34                           818 358 
 621  0Z IP       13 1 18.86                              46   -0.0410  854 355 
 621  0N ES       13 2 46.38                              48   -0.2810  854 355 
 621  0E  IAML    13 3  0.67         2.6 0.32                           854 355 
 623  0Z IP       13 1 20.81                              46    0.3110  867 357 
 623  0N ES       13 2 49.73                              48    0.1910  867 357 
 623  0N  IAML    13 2 50.97         1.8 0.39                           867 357 
                                                                                
 2016  824 1510 30.5 L  71.594 130.138  0.0  BER  9 0.4 1.5LBER 1.7CBER        1
 GAP=307        0.52       3.9    21.0  8.0 -0.4230E+02  0.1367E+03 -0.1640E+02E
 ACTION:UP  21-01-08 17:48 OP:elen STATUS:               ID:20160824150925     I
 OLDACT:REG 21-01-08 15:28 OP:elen STATUS:               ID:20160824150925     3
 2016-08-24-1509-25M.arct__039                                                 6
 STAT SP IPHASW D HRMM SECON CODA AMPLIT PERI AZIMU VELO AIN AR TRES W  DIS CAZ7
 632  0Z IP       1510 36.22   32                         53   -0.3810 37.6 267 
 632  0N ES       1510 40.99                              53   -0.2210 37.6 267 
 632  0E  IAML    1510 41.82        57.3 0.16                          37.6 267 
 631  0Z IP       1510 47.36   47                         53    0.13 7  105 259 
 631  0N ES       1511  0.30                              53    0.37 7  105 259 
 631  0N  IAML    1511  4.84        17.3 0.27                           105 259 
 628  0Z IP       1510 52.42   50                         53    0.10 6  137 312 
 628  0E ES       1511  9.04                              53    0.15 6  137 312 
 628  0N  IAML    1511  9.68        11.8 0.34                           137 312 
 626  0Z IP       1510 54.14   56                         53    0.16 6  147 285 
 626  0N ES       1511 11.96                              53    0.16 6  147 285 
 626  0N  IAML    1511 16.05         4.8 0.22                           147 285 
 625  0Z IP       1510 55.33   54                         53    0.27 6  154 297 
 625  0N ES       1511 14.04                              53    0.34 6  154 297 
 625  0N  IAML    1511 16.35         7.3 0.37                           154 297 
 624  0Z IP       1510 56.49   54                         53   -0.36 5  165 308 
 624  0N ES       1511 16.04                              53   -0.81 5  165 308 
 624  0N  IAML    1511 18.49        10.4 0.23                           165 308 
 623  0Z IP       1510 57.94   60                         53    0.06 5  172 300 
 623  0E ES       1511 18.61                              53   -0.05 5  172 300 
 623  0N  IAML    1511 23.33         3.6 0.31                           172 300 
 622  0Z IP       1511  0.26   58                         36    0.04 4  191 302 
 622  0N ES       1511 22.56                              36   -0.22 4  191 302 
 622  0N  IAML    1511 25.19         6.4 0.26                           191 302 
 621  0Z IP       1511  1.22   61                         36    0.68 4  194 292 
 621  0N ES       1511 24.23                              36    0.88 4  194 292 
 621  0E  IAML    1511 25.52         2.6 0.22                           194 292 
                                                                                
 2016  824 1510 30.7 L  71.588 130.118  0.0  BER  9 0.4 1.5LBER 1.7CBER        1
 GAP=307        0.54       4.0    21.5  8.2 -0.4516E+02  0.1435E+03 -0.1768E+02E
 ACTION:UP  21-01-08 21:12 OP:elen STATUS:               ID:20160824150955     I
 OLDACT:REG 21-01-08 15:28 OP:elen STATUS:               ID:20160824150955     3
 2016-08-24-1509-55M.arct__039                                                 6
 STAT SP IPHASW D HRMM SECON CODA AMPLIT PERI AZIMU VELO AIN AR TRES W  DIS CAZ7
 632  0Z IP       1510 36.19   44                         53   -0.4310 36.9 268 
 632  0N ES       1510 40.97                              53   -0.1810 36.9 268 
 632  0E  IAML    1510 41.82        55.3 0.16                          36.9 268 
 631  0Z IP       1510 47.35   52                         53    0.11 7  104 260 
 631  0N ES       1511  0.22                              53    0.38 7  104 260 
 631  0N  IAML    1511  4.84        17.2 0.26                           104 260 
 628  0Z IP       1510 52.52   50                         53    0.06 6  137 313 
 628  0N ES       1511  9.14                              53    0.12 6  137 313 
 628  0N  IAML    1511  9.68        12.3 0.35                           137 313 
 626  0Z IP       1510 54.14   50                         53    0.10 6  147 285 
 626  0N ES       1511 11.92                              53    0.12 6  147 285 
 626  0N  IAML    1511 16.04         4.8 0.21                           147 285 
 625  0Z IP       1510 55.30   54                         53    0.15 6  154 297 
 625  0N ES       1511 13.96                              53    0.20 6  154 297 
 625  0N  IAML    1511 16.35         7.2 0.37                           154 297 
 624  0Z IP       1510 56.55   50                         53   -0.43 5  165 309 
 624  0N ES       1511 16.10                              53   -0.87 5  165 309 
 624  0N  IAML    1511 18.49        10.4 0.22                           165 309 
 623  0Z IP       1510 58.07   59                         53    0.09 5  172 301 
 623  0N ES       1511 18.75                              53    0.01 5  172 301 
 623  0N  IAML    1511 23.33         3.5 0.31                           172 301 
 622  0Z IP       1511  0.82   57                         36    0.48 4  191 302 
 622  0N ES       1511 23.48                              36    0.60 4  191 302 
 622  0N  IAML    1511 25.19         6.3 0.27                           191 302 
 621  0Z IP       1511  1.22   61                         36    0.58 4  193 293 
 621  0N ES       1511 24.18                              36    0.77 4  193 293 
 621  0E  IAML    1511 25.52         2.5 0.22                           193 293 
                                                                                
 2016  825 0349 11.2 D  76.012 132.613 15.6  BER  4 0.2 2.5LBER 2.9CBER        1
 GAP=349        2.62     999.9   999.9999.9  0.8820E+07  0.1229E+08  0.6633E+07E
 ACTION:UP  21-01-10 16:08 OP:elen STATUS:               ID:20160825034933     I
 OLDACT:REG 21-01-08 15:29 OP:elen STATUS:               ID:20160825034933     3
 2016-08-25-0349-33M.arct__036                                                 6
 STAT SP IPHASW D HRMM SECON CODA AMPLIT PERI AZIMU VELO AIN AR TRES W  DIS CAZ7
 628  0Z IP        350 10.61  125                         46   -0.2310  436 205 
 628  0N ES        350 57.24                              48   -0.2410  436 205 
 628  0N  IAML     350 59.01         3.6 0.22                           436 205 
 630  0Z IP        350 13.70  119                         46    0.0410  458 199 
 630  0E ES        351  2.60                              48    0.0510  458 199 
 630  0N  IAML     351  5.14        15.0 0.30                           458 199 
 623  0Z IP        350 13.86  111                         46   -0.0810  461 210 
 623  0N ES        351  2.90                              48   -0.1510  461 210 
 623  0E  IAML     351  4.27         7.6 0.23                           461 210 
 625  0Z IP        350 15.57  122                         46    0.2610  472 208 
 625  0E ES        351  5.87                              48    0.3510  472 208 
 625  0N  IAML     351 10.00         3.3 0.21                           472 208 
                                                                                
 2016  825 0754 57.2 L  72.362 130.451  0.3  BER  4 0.1 0.7LBER 1.4CBER        1
 GAP=292        0.29       4.6    27.8 11.6  0.1181E+03  0.3062E+03  0.4833E+02E
 ACTION:UP  21-01-10 18:50 OP:elen STATUS:               ID:20160825075407     I
 OLDACT:REG 21-01-08 15:29 OP:elen STATUS:               ID:20160825075407     3
 2016-08-25-0754-07M.arct__036                                                 6
 STAT SP IPHASW D HRMM SECON CODA AMPLIT PERI AZIMU VELO AIN AR TRES W  DIS CAZ7
 630  0Z IP        755  9.78   42                         53   -0.0410 79.3 247 
 630  0N ES        755 19.45                              53    0.0310 79.3 247 
 630  0N  IAML     755 20.56         2.7 0.18                          79.3 247 
 632  0Z IP        755 13.11   41                         53   -0.01 9  100 209 
 632  0N ES        755 25.22                              53    0.01 9  100 209 
 632  0E  IAML     755 28.01         1.6 0.08                           100 209 
 628  0Z IP        755 14.91   39                         53   -0.06 9  112 274 
 628  0N ES        755 28.34                              53   -0.14 9  112 274 
 628  0N  IAML     755 29.65         1.9 0.12                           112 274 
 624  0Z IP        755 19.84   42                         53    0.17 7  141 277 
 624  0N ES        755 36.89                              53    0.14 7  141 277 
 624  0N  IAML     755 38.62         3.4 0.20                           141 277 
                                                                                
 2016  825 1710 26.1 L                       BER                               1
 ACTION:REG 21-01-08 15:31 OP:elen STATUS:               ID:20160825171026     I
 2016-08-25-1710-26M.arct__036                                                 6
 STAT SP IPHASW D HRMM SECON CODA AMPLIT PERI AZIMU VELO AIN AR TRES W  DIS CAZ7
                                                                                
 2016  826  7 2  2.8 L                       BER                               1
 ACTION:REG 21-01-08 15:32 OP:elen STATUS:               ID:20160826070202     I
 2016-08-26-0702-02M.arct__039                                                 6
 STAT SP IPHASW D HRMM SECON CODA AMPLIT PERI AZIMU VELO AIN AR TRES W  DIS CAZ7
                                                                                
 2016  828 1632 37.5 L  73.299 125.159 26.0  BER  3 0.0 1.0LBER 1.3CBER        1
 GAP=341        0.29       3.5    21.0  2.9  0.1899E+02  0.6374E+01 -0.1304E+01E
 ACTION:UP  21-01-10 17:20 OP:elen STATUS:               ID:20160828163141     I
 OLDACT:REG 21-01-08 15:32 OP:elen STATUS:               ID:20160828163141     3
 2016-08-28-1631-41M.arct__036                                                 6
 STAT SP IPHASW D HRMM SECON CODA AMPLIT PERI AZIMU VELO AIN AR TRES W  DIS CAZ7
 622  0Z IP       1632 52.73   35                         97   -0.0110 95.7 177 
 622  0E ES       1633  4.36                              97    0.0110 95.7 177 
 622  0N  IAML    1633  8.57         4.6 0.27                          95.7 177 
 624  0Z IP       1632 53.20   44                         97   -0.0010 98.9 158 
 624  0N ES       1633  5.17                              97    0.0010 98.9 158 
 624  0N  IAML    1633  7.65         6.9 0.23                          98.9 158 
 623  0Z IP       1632 54.83   39                         58    0.02 9  110 169 
 623  0E ES       1633  7.99                              58   -0.01 9  110 169 
 623  0N  IAML    1633 12.01         3.3 0.23                           110 169 
                                                                                
 2016  828 1751 26.5 L                       BER                               1
 ACTION:REG 21-01-08 15:33 OP:elen STATUS:               ID:20160828175126     I
 2016-08-28-1751-26M.arct__036                                                 6
 STAT SP IPHASW D HRMM SECON CODA AMPLIT PERI AZIMU VELO AIN AR TRES W  DIS CAZ7
                                                                                
