 2016  819 1104 39.8 L  71.968 129.910  0.0  BER  5 0.2 0.7LBER 1.0CBER        1
 GAP=330        0.39      12.5   154.7 63.9 -0.1764E+04  0.9863E+04 -0.7346E+03E
 ACTION:ARG 20-05-11 21:31 OP:mn   STATUS:               ID:20160819110358     I
 2016-08-19-1103-58M.arct__039                                                 6
 STAT SP IPHASW D HRMM SECON CODA AMPLIT PERI AZIMU VELO AIN AR TRES W  DIS CAZ7
 630  0Z IP     C 11 4 48.47   27                         53   -0.3410 55.9 283 
 630  0N ES       11 4 55.42                              53   -0.2010 55.9 283 
 630  0Z  IAML    11 4 57.91         3.3 0.08                          55.9 283 
 629  0Z IP     C 11 4 54.27   34                         53    0.07 9 89.9 268 
 629  0N ES       11 5  5.22                              53    0.11 9 89.9 268 
 629  0Z  IAML    11 5  8.13         2.0 0.18                          89.9 268 
 627  0Z IP     D 11 4 56.29                              53    0.15 8  102 281 
 627  0N ES       11 5  8.61                              53    0.09 8  102 281 
 627  0Z  IAML    11 5 11.77         2.0 0.14                           102 281 
 628  0Z IP     C 11 4 56.93   32                         53    0.18 8  106 298 
 628  0N ES       11 5  9.69                              53    0.09 8  106 298 
 628  0Z  IAML    11 5 10.06         9.0 0.27                           106 298 
 625  0Z IP     C 11 5  1.10   33                         53    0.12 7  133 282 
 625  0N ES       11 5 17.09                              53    0.05 7  133 282 
 625  0Z  IAML    11 5 20.68         1.2 0.23                           133 282 
                                                                                
 2016  819 1107 10.3 L  72.021 130.046 17.8  BER  4 0.1 0.6LBER 0.8CBER        1
 GAP=331        0.31       4.3     9.1  2.5  0.3327E+01  0.6612E+00 -0.9447E+00E
 ACTION:ARG 20-05-11 21:31 OP:mn   STATUS:               ID:20160819110622     I
 2016-08-19-1106-22M.arct__039                                                 6
 STAT SP IPHASW D HRMM SECON CODA AMPLIT PERI AZIMU VELO AIN AR TRES W  DIS CAZ7
 630  0Z IP     C 11 7 20.02   24                        105   -0.1210 59.5 277 
 630  0E ES       11 7 27.64                             105    0.0410 59.5 277 
 630  0Z  IAML    11 7 29.23         1.8 0.08                          59.5 277 
 629  0Z IP     C 11 7 25.60                              98    0.03 9 95.0 265 
 629  0N ES       11 7 37.25                              98    0.09 9 95.0 265 
 629  0Z  IAML    11 7 37.29         1.2 0.20                          95.0 265 
 627  0Z IP     C 11 7 27.22   27                         70    0.05 8  106 277 
 627  0E ES       11 7 39.79                              70   -0.18 8  106 277 
 627  0Z  IAML    11 7 41.38         2.0 0.13                           106 277 
 628  0Z IP     C 11 7 27.51   29                         70    0.09 8  108 295 
 628  0N ES       11 7 40.44                              70    0.03 8  108 295 
 628  0Z  IAML    11 7 40.95         3.2 0.24                           108 295 
                                                                                
 2016  819 1115 20.5 L  72.004 129.934 15.1  BER  4 0.1 0.3LBER 0.9CBER        1
 GAP=342        0.33       6.0    10.4  4.1  0.2015E+02 -0.5023E+01 -0.2765E+00E
 ACTION:ARG 20-05-11 21:31 OP:mn   STATUS:               ID:20160819111419     I
 2016-08-19-1114-19M.arct__039                                                 6
 STAT SP IPHASW D HRMM SECON CODA AMPLIT PERI AZIMU VELO AIN AR TRES W  DIS CAZ7
 630  0Z IP     C 1115 29.65   29                        103   -0.0510 56.0 279 
 630  0E ES       1115 36.84                             103    0.1610 56.0 279 
 630  0Z  IAML    1115 39.17         1.1 0.10                          56.0 279 
 627  0Z IP     C 1115 36.81   26                         94   -0.05 8  102 279 
 627  0N ES       1115 49.05                              94   -0.23 8  102 279 
 627  0Z  IAML    1115 49.74         0.8 0.16                           102 279 
 628  0Z IP     D 1115 37.27   32                         94    0.00 8  105 296 
 628  0N ES       1115 49.98                              94   -0.02 8  105 296 
 628  0Z  IAML    1115 51.61         1.9 0.18                           105 296 
 625  0Z IP     C 1115 41.59   32                         70    0.14 7  133 280 
 625  0N ES       1115 57.38                              70    0.02 7  133 280 
 625  0Z  IAML    1115 58.25         0.4 0.15                           133 280 
                                                                                
 2016  819 1124 56.1 L  71.862 129.819 27.0  BER  4 0.3 0.2LBER 0.4CBER        1
 GAP=275        0.54       4.0    20.2  4.8  0.5155E+02 -0.4514E+02 -0.1361E+02E
 ACTION:ARG 20-05-11 21:31 OP:mn   STATUS:               ID:20160819112355     I
 2016-08-19-1123-55M.arct__039                                                 6
 STAT SP IPHASW D HRMM SECON CODA AMPLIT PERI AZIMU VELO AIN AR TRES W  DIS CAZ7
 632  0Z IP     C 1125  3.78   19                        118   -0.0010 41.4 219 
 632  0N ES       1125  9.54                             118   -0.0710 41.4 219 
 632  0Z  IAML    1125 10.99         1.6 0.09                          41.4 219 
 630  0Z IP     C 1125  5.70   17                        109   -0.15 9 56.8 295 
 630  0E ES       1125 13.07                             109   -0.18 9 56.8 295 
 630  0Z  IAML    1125 15.67         0.7 0.08                          56.8 295 
 627  0Z IP     C 1125 12.57   23                         97    0.25 8  102 288 
 627  0N ES       1125 25.08                              97    0.44 8  102 288 
 627  0Z  IAML    1125 27.08         0.8 0.11                           102 288 
 628  0Z IP     C 1125 13.60   24                         58    0.33 7  109 305 
 628  0E ES       1125 25.89                              58   -0.42 7  109 305 
 628  0Z  IAML    1125 26.19         1.6 0.28                           109 305 
                                                                                
 2016  819 1133 46.5 L  71.868 129.847 19.6  BER  4 0.1 0.1LBER 1.1CBER        1
 GAP=285        0.37       2.0    11.1  2.6  0.9026E+01  0.4862E+01 -0.1969E+01E
 ACTION:ARG 20-05-11 21:31 OP:mn   STATUS:               ID:20160819113245     I
 2016-08-19-1132-45M.arct__039                                                 6
 STAT SP IPHASW D HRMM SECON CODA AMPLIT PERI AZIMU VELO AIN AR TRES W  DIS CAZ7
 632  0Z IP     D 1133 53.80   23                        113   -0.0810 42.6 220 
 632  0E ES       1133 59.53                             113    0.0110 42.6 220 
 632  0Z  IAML    1134  0.79         2.0 0.07                          42.6 220 
 630  0Z IP     C 1133 56.09   34                        107    0.04 9 57.4 294 
 630  0E ES       1134  3.34                             107    0.01 9 57.4 294 
 630  0Z  IAML    1134  5.55         0.8 0.05                          57.4 294 
 629  0Z IP     C 1134  0.88   42                         70    0.26 8 88.1 276 
 629  0N ES       1134 11.49                              70    0.12 8 88.1 276 
 629  0Z  IAML    1134 13.69         0.6 0.13                          88.1 276 
 627  0Z IP     C 1134  2.61   39                         70   -0.15 8  103 287 
 627  0N ES       1134 14.89                              70   -0.24 8  103 287 
 627  0Z  IAML    1134 16.90         0.9 0.14                           103 287 
                                                                                
 2016  819 1156 22.5 L  71.882 129.820 19.5  BER  4 0.3 0.3LBER 0.5CBER        1
 GAP=274        0.58       3.5    19.0  4.7  0.3307E+02 -0.1107E+02 -0.9734E+01E
 ACTION:ARG 20-05-11 21:31 OP:mn   STATUS:               ID:20160819115521     I
 2016-08-19-1155-21M.arct__039                                                 6
 STAT SP IPHASW D HRMM SECON CODA AMPLIT PERI AZIMU VELO AIN AR TRES W  DIS CAZ7
 632  0Z IP     D 1156 29.92   18                        113   -0.0210 43.2 218 
 632  0N ES       1156 35.54                             113   -0.1010 43.2 218 
 632  0Z  IAML    1156 37.76         1.9 0.08                          43.2 218 
 630  0Z IP     C 1156 31.76   19                        108   -0.0510 56.0 293 
 630  0E ES       1156 39.04                             108    0.1210 56.0 293 
 630  0Z  IAML    1156 41.61         0.9 0.10                          56.0 293 
 627  0Z IP     C 1156 39.09   26                         70    0.54 8  101 286 
 627  0N ES       1156 51.02                              70    0.23 8  101 286 
 627  0Z  IAML    1156 52.77         1.4 0.22                           101 286 
 628  0Z IP     C 1156 39.49   28                         70   -0.08 7  108 304 
 628  0E ES       1156 51.94                              70   -0.63 7  108 304 
 628  0Z  IAML    1156 52.80         1.7 0.16                           108 304 
                                                                                
 2016  819 1353 54.9 L  71.905 129.870  0.9  BER  4 0.2 0.7LBER 0.6CBER        1
 GAP=275        0.50       4.8    55.5 19.3  0.2438E+03  0.1035E+04  0.8183E+02E
 ACTION:ARG 20-05-11 21:31 OP:mn   STATUS:               ID:20160819135255     I
 2016-08-19-1352-55M.arct__039                                                 6
 STAT SP IPHASW D HRMM SECON CODA AMPLIT PERI AZIMU VELO AIN AR TRES W  DIS CAZ7
 632  0Z IP     D 1354  2.30   29                         91   -0.0410 46.3 217 
 632  0N ES       1354  7.79                              91   -0.1710 46.3 217 
 632  0Z  IAML    1354  9.59       146.5 0.06                          46.3 217 
 630  0Z IP     C 1354  3.79   17                         90   -0.1810 56.6 290 
 630  0N ES       1354 10.74                              90   -0.0910 56.6 290 
 630  0Z  IAML    1354 13.28         1.0 0.10                          56.6 290 
 627  0Z IP     C 1354 11.70   24                         90    0.48 8  102 285 
 627  0N ES       1354 23.87                              90    0.28 8  102 285 
 627  0Z  IAML    1354 24.53         1.1 0.15                           102 285 
 628  0Z IP     C 1354 12.41   26                         90    0.24 8  108 302 
 628  0E ES       1354 25.03                              90   -0.23 8  108 302 
 628  0Z  IAML    1354 27.19         1.4 0.20                           108 302 
                                                                                
 2016  819 1405 22.6 L  71.949 129.790  9.1  BER  5 0.1 0.6LBER 0.8CBER        1
 GAP=328        0.31       3.6     8.5  4.3  0.7184E+01  0.9965E+00 -0.1246E+01E
 ACTION:ARG 20-05-11 21:31 OP:mn   STATUS:               ID:20160819140441     I
 2016-08-19-1404-41M.arct__039                                                 6
 STAT SP IPHASW D HRMM SECON CODA AMPLIT PERI AZIMU VELO AIN AR TRES W  DIS CAZ7
 630  0Z IP     C 14 5 31.20   21                         99    0.0910 52.4 286 
 630  0N ES       14 5 37.50                              99   -0.0510 52.4 286 
 630  0Z  IAML    14 5 40.37         2.1 0.12                          52.4 286 
 627  0Z IP     C 14 5 38.26   26                         81   -0.09 8 98.5 282 
 627  0N ES       14 5 50.53                              81    0.24 8 98.5 282 
 627  0Z  IAML    14 5 51.94         1.3 0.11                          98.5 282 
 628  0Z IP     C 14 5 39.02   26                         81   -0.09 8  103 300 
 628  0E ES       14 5 51.55                              81   -0.09 8  103 300 
 628  0Z  IAML    14 5 52.43         3.8 0.20                           103 300 
 626  0Z IP     C 14 5 43.35   31                         81    0.01 7  130 269 
 626  0N ES       14 5 58.90                              81   -0.17 7  130 269 
 626  0Z  IAML    14 5 59.11         1.4 0.38                           130 269 
 624  0Z IP     D 14 5 43.91   28                         81    0.08 7  133 298 
 624  0N ES       14 5 59.96                              81    0.03 7  133 298 
 624  0Z  IAML    14 6  1.96         1.4 0.18                           133 298 
                                                                                
 2016  819 2020 13.4 L  71.919 129.760  7.6  BER  5 0.2 1.1LBER 1.4CBER        1
 GAP=337        0.32       6.8    11.2  3.8  0.1965E+02 -0.7154E+01 -0.7569E+01E
 ACTION:ARG 20-05-11 21:31 OP:mn   STATUS:               ID:20160819201910     I
 2016-08-19-2019-10M.arct__039                                                 6
 STAT SP IPHASW D HRMM SECON CODA AMPLIT PERI AZIMU VELO AIN AR TRES W  DIS CAZ7
 626  0Z  IAML    2020 53.80         2.6 0.07                           129 270 
 625  0Z IP     D 2020 33.97   40                         81    0.0910  129 284 
 625  0N ES       2020 49.52                              81    0.0610  129 284 
 625  0Z  IAML    2020 51.47         3.8 0.18                           129 284 
 626  0Z IP     D 2020 33.77   37                         81   -0.1810  129 270 
 626  0N ES       2020 49.54                              81   -0.0510  129 270 
 623  0Z IP     D 2020 36.39                              81    0.08 9  144 290 
 623  0N ES       2020 53.78                              81    0.05 9  144 290 
 623  0Z  IAML    2020 55.60         3.8 0.16                           144 290 
 622  0Z IP     C 2020 38.79   44                         50   -0.09 8  163 293 
 622  0E ES       2020 57.88                              50   -0.37 8  163 293 
 622  0Z  IAML    2020 59.84         3.2 0.19                           163 293 
 621  0Z IP     C 2020 39.93   41                         48    0.13 8  170 282 
 621  0N ES       2021  0.21                              48    0.33 8  170 282 
 621  0Z  IAML    2021  0.92         5.0 0.20                           170 282 
                                                                                
 2016  819 2043 43.7 L  71.992 129.948  3.9  BER  5 0.2 1.2LBER 1.3CBER        1
 GAP=332        0.36       5.1    11.2  4.2  0.7769E+01 -0.1058E+02  0.1579E+00E
 ACTION:ARG 20-05-11 21:31 OP:mn   STATUS:               ID:20160819204246     I
 2016-08-19-2042-46M.arct__039                                                 6
 STAT SP IPHASW D HRMM SECON CODA AMPLIT PERI AZIMU VELO AIN AR TRES W  DIS CAZ7
 629  0Z IP     C 2043 58.24   37                         92    0.0210 91.4 267 
 629  0N ES       2044  9.28                              92    0.0110 91.4 267 
 629  0Z  IAML    2044 10.34        10.5 0.18                          91.4 267 
 627  0Z IP     D 2044  0.16   42                         92    0.10 9  103 279 
 627  0N ES       2044 12.27                              92   -0.24 9  103 279 
 627  0Z  IAML    2044 13.18         7.6 0.14                           103 279 
 624  0Z IP     D 2044  5.04   42                         91   -0.30 8  136 295 
 624  0E ES       2044 21.83                              91    0.03 8  136 295 
 624  0Z  IAML    2044 25.29         5.5 0.20                           136 295 
 623  0Z IP     D 2044  7.21   36                         91    0.02 7  148 287 
 623  0E ES       2044 25.49                              91    0.42 7  148 287 
 623  0Z  IAML    2044 26.04         3.3 0.18                           148 287 
 621  0Z IP     C 2044 11.25   37                         48    0.19 6  175 279 
 621  0E ES       2044 31.76                              48   -0.11 6  175 279 
 621  0Z  IAML    2044 32.98         3.6 0.15                           175 279 
                                                                                
 2016  820 0036 11.3 L  71.975 130.008  1.0  BER  4 0.1 1.0LBER 0.9CBER        1
 GAP=331        0.29       4.0    32.9999.9  0.7164E+02 -0.5263E+05 -0.3604E+04E
 ACTION:ARG 20-05-11 21:31 OP:mn   STATUS:               ID:20160820003459     I
 2016-08-20-0034-59M.arct__039                                                 6
 STAT SP IPHASW D HRMM SECON CODA AMPLIT PERI AZIMU VELO AIN AR TRES W  DIS CAZ7
 629  0Z IP     C  036 26.04                              90   -0.0610 93.4 268 
 629  0N ES        036 37.37                              90   -0.0210 93.4 268 
 629  0Z  IAML     036 37.71         5.7 1.09                          93.4 268 
 627  0Z IP     D  036 28.03   33                         90    0.03 9  105 280 
 627  0N ES        036 40.81                              90    0.07 9  105 280 
 627  0Z  IAML     036 41.96         4.8 0.30                           105 280 
 628  0Z IP     D  036 28.44   24                         90   -0.09 9  109 297 
 628  0Z  IAML     036 41.55         4.7 0.23                           109 297 
 628  0N ES        036 41.55                              90   -0.10 9  109 297 
 624  0Z IP     C  036 33.52   30                         90    0.18 8  139 296 
 624  0E ES        036 50.19                              90    0.07 8  139 296 
 624  0Z  IAML     036 51.80         2.2 0.21                           139 296 
                                                                                
 2016  820 0036 12.8 L  71.999 129.786  1.8  BER  5 0.1 0.9LBER 1.3CBER        1
 GAP=329        0.31       4.2    19.0451.6 -0.3356E+02 -0.7598E+04  0.1028E+04E
 ACTION:ARG 20-05-11 21:31 OP:mn   STATUS:               ID:20160820003530     I
 2016-08-20-0035-30M.arct__039                                                 6
 STAT SP IPHASW D HRMM SECON CODA AMPLIT PERI AZIMU VELO AIN AR TRES W  DIS CAZ7
 627  0Z IP     D  036 28.19   35                         91   -0.0610 97.3 279 
 627  0E ES        036 40.00                              91   -0.0210 97.3 279 
 627  0Z  IAML     036 41.96         4.4 0.28                          97.3 279 
 628  0Z IP     D  036 28.72   29                         91   -0.0510  101 298 
 628  0N ES        036 40.97                              91    0.0410  101 298 
 625  0Z IP     C  036 33.29   37                         91    0.21 8  128 281 
 625  0N ES        036 48.79                              91    0.27 8  128 281 
 625  0Z  IAML     036 51.16         5.0 3.16                           128 281 
 626  0Z IP     C  036 33.51   52                         91    0.01 8  130 266 
 626  0N ES        036 49.10                              91   -0.17 8  130 266 
 626  0Z  IAML     036 50.28         0.9 0.14                           130 266 
 624  0Z IP     D  036 33.52   38                         91   -0.05 8  131 296 
 624  0E ES        036 49.23                              91   -0.15 8  131 296 
 624  0Z  IAML     036 54.02         3.0 0.26                           131 296 
                                                                                
 2016  820 0052 15.6 L  72.809 131.126 15.6  BER  1 0.0 1.3LBER 1.3CBER        1
 GAP=360        0.30      15.4    48.9  0.0 -0.6477E+02 -0.7598E+04  0.1028E+04E
 ACTION:ARG 20-05-11 21:31 OP:mn   STATUS:               ID:20160820005142     I
 2016-08-20-0051-42M.arct__039                                                 6
 STAT SP IPHASW D HRMM SECON CODA AMPLIT PERI AZIMU VELO AIN AR TRES W  DIS CAZ7
 626  0Z IP     C  052 44.76   38                         49    0.0010  201 242 
 626  0Z E         052 44.91                   56.8  8.6      0         201 242 
 626  0N ES        053  6.92                              49   -0.0010  201 242 
 626  0Z  IAML     053  9.35         2.9 0.26                           201 242 
                                                                                
