 2016  818 1613  9.3 L  73.032 124.859 19.3  BER  6 0.1 1.2LBER 1.0CBER        1
 GAP=300        0.31       2.3     6.1  1.6  0.3166E+00 -0.2791E+01 -0.1199E+00E
 ACTION:ARG 20-05-11 21:31 OP:mn   STATUS:               ID:20160818161147     I
 2016-08-18-1611-47M.arct__039                                                 6
 STAT SP IPHASW D HRMM SECON CODA AMPLIT PERI AZIMU VELO AIN AR TRES W  DIS CAZ7
 620  0Z IP     C 1613 16.96                             112   -0.1610 45.4 202 
 620  0E ES       1613 23.16                             112    0.1210 45.4 202 
 620  0Z  IAML    1613 24.06       191.9 0.08                          45.4 202 
 622  0Z IP     D 1613 20.44   30                        104    0.03 9 67.5 167 
 622  0E ES       1613 28.63                             104   -0.20 9 67.5 167 
 622  0Z  IAML    1613 29.83         3.6 0.20                          67.5 167 
 624  0Z IP     C 1613 22.00   23                        102    0.03 9 77.7 142 
 624  0E ES       1613 31.70                             102    0.12 9 77.7 142 
 624  0Z  IAML    1613 32.34         9.1 0.30                          77.7 142 
 623  0Z IP     D 1613 22.97   30                         70    0.05 8 84.3 159 
 623  0N ES       1613 33.18                              70   -0.08 8 84.3 159 
 623  0Z  IAML    1613 34.86         4.9 0.65                          84.3 159 
 621  0Z IP     C 1613 24.61   39                         70    0.14 8 94.6 179 
 621  0E ES       1613 36.08                              70    0.10 8 94.6 179 
 621  0Z  IAML    1613 36.41         5.9 0.35                          94.6 179 
 626  0Z IP     C 1613 30.03   39                         52   -0.10 7  134 162 
 626  0E ES       1613 45.87                              52   -0.07 7  134 162 
 626  0Z  IAML    1613 47.36         3.0 0.23                           134 162 
                                                                                
 2016  818 1613  9.1 L  73.045 124.840 19.0  BER  6 0.1 1.4LBER 1.2CBER        1
 GAP=302        0.27       2.0     5.4  1.4  0.1933E+00 -0.2149E+01 -0.1216E+00E
 ACTION:ARG 20-05-11 21:31 OP:mn   STATUS:               ID:20160818161218     I
 2016-08-18-1612-18M.arct__039                                                 6
 STAT SP IPHASW D HRMM SECON CODA AMPLIT PERI AZIMU VELO AIN AR TRES W  DIS CAZ7
 620  0Z IP     C 1613 16.96   50                        111   -0.0810 46.6 201 
 620  0E ES       1613 23.10                             111    0.0210 46.6 201 
 620  0Z  IAML    1613 24.06       187.0 0.08                          46.6 201 
 622  0Z IP     C 1613 20.42   40                        103    0.01 9 69.1 167 
 622  0E ES       1613 28.96                             103   -0.04 9 69.1 167 
 622  0Z  IAML    1613 30.04       165.3 0.08                          69.1 167 
 624  0Z IP     C 1613 22.04   32                        101    0.07 9 79.3 143 
 624  0E ES       1613 31.71                             101   -0.04 9 79.3 143 
 624  0Z  IAML    1613 32.34         8.6 0.33                          79.3 143 
 623  0Z IP     D 1613 22.98   31                         70    0.03 8 85.8 159 
 623  0E ES       1613 33.55                              70    0.08 8 85.8 159 
 623  0Z  IAML    1613 34.86         4.7 0.64                          85.8 159 
 621  0Z IP     D 1613 24.62   27                         70    0.14 8 96.1 179 
 621  0N ES       1613 36.22                              70    0.05 8 96.1 179 
 621  0Z  IAML    1613 36.41         5.9 0.35                          96.1 179 
 626  0Z IP     C 1613 30.01   33                         52   -0.12 6  135 162 
 626  0E ES       1613 45.90                              52   -0.21 6  135 162 
 626  0Z  IAML    1613 47.01         3.6 0.19                           135 162 
                                                                                
 2016  819 0123 17.7 L  72.490 126.417 15.6  BER  1 0.0-0.3LBER-0.1CBER        1
 GAP=360        0.30       3.6    36.6  0.0  0.1320E+03 -0.2149E+01 -0.1216E+00E
 ACTION:ARG 20-05-11 21:31 OP:mn   STATUS:               ID:20160819012156     I
 2016-08-19-0121-56M.arct__039                                                 6
 STAT SP IPHASW D HRMM SECON CODA AMPLIT PERI AZIMU VELO AIN AR TRES W  DIS CAZ7
 624  0Z IP     D  123 20.36   14                        162    0.0210 5.02 252 
 624  0Z E         123 20.43                   71.8 14.0      0        5.02 252 
 624  0N ES        123 22.30                             162   -0.0210 5.02 252 
 624  0Z  IAML     123 23.07         2.7 0.13                          5.02 252 
                                                                                
 2016  819 0935 18.3 L  71.962 127.748 26.3  BER  3 0.0 0.2LBER 0.2CBER        1
 GAP=161        0.30       2.6     7.0  3.5 -0.1448E+02 -0.1493E+02  0.6940E+01E
 ACTION:ARG 20-05-11 21:31 OP:mn   STATUS:               ID:20160819093400     I
 2016-08-19-0934-00M.arct__039                                                 6
 STAT SP IPHASW D HRMM SECON CODA AMPLIT PERI AZIMU VELO AIN AR TRES W  DIS CAZ7
 629  0Z IP     D  935 23.04   15                        148   -0.0310 15.5 257 
 629  0N ES        935 26.69                             148    0.0110 15.5 257 
 629  0Z  IAML     935 26.80         2.6 0.12                          15.5 257 
 630  0Z IP     C  935 23.78   18                        135   -0.0310 23.6  57 
 630  0N ES        935 28.00                             135    0.0210 23.6  57 
 630  0Z  IAML     935 28.26         2.5 0.07                          23.6  57 
 631  0Z IP     C  935 29.29   22                        105    0.08 8 65.2 196 
 631  0E ES        935 37.45                             105   -0.04 8 65.2 196 
 631  0Z  IAML     935 37.65         1.8 0.19                          65.2 196 
                                                                                
 2016  819 0959 27.1 L  71.923 129.964  1.2  BER  4 0.2 3.8LBER-0.1CBER        1
 GAP=279        0.45       4.1    21.9404.6  0.7671E+02 -0.7128E+04 -0.1454E+04E
 ACTION:ARG 20-05-11 21:31 OP:mn   STATUS:               ID:20160819095819     I
 2016-08-19-0958-19M.arct__039                                                 6
 STAT SP IPHASW D HRMM SECON CODA AMPLIT PERI AZIMU VELO AIN AR TRES W  DIS CAZ7
 632  0Z IP     C  959 34.92                              91   -0.1710 49.9 219 
 632  0N ES        959 41.18                              91    0.0410 49.9 219 
 632  0Z  IAML     959 42.21      1943.9 0.10                          49.9 219 
 630  0Z IP        959 36.48   14                         91   -0.0510 59.0 287 
 630  0N ES        959 43.80                              91    0.1110 59.0 287 
 630  0Z  IAML     959 44.37      5529.0 0.23                          59.0 287 
 627  0Z IP     D  959 44.14                              90    0.32 8  105 283 
 627  0N ES        959 56.54                              90    0.02 8  105 283 
 627  0Z  IAML     959 57.59      3535.2 0.50                           105 283 
 628  0Z IP     D  959 44.82                              90    0.20 8  110 300 
 628  0E ES        959 57.50                              90   -0.43 8  110 300 
 628  0Z  IAML     959 57.92      7787.0 0.28                           110 300 
                                                                                
 2016  819 0959 27.5 L  71.927 129.875  3.1  BER 13 0.3 4.0LBER                1
 GAP=275        0.51       1.9     9.6  4.5  0.7107E+01 -0.8233E+01 -0.1804E+01E
 ACTION:REG 25-04-10 18:57 OP:mn   STATUS:               ID:20160819095900     I
 2016_08_19T09-59-00.mseed                                                     6
 STAT SP IPHASW D HRMM SECON CODA AMPLIT PERI AZIMU VELO AIN AR TRES W  DIS CAZ7
 632  0E IP        959 35.00                              93   -0.1910 48.3 216 
 632  0N ES        959 40.95                              93   -0.1110 48.3 216 
 632  0Z  IAML     959 42.18      3428.0 0.50                          48.3 216 
 630  0Z IP        959 35.80                              93   -0.6010 56.0 288 
 630  0N ES        959 42.95                              93   -0.2410 56.0 288 
 630  0Z  IAML     959 46.27      6335.7 0.50                          56.0 288 
 629  0Z IP        959 41.61                              92    0.03 8 88.7 271 
 629  0N ES        959 52.54                              92    0.23 8 88.7 271 
 629  0Z  IAML     959 54.21      5389.1 0.68                          88.7 271 
 627  0Z IP        959 43.92                              92    0.24 8  102 283 
 627  0N ES        959 56.12                              92    0.12 8  102 283 
 627  0Z  IAML     959 57.55      6763.1 0.60                           102 283 
 628  0Z IP        959 44.91                              91    0.39 8  107 301 
 628  0N ES        959 57.57                              91    0.10 8  107 301 
 628  0Z  IAML     959 57.77     13247.3 0.30                           107 301 
 631  0Z IP        959 45.27                              91    0.39 8  109 239 
 631  0N ES        959 58.28                              91    0.16 8  109 239 
 631  0Z  IAML    10 0  1.30      2476.7 0.62                           109 239 
 625  0Z IP        959 48.89                              91    0.36 7  133 284 
 625  0N ES       10 0  4.75                              91    0.22 7  133 284 
 626  0Z IP        959 48.58                              91   -0.07 7  133 270 
 626  0N ES       10 0  4.52                              91   -0.23 7  133 270 
 626  0Z  IAML    10 0 10.31      1874.4 0.66                           133 270 
 624  0Z IP        959 49.30                              91    0.02 6  137 298 
 624  0N ES       10 0  5.26                              91   -0.60 6  137 298 
 624  0Z  IAML    10 0  8.14      5848.4 0.52                           137 298 
 623  0Z IP        959 51.25                              91    0.30 6  148 289 
 623  0N ES       10 0  9.06                              91    0.26 6  148 289 
 623  0Z  IAML    10 0 14.10      3316.0 0.94                           148 289 
 622  0Z  IAML    10 0 18.96      1930.7 0.68                           166 292 
 621  0Z IP        959 55.04                              48    0.24 5  174 282 
 621  0N ES       10 0 15.56                              48   -0.01 5  174 282 
 621  0Z  IAML    10 0 16.65      3575.6 0.48                           174 282 
 620  0Z IP        959 58.46                              48    0.10 4  204 296 
 620  0N ES       10 0 21.35                              48   -0.48 4  204 296 
 620  0Z  IAML    10 0 30.78      4656.0 8.67                           204 296 
                                                                                
 2016  819 1004 43.7 L  71.864 129.937 27.5  BER  3 0.0 0.7LBER 1.0CBER        1
 GAP=290        0.30       2.1    12.1  2.2  0.1208E+02 -0.4427E+01 -0.2405E+01E
 ACTION:ARG 20-05-11 21:31 OP:mn   STATUS:               ID:20160819100343     I
 2016-08-19-1003-43M.arct__039                                                 6
 STAT SP IPHASW D HRMM SECON CODA AMPLIT PERI AZIMU VELO AIN AR TRES W  DIS CAZ7
 632  0Z IP     D 10 4 51.84   27                        117    0.0210 44.3 223 
 632  0E ES       10 4 57.95                             117   -0.0110 44.3 223 
 632  0Z  IAML    10 4 58.97         2.8 0.08                          44.3 223 
 630  0Z IP     C 10 4 53.94   30                        108   -0.07 9 60.5 294 
 630  0N ES       10 5  1.85                             108    0.04 9 60.5 294 
 630  0Z  IAML    10 5  2.80         3.7 0.25                          60.5 294 
 627  0Z IP     D 10 5  0.49   34                         58    0.07 8  106 287 
 627  0N ES       10 5 13.05                              58   -0.04 8  106 287 
 627  0Z  IAML    10 5 16.33         7.2 0.92                           106 287 
                                                                                
 2016  819 1006 33.6 L  71.903 129.957 14.3  BER  4 0.2 0.9LBER 1.2CBER        1
 GAP=282        0.41       3.3    13.2  5.0  0.2372E+02 -0.2924E+02 -0.1245E+02E
 ACTION:ARG 20-05-11 21:31 OP:mn   STATUS:               ID:20160819100554     I
 2016-08-19-1005-54M.arct__039                                                 6
 STAT SP IPHASW D HRMM SECON CODA AMPLIT PERI AZIMU VELO AIN AR TRES W  DIS CAZ7
 632  0Z IP     D 10 6 41.42   34                        105   -0.1510 48.0 220 
 632  0N ES       10 6 47.64                             105    0.0310 48.0 220 
 632  0Z  IAML    10 6 48.60       182.8 0.04                          48.0 220 
 629  0Z IP     D 10 6 48.46   33                         96    0.17 8 91.7 273 
 629  0N ES       10 6 59.65                              96    0.21 8 91.7 273 
 629  0Z  IAML    10 7  0.61         1.2 0.16                          91.7 273 
 627  0Z IP     C 10 6 50.57   37                         95    0.15 8  105 284 
 627  0N ES       10 7  2.80                              95   -0.38 8  105 284 
 627  0Z  IAML    10 7  3.45         1.4 0.18                           105 284 
 624  0Z IP     C 10 6 55.78   37                         52   -0.00 6  141 299 
 624  0E ES       10 7 12.61                              52   -0.02 6  141 299 
 624  0Z  IAML    10 7 14.51         1.2 0.15                           141 299 
                                                                                
 2016  819 1048 31.4 L  71.993 129.898  4.1  BER  4 0.1 0.8LBER 1.0CBER        1
 GAP=330        0.29       3.6     9.3  3.3  0.2017E+01 -0.7019E+01  0.5510E+00E
 ACTION:ARG 20-05-11 21:31 OP:mn   STATUS:               ID:20160819104750     I
 2016-08-19-1047-50M.arct__039                                                 6
 STAT SP IPHASW D HRMM SECON CODA AMPLIT PERI AZIMU VELO AIN AR TRES W  DIS CAZ7
 629  0Z IP     C 1048 45.65   27                         92   -0.0110 89.6 267 
 629  0E ES       1048 56.59                              92    0.0910 89.6 267 
 629  0Z  IAML    1048 57.23         1.4 0.16                          89.6 267 
 627  0Z IP     D 1048 47.41   25                         92   -0.09 9  101 279 
 627  0N ES       1048 59.64                              92   -0.10 9  101 279 
 627  0Z  IAML    1049  1.46         3.7 0.21                           101 279 
 628  0Z IP     D 1048 47.99   36                         92    0.00 9  104 297 
 628  0E ES       1049  0.67                              92    0.07 9  104 297 
 628  0Z  IAML    1049  0.96         4.5 0.30                           104 297 
 621  0Z IP     C 1048 58.74   39                         48    0.20 6  173 279 
 621  0N ES       1049 19.07                              48   -0.11 6  173 279 
 621  0Z  IAML    1049 20.17         1.4 0.12                           173 279 
                                                                                
 2016  819 1053 17.2 L  71.949 129.805  0.6  BER  4 0.1 0.1LBER 0.7CBER        1
 GAP=329        0.29       3.5    10.5818.9  0.1156E+01 -0.5692E+04  0.4250E+03E
 ACTION:ARG 20-05-11 21:31 OP:mn   STATUS:               ID:20160819105216     I
 2016-08-19-1052-16M.arct__039                                                 6
 STAT SP IPHASW D HRMM SECON CODA AMPLIT PERI AZIMU VELO AIN AR TRES W  DIS CAZ7
 630  0Z IP     C 1053 25.65   21                         90    0.0210 52.9 286 
 630  0N ES       1053 32.03                              90   -0.0110 52.9 286 
 630  0Z  IAML    1053 35.40         0.7 0.06                          52.9 286 
 629  0Z IP     C 1053 30.80   24                         90   -0.11 9 86.3 270 
 629  0N ES       1053 41.38                              90    0.04 9 86.3 270 
 629  0Z  IAML    1053 43.98         0.5 0.09                          86.3 270 
 627  0Z IP     C 1053 32.90   28                         90   -0.03 8 99.0 282 
 627  0E ES       1053 44.96                              90    0.06 8 99.0 282 
 627  0Z  IAML    1053 46.92         1.2 0.19                          99.0 282 
 628  0Z IP     C 1053 33.82   28                         90    0.12 8  104 300 
 628  0N ES       1053 46.17                              90   -0.08 8  104 300 
 628  0Z  IAML    1053 48.30         0.9 0.17                           104 300 
                                                                                
 2016  819 1058  4.7 L  72.078 129.903  8.0  BER  5 0.1 1.9LBER 1.6CBER        1
 GAP=345        0.30       8.2    12.0  3.5  0.4850E+02  0.1007E+01  0.3526E+01E
 ACTION:ARG 20-05-11 21:31 OP:mn   STATUS:               ID:20160819105706     I
 2016-08-19-1057-06M.arct__039                                                 6
 STAT SP IPHASW D HRMM SECON CODA AMPLIT PERI AZIMU VELO AIN AR TRES W  DIS CAZ7
 624  0Z  IAML    1058 44.16        33.8 0.22                           131 292 
 625  0Z IP     D 1058 25.30   41                         81   -0.1110  131 277 
 625  0N ES       1058 41.01                              81   -0.1610  131 277 
 624  0Z IP     C 1058 25.46   45                         81   -0.0410  131 292 
 624  0N ES       1058 41.25                              81   -0.0810  131 292 
 625  0Z  IAML    1058 43.29        11.5 0.14                           131 277 
 623  0Z IP     D 1058 27.72   46                         81    0.19 9  144 283 
 623  0E ES       1058 45.20                              81    0.29 9  144 283 
 623  0Z  IAML    1058 47.36        17.1 0.20                           144 283 
 622  0Z IP     C 1058 29.94   52                         51   -0.00 8  161 287 
 622  0N ES       1058 49.04                              51   -0.11 8  161 287 
 622  0Z  IAML    1058 52.09        12.8 0.20                           161 287 
 621  0Z IP     C 1058 31.27   52                         48   -0.01 8  172 276 
 621  0N ES       1058 51.63                              48    0.13 8  172 276 
 621  0Z  IAML    1058 53.29        22.8 0.16                           172 276 
                                                                                
