 2016  820 0309 44.4 L  72.986 123.626 12.7  BER  5 0.1 0.7LBER 1.0CBER        1
 GAP=328        0.33       3.6    11.0  9.4  0.1490E+02 -0.1915E+02 -0.1838E+02E
 ACTION:ARG 20-05-11 21:31 OP:mn   STATUS:               ID:20160820030832     I
 2016-08-20-0308-32M.arct__039                                                 6
 STAT SP IPHASW D HRMM SECON CODA AMPLIT PERI AZIMU VELO AIN AR TRES W  DIS CAZ7
 620  0Z IP     D  3 9 51.69   21                        104   -0.0410 44.0 147 
 620  0E ES        3 9 57.25                             104   -0.0110 44.0 147 
 620  0Z  IAML     3 9 57.48         4.6 0.14                          44.0 147 
 622  0Z IP     D  3 9 57.84   30                         95    0.16 8 82.6 137 
 622  0E ES        310  7.85                              95    0.12 8 82.6 137 
 622  0Z  IAML     310  9.15         3.0 0.21                          82.6 137 
 621  0Z IP     C  310  0.17   42                         94   -0.10 8 99.0 154 
 621  0N ES        310 12.20                              94   -0.09 8 99.0 154 
 621  0Z  IAML     310 14.82         1.3 0.09                          99.0 154 
 623  0Z IP     D  310  0.69   32                         94   -0.07 8  102 135 
 623  0N ES        310 13.34                              94    0.18 8  102 135 
 623  0Z  IAML     310 14.59         3.4 0.20                           102 135 
 624  0Z IP     D  310  1.20   32                         94    0.07 8  105 122 
 624  0N ES        310 13.54                              94   -0.26 8  105 122 
 624  0Z  IAML     310 14.18         3.7 0.22                           105 122 
                                                                                
 2016  820 0630 38.1 L  71.960 129.882 18.4  BER  3 0.0 0.8LBER 0.8CBER        1
 GAP=330        0.29      14.0   169.8147.0 -0.2272E+04  0.2491E+05 -0.1972E+04E
 ACTION:ARG 20-05-11 21:31 OP:mn   STATUS:               ID:20160820062948     I
 2016-08-20-0629-48M.arct__039                                                 6
 STAT SP IPHASW D HRMM SECON CODA AMPLIT PERI AZIMU VELO AIN AR TRES W  DIS CAZ7
 629  0Z IP     D  630 52.41   27                         70   -0.0210 89.0 269 
 629  0N ES        631  3.35                              70    0.0210 89.0 269 
 629  0Z  IAML     631  4.60         1.7 0.21                          89.0 269 
 627  0Z IP     D  630 54.26   27                         70    0.00 9  101 281 
 627  0N ES        631  6.52                              70   -0.02 9  101 281 
 627  0Z  IAML     631  7.47         3.3 0.42                           101 281 
 628  0Z IP     C  630 54.90   28                         70    0.02 9  106 299 
 628  0E ES        631  7.62                              70   -0.01 9  106 299 
 628  0Z  IAML     631  7.79         4.8 0.22                           106 299 
                                                                                
 2016  820 0736 13.7 L  72.402 126.362 17.6  BER  5 0.1 0.3LBER 0.4CBER        1
 GAP=110        0.29       1.2     3.2  2.3 -0.1669E+01 -0.2611E+01  0.1826E+01E
 ACTION:ARG 20-05-11 21:31 OP:mn   STATUS:               ID:20160820073504     I
 2016-08-20-0735-04M.arct__039                                                 6
 STAT SP IPHASW D HRMM SECON CODA AMPLIT PERI AZIMU VELO AIN AR TRES W  DIS CAZ7
 624  0Z IP     D  736 16.84   16                        153    0.0110 8.76 340 
 624  0N ES        736 19.18                             153   -0.0410 8.76 340 
 624  0Z  IAML     736 19.54        35.9 0.08                          8.76 340 
 623  0Z IP     C  736 18.18   15                        128    0.0010 22.1 248 
 623  0Z  IAML     736 21.52         2.1 0.24                          22.1 248 
 623  0N ES        736 21.68                             128    0.1010 22.1 248 
 628  0Z IP     C  736 18.72   21                        123   -0.03 9 26.5  90 
 628  0N ES        736 22.65                             123    0.07 9 26.5  90 
 628  0Z  IAML     736 22.79         2.5 0.10                          26.5  90 
 625  0Z IP     C  736 18.64   23                        122   -0.15 9 26.9 199 
 625  0E ES        736 22.61                             122   -0.06 9 26.9 199 
 625  0Z  IAML     736 22.78         3.8 0.36                          26.9 199 
 626  0Z IP     C  736 23.46   26                        105    0.08 8 58.4 191 
 626  0N ES        736 30.78                             105    0.05 8 58.4 191 
 626  0Z  IAML     736 31.48         1.5 0.26                          58.4 191 
                                                                                
 2016  820 0954  4.0 L  72.111 127.633 16.3  BER  3 0.0 0.2LBER 0.4CBER        1
 GAP=173        0.29       1.7     3.0  4.1  0.2316E+01 -0.1995E+01 -0.2751E+01E
 ACTION:ARG 20-05-11 21:31 OP:mn   STATUS:               ID:20160820095238     I
 2016-08-20-0952-38M.arct__039                                                 6
 STAT SP IPHASW D HRMM SECON CODA AMPLIT PERI AZIMU VELO AIN AR TRES W  DIS CAZ7
 627  0Z IP     C  954  8.37   18                        125   -0.0210 22.3 272 
 627  0E ES        954 11.74                             125    0.0110 22.3 272 
 627  0Z  IAML     954 12.00         4.8 0.20                          22.3 272 
 630  0Z IP     C  954  8.62   18                        123    0.0010 24.1  99 
 630  0N ES        954 12.12                             123   -0.0010 24.1  99 
 630  0Z  IAML     954 12.14         7.0 0.13                          24.1  99 
 628  0Z IP     D  954 10.33   24                        113    0.02 9 36.3 333 
 628  0E ES        954 15.09                             113   -0.01 9 36.3 333 
 628  0Z  IAML     954 16.54         1.3 0.24                          36.3 333 
                                                                                
 2016  820 1506 15.7 L  71.944 129.914  3.7  BER  9 0.4 1.5LBER 1.6CBER        1
 GAP=279        0.64       3.0    14.8  5.3  0.2262E+02 -0.1830E+02 -0.4610E+01E
 ACTION:ARG 20-05-11 21:31 OP:mn   STATUS:               ID:20160820150518     I
 2016-08-20-1505-18M.arct__039                                                 6
 STAT SP IPHASW D HRMM SECON CODA AMPLIT PERI AZIMU VELO AIN AR TRES W  DIS CAZ7
 632  0Z IP     C 15 6 23.53   49                         94   -0.3110 50.7 216 
 632  0N ES       15 6 30.12                              94    0.1210 50.7 216 
 632  0Z  IAML    15 6 31.02        32.4 0.08                          50.7 216 
 630  0Z IP     C 15 6 24.19   55                         93   -0.5910 56.7 286 
 630  0N ES       15 6 31.47                              93   -0.2010 56.7 286 
 630  0Z  IAML    15 6 34.99        14.1 0.08                          56.7 286 
 627  0Z IP     D 15 6 32.55   41                         92    0.46 8  103 282 
 627  0N ES       15 6 44.86                              92    0.34 8  103 282 
 627  0Z  IAML    15 6 45.43        10.4 0.14                           103 282 
 625  0Z IP     D 15 6 37.63   46                         91    0.70 7  133 283 
 625  0N ES       15 6 53.28                              91    0.24 7  133 283 
 625  0Z  IAML    15 6 53.90         9.9 0.22                           133 283 
 626  0Z IP     D 15 6 37.20   50                         91    0.07 7  135 269 
 626  0N ES       15 6 53.15                              91   -0.25 7  135 269 
 626  0Z  IAML    15 6 56.02        10.3 0.26                           135 269 
 624  0Z IP     C 15 6 37.56   41                         91   -0.04 7  138 297 
 624  0N ES       15 6 53.82                              91   -0.39 7  138 297 
 624  0Z  IAML    15 6 57.73        12.9 0.17                           138 297 
 623  0Z IP     D 15 6 39.94   52                         91    0.62 6  149 289 
 623  0N ES       15 6 57.35                              91    0.10 6  149 289 
 623  0Z  IAML    15 7  1.67         8.8 0.62                           149 289 
 622  0Z IP     C 15 6 42.27   56                         51    0.19 5  167 292 
 622  0E ES       15 7  1.51                              51   -0.60 5  167 292 
 622  0Z  IAML    15 7  4.89         5.2 0.19                           167 292 
 621  0Z IP     C 15 6 43.48   47                         48    0.37 5  175 281 
 621  0N ES       15 7  4.13                              48    0.21 5  175 281 
 621  0Z  IAML    15 7  5.78         9.4 0.32                           175 281 
                                                                                
 2016  820 1508 53.2 L  71.888 129.770 19.0  BER  4 0.2 0.4LBER 0.9CBER        1
 GAP=271        0.41       2.4    13.5  3.3  0.1747E+02 -0.5201E+01 -0.4635E+01E
 ACTION:ARG 20-05-11 21:31 OP:mn   STATUS:               ID:20160820150752     I
 2016-08-20-1507-52M.arct__039                                                 6
 STAT SP IPHASW D HRMM SECON CODA AMPLIT PERI AZIMU VELO AIN AR TRES W  DIS CAZ7
 632  0Z IP     D 15 9  0.57   19                        113   -0.0610 42.7 215 
 632  0N ES       15 9  6.21                             113   -0.0410 42.7 215 
 632  0Z  IAML    15 9  7.51         2.1 0.06                          42.7 215 
 630  0Z IP     D 15 9  2.33   27                        108    0.0410 54.1 293 
 630  0N ES       15 9  9.21                             108    0.0310 54.1 293 
 630  0Z  IAML    15 9 11.79         1.3 0.06                          54.1 293 
 627  0Z IP     D 15 9  9.36   36                         70    0.28 8 99.5 286 
 627  0N ES       15 9 21.31                              70    0.18 8 99.5 286 
 627  0Z  IAML    15 9 22.75         1.6 0.45                          99.5 286 
 628  0Z IP     C 15 9 10.09   35                         70   -0.01 8  106 304 
 628  0E ES       15 9 22.50                              70   -0.42 8  106 304 
 628  0Z  IAML    15 9 24.14         1.9 0.20                           106 304 
                                                                                
 2016  820 1904 45.7 L  72.344 127.327 19.4  BER  6 0.1 1.3LBER 1.2CBER        1
 GAP=313        0.33       2.0     7.5  1.8  0.2467E+00 -0.1177E+01 -0.1828E-01E
 ACTION:ARG 20-05-11 21:31 OP:mn   STATUS:               ID:20160820190332     I
 2016-08-20-1903-32M.arct__039                                                 6
 STAT SP IPHASW D HRMM SECON CODA AMPLIT PERI AZIMU VELO AIN AR TRES W  DIS CAZ7
 624  0Z IP     C 19 4 52.49   33                        116    0.0110 38.4 293 
 624  0E ES       19 4 57.67                             116    0.0210 38.4 293 
 624  0Z  IAML    19 4 58.55        57.9 0.11                          38.4 293 
 625  0Z IP     C 19 4 53.49   36                        112   -0.0110 45.6 246 
 625  0E ES       19 4 59.56                             112    0.1010 45.6 246 
 625  0Z  IAML    19 5  3.27        14.8 0.28                          45.6 246 
 623  0Z IP     C 19 4 54.67   45                        109    0.07 9 53.1 269 
 623  0N ES       19 5  1.49                             109    0.10 9 53.1 269 
 623  0Z  IAML    19 5  4.27        17.9 0.45                          53.1 269 
 622  0Z IP     C 19 4 56.82   34                        104   -0.14 9 68.9 280 
 622  0N ES       19 5  5.27                             104   -0.27 9 68.9 280 
 622  0Z  IAML    19 5  5.46        11.7 0.17                          68.9 280 
 621  0Z IP     C 19 4 59.28   33                         70   -0.10 8 84.8 259 
 621  0E ES       19 5  9.69                              70   -0.10 8 84.8 259 
 621  0Z  IAML    19 5  9.88        14.0 0.25                          84.8 259 
 620  0Z IP     D 19 5  2.52   37                         70    0.10 7  106 290 
 620  0N ES       19 5 15.40                              70    0.24 7  106 290 
 620  0Z  IAML    19 5 19.30         7.3 0.19                           106 290 
                                                                                
 2016  821 0515 52.6 L  72.003 129.671  0.2  BER  4 0.1 0.2LBER 0.9CBER        1
 GAP=327        0.32      10.3   150.8 60.7 -0.1479E+04  0.9142E+04 -0.5976E+03E
 ACTION:ARG 20-05-11 21:31 OP:mn   STATUS:               ID:20160821051450     I
 2016-08-21-0514-50M.arct__039                                                 6
 STAT SP IPHASW D HRMM SECON CODA AMPLIT PERI AZIMU VELO AIN AR TRES W  DIS CAZ7
 629  0Z IP     D  516  5.64   31                         53   -0.0110 81.9 265 
 629  0E ES        516 15.59                              53    0.0110 81.9 265 
 629  0Z  IAML     516 19.46         0.4 0.06                          81.9 265 
 628  0Z IP     D  516  7.93   27                         53   -0.10 9 96.9 298 
 628  0N ES        516 19.60                              53   -0.16 9 96.9 298 
 628  0Z  IAML     516 21.25         1.8 0.17                          96.9 298 
 625  0Z IP     C  516 12.27   31                         53   -0.03 8  124 281 
 625  0N ES        516 27.26                              53   -0.02 8  124 281 
 625  0Z  IAML     516 28.92         0.4 0.18                           124 281 
 624  0Z IP     C  516 13.02   30                         53    0.20 8  127 296 
 624  0N ES        516 28.40                              53    0.20 8  127 296 
 624  0Z  IAML     516 29.11         0.9 0.16                           127 296 
                                                                                
 2016  821 1353 46.2 L  72.722 127.200 15.6  BER  1 0.0 0.5LBER 0.7CBER        1
 GAP=360        0.30       4.3     3.6  0.0  0.2943E+01  0.9142E+04 -0.5976E+03E
 ACTION:ARG 20-05-11 21:31 OP:mn   STATUS:               ID:20160821135233     I
 2016-08-21-1352-33M.arct__039                                                 6
 STAT SP IPHASW D HRMM SECON CODA AMPLIT PERI AZIMU VELO AIN AR TRES W  DIS CAZ7
 628  0Z IP     D 1353 52.41   26                        112    0.0210 35.9 183 
 628  0Z E        1353 52.48                    2.8  9.7      0        35.9 183 
 628  0E ES       1353 57.09                             112   -0.0210 35.9 183 
 628  0Z  IAML    1353 57.52         5.0 0.15                          35.9 183 
                                                                                
 2016  822 0021 21.6 L  71.941 129.865  0.0  BER  3 0.2 0.4LBER 0.7CBER        1
 GAP=274        0.44       5.2    55.2 18.9  0.2712E+03  0.1007E+04  0.9002E+02E
 ACTION:ARG 20-05-11 21:31 OP:mn   STATUS:               ID:20160822002022     I
 2016-08-22-0020-22M.arct__039                                                 6
 STAT SP IPHASW D HRMM SECON CODA AMPLIT PERI AZIMU VELO AIN AR TRES W  DIS CAZ7
 632  0Z IP     C  021 29.47   21                         53   -0.0410 49.4 214 
 632  0N ES        021 35.63                              53    0.0810 49.4 214 
 632  0Z  IAML     021 36.89         3.2 0.06                          49.4 214 
 630  0Z IP     D  021 30.18   27                         53   -0.2310 55.2 286 
 630  0E ES        021 37.00                              53   -0.1310 55.2 286 
 630  0Z  IAML     021 39.76         1.4 0.06                          55.2 286 
 628  0Z IP     D  021 38.74   29                         53    0.25 8  106 300 
 628  0N ES        021 51.60                              53    0.26 8  106 300 
 628  0Z  IAML     021 51.84         2.9 0.28                           106 300 
                                                                                
 2016  822 0407  9.7 L  72.705 125.750 20.3  BER  4 0.0-0.0LBER-0.2CBER        1
 GAP=242        0.27       2.3     4.0  4.7  0.4959E+01 -0.3869E+01 -0.6822E+01E
 ACTION:UP  21-01-10 14:12 OP:elen STATUS:               ID:20160822040551     I
 OLDACT:REG 21-01-08 15:19 OP:elen STATUS:               ID:20160822040551     3
 2016-08-22-0405-51M.arct__039                                                 6
 STAT SP IPHASW D HRMM SECON CODA AMPLIT PERI AZIMU VELO AIN AR TRES W  DIS CAZ7
 624  0Z IP        4 7 15.50   13                        122   -0.0310 31.0 145 
 624  0E ES        4 7 20.02                             122    0.0410 31.0 145 
 624  0N  IAML     4 7 20.28         1.3 0.08                          31.0 145 
 622  0Z IP        4 7 15.69   13                        121   -0.0710 32.8 207 
 622  0E ES        4 7 20.35                             121   -0.0410 32.8 207 
 622  0N  IAML     4 7 21.26         1.2 0.18                          32.8 207 
 623  0Z IP        4 7 17.08   13                        114    0.0010 42.3 180 
 623  0N ES        4 7 22.75                             114    0.0410 42.3 180 
 623  0N  IAML     4 7 22.92         1.3 0.14                          42.3 180 
 620  0Z IP        4 7 17.76   13                        112    0.01 9 47.0 264 
 620  0N ES        4 7 23.93                             112    0.04 9 47.0 264 
 620  0N  IAML     4 7 24.49         2.0 0.14                          47.0 264 
                                                                                
 2016  822  939  3.5 L                       BER                               1
 ACTION:REG 21-01-08 15:21 OP:elen STATUS:               ID:20160822093903     I
 2016-08-22-0939-03M.arct__039                                                 6
 STAT SP IPHASW D HRMM SECON CODA AMPLIT PERI AZIMU VELO AIN AR TRES W  DIS CAZ7
                                                                                
