 2016  9 4 1537 45.7 L  72.956 123.228  1.4  BER  4 0.4 2.1LBER                1
 GAP=333        0.49       8.5    26.1  5.5  0.5990E+02  0.1693E+02 -0.9106E+01E
 ACTION:ARG 20-04-02 17:38 OP:mn   STATUS:               ID:20160904153622     I
 2016-09-04-1536-22M.SIOLA_039                                                 6
 STAT SP IPHASW D HRMM SECON CODA AMPLIT PERI AZIMU VELO AIN AR TRES W  DIS CAZ7
 628  0Z IP     D 1538  8.50                              90   -0.0910  144 114 
 628  0N ES       1538 25.92                              90   -0.0910  144 114 
 628  0Z  IAML    1538 29.31        25.6 0.23                           144 114 
 626  0Z IP     D 1538  9.93                              90    0.06 9  152 140 
 626  0N ES       1538 28.39                              90    0.13 9  152 140 
 626  0Z  IAML    1538 28.71        41.6 0.18                           152 140 
 629  0Z IP     C 1538 13.38                              48   -0.37 8  179 128 
 629  0E ES       1538 34.46                              48   -0.63 8  179 128 
 629  0Z  IAML    1538 36.26        10.8 0.13                           179 128 
 630  0Z IP     C 1538 16.43                              48    0.55 7  197 117 
 630  0N ES       1538 39.70                              48    0.85 7  197 117 
 630  0Z  IAML    1538 40.60        45.1 0.32                           197 117 
                                                                                
 2016  9 4 1537 45.6 L  72.909 123.164  0.0  BER  4 0.4 2.3LBER                1
 GAP=333        0.50      29.6    27.8 13.7  0.1159E+03 -0.3845E+02  0.3341E+03E
 ACTION:ARG 20-04-02 17:38 OP:mn   STATUS:               ID:20160904153655     I
 2016-09-04-1536-55M.SIOLA_039                                                 6
 STAT SP IPHASW D HRMM SECON CODA AMPLIT PERI AZIMU VELO AIN AR TRES W  DIS CAZ7
 628  0Z IP     D 1538  8.34                              53   -0.2310  144 111 
 628  0E ES       1538 25.98                              53   -0.0410  144 111 
 628  0Z  IAML    1538 27.57        33.6 0.20                           144 111 
 629  0Z IP     C 1538 13.32                              36   -0.36 8  178 126 
 629  0N ES       1538 34.51                              36   -0.51 8  178 126 
 629  0Z  IAML    1538 36.20        10.7 0.13                           178 126 
 630  0Z IP     C 1538 16.46                              36    0.52 7  197 116 
 630  0N ES       1538 39.85                              36    0.86 7  197 116 
 630  0Z  IAML    1538 41.65        50.7 0.17                           197 116 
 631  0Z IP     C 1538 18.84                              36    0.29 5  219 138 
 631  0E ES       1538 44.02                              36    0.43 5  219 138 
 631  0Z  IAML    1538 44.83        47.0 0.35                           219 138 
                                                                                
 2016  9 4 1539 40.2 L  72.926 123.179  0.0  BER  4 0.4 1.8LBER                1
 GAP=333        0.49      29.6    28.2 13.6  0.1701E+03 -0.1853E+02  0.3292E+03E
 ACTION:ARG 20-04-02 17:38 OP:mn   STATUS:               ID:20160904153850     I
 2016-09-04-1538-50M.SIOLA_039                                                 6
 STAT SP IPHASW D HRMM SECON CODA AMPLIT PERI AZIMU VELO AIN AR TRES W  DIS CAZ7
 628  0Z IP     D 1540  2.86                              53   -0.3310  144 112 
 628  0N ES       1540 20.63                              53   -0.0410  144 112 
 628  0Z  IAML    1540 22.27        10.0 0.21                           144 112 
 629  0Z IP     C 1540  8.11                              36   -0.25 8  178 127 
 629  0N ES       1540 29.36                              36   -0.40 8  178 127 
 629  0Z  IAML    1540 30.76         5.1 0.28                           178 127 
 630  0Z IP     D 1540 11.12                              36    0.55 7  197 116 
 630  0N ES       1540 34.61                              36    0.95 7  197 116 
 630  0Z  IAML    1540 35.42        11.9 0.24                           197 116 
 631  0Z IP     D 1540 13.48                              36    0.21 5  220 139 
 631  0E ES       1540 38.64                              36    0.23 5  220 139 
 631  0Z  IAML    1540 39.53        16.0 0.37                           220 139 
                                                                                
 2016  9 5 1511 35.4 L  72.281 127.716  0.9  BER  4 0.5 0.3LBER-0.9CBER        1
 GAP=289        1.07       4.0    91.2 32.6  0.1181E+02  0.2836E+04  0.7278E+01E
 ACTION:ARG 20-04-02 17:38 OP:mn   STATUS:               ID:20160905151033     I
 2016-09-05-1510-33M.SIOLA_039                                                 6
 STAT SP IPHASW D HRMM SECON CODA AMPLIT PERI AZIMU VELO AIN AR TRES W  DIS CAZ7
 628  0Z IP     D 1511 39.03    4                         91   -0.1410 23.4 305 
 628  0N ES       1511 41.49                              91   -0.5410 23.4 305 
 628  0Z  IAML    1511 41.81        25.5 0.08                          23.4 305 
 627  0Z IP     D 1511 40.38    6                         91    0.0110 31.0 234 
 627  0N ES       1511 43.74                              91   -0.4110 31.0 234 
 627  0Z  IAML    1511 44.86         4.1 0.30                          31.0 234 
 625  0Z IP     D 1511 44.47   20                         91    0.12 9 56.1 258 
 625  0Z  IAML    1511 50.11         1.4 0.82                          56.1 258 
 625  0N ES       1511 50.91                              91   -0.24 9 56.1 258 
 626  0Z IP     D 1511 47.70                              90    0.73 8 72.5 234 
 626  0N ES       1511 56.73                              90    0.98 8 72.5 234 
 626  0Z  IAML    1511 57.12         0.7 0.15                          72.5 234 
                                                                                
 2016  9 6 0322 59.5 L  72.405 124.785 12.5  BER  4 0.2 0.7LBER-0.3CBER        1
 GAP=161        0.62       1.8     7.2  8.0  0.4420E+01  0.1913E+02  0.6646E+00E
 ACTION:ARG 20-04-02 17:38 OP:mn   STATUS:               ID:20160906032135     I
 2016-09-06-0321-35M.SIOLA_039                                                 6
 STAT SP IPHASW D HRMM SECON CODA AMPLIT PERI AZIMU VELO AIN AR TRES W  DIS CAZ7
 622  0Z IP     C  323  2.72   12                        123   -0.3510 18.3  77 
 622  0E ES        323  5.60                             123   -0.1610 18.3  77 
 622  0Z  IAML     323  5.91        21.3 0.28                          18.3  77 
 621  0Z IP     D  323  3.87    7                        115   -0.1510 24.9 172 
 621  0N ES        323  7.50                             115    0.0810 24.9 172 
 621  0Z  IAML     323  7.75        16.2 0.25                          24.9 172 
 620  0Z IP     D  323  4.84   22                        110   -0.0810 31.4 332 
 620  0E ES        323  9.27                             110    0.2610 31.4 332 
 620  0Z  IAML     323 10.12         8.5 0.19                          31.4 332 
 623  0Z IP     C  323  5.32                             108   -0.01 9 34.1 105 
 623  0N ES        323 10.19                             108    0.47 9 34.1 105 
 623  0Z  IAML     323 11.66         7.8 0.26                          34.1 105 
                                                                                
 2016  9 6 1514 40.1 L  72.511 125.692 11.1  BER  6 0.2 0.9LBER-0.4CBER        1
 GAP=171        0.47       1.5     3.6  3.7  0.1185E+01  0.1628E+01 -0.8722E+00E
 ACTION:ARG 20-04-02 17:38 OP:mn   STATUS:               ID:20160906151318     I
 2016-09-06-1513-18M.SIOLA_039                                                 6
 STAT SP IPHASW D HRMM SECON CODA AMPLIT PERI AZIMU VELO AIN AR TRES W  DIS CAZ7
 622  0Z IP     C 1514 42.78    7                        126   -0.2410 14.9 239 
 622  0N ES       1514 45.31                             126    0.0410 14.9 239 
 622  0Z  IAML    1514 45.95        16.0 0.13                          14.9 239 
 624  0Z IP     C 1514 43.55    4                        118   -0.1610 19.9 101 
 624  0N ES       1514 46.71                             118    0.2310 19.9 101 
 624  0Z  IAML    1514 46.87       161.8 0.17                          19.9 101 
 623  0Z IP     D 1514 43.56                             117   -0.2510 20.7 174 
 623  0E ES       1514 46.57                             117   -0.0910 20.7 174 
 623  0Z  IAML    1514 46.77        26.6 0.14                          20.7 174 
 625  0Z IP     C 1514 46.57   25                        103   -0.11 9 40.1 159 
 625  0E ES       1514 51.99                             103    0.28 9 40.1 159 
 625  0Z  IAML    1514 53.15         6.1 0.55                          40.1 159 
 621  0Z IP     D 1514 47.54   15                        101    0.01 9 45.5 217 
 621  0N ES       1514 53.37                             101    0.16 9 45.5 217 
 621  0Z  IAML    1514 54.45         6.5 0.39                          45.5 217 
 620  0Z IP     C 1514 47.89   21                        100    0.04 9 47.7 290 
 620  0N ES       1514 53.95                             100    0.18 9 47.7 290 
 620  0Z  IAML    1514 54.31        10.0 0.36                          47.7 290 
                                                                                
 2016  9 6 2114 14.0 L  72.706 125.138 22.5  BER  4 0.1 0.2LBER 0.1CBER        1
 GAP=218        0.33       5.0     9.5  8.2  0.4189E+02 -0.7190E+02 -0.3493E+02E
 ACTION:ARG 20-04-02 17:38 OP:mn   STATUS:               ID:20160906211249     I
 2016-09-06-2112-49M.SIOLA_039                                                 6
 STAT SP IPHASW D HRMM SECON CODA AMPLIT PERI AZIMU VELO AIN AR TRES W  DIS CAZ7
 620  0Z IP     C 2114 19.41   31                        125   -0.1010 26.9 258 
 620  0E ES       2114 23.73                             125    0.0310 26.9 258 
 620  0Z  IAML    2114 23.93         3.8 0.17                          26.9 258 
 622  0Z IP     D 2114 19.87   23                        121   -0.0310 30.0 169 
 622  0E ES       2114 24.39                             121    0.0210 30.0 169 
 622  0Z  IAML    2114 24.58         2.2 0.28                          30.0 169 
 624  0Z IP     C 2114 22.17    8                        108    0.15 9 45.8 124 
 624  0E ES       2114 28.08                             108   -0.02 9 45.8 124 
 624  0Z  IAML    2114 28.16         2.6 0.17                          45.8 124 
 628  0Z IP     C 2114 26.40   12                         95    0.12 8 75.4 116 
 628  0E ES       2114 35.42                              95   -0.18 8 75.4 116 
 628  0Z  IAML    2114 36.45         1.0 0.18                          75.4 116 
                                                                                
 2016  9 7 0612  2.8 L  70.253 128.303  0.0  BER  4 0.6 1.7LBER 1.0CBER        1
 GAP=326        0.69      11.7    34.7 12.8 -0.6492E+02  0.1041E+03 -0.9221E+02E
 ACTION:ARG 20-04-02 17:38 OP:mn   STATUS:               ID:20160907061107     I
 2016-09-07-0611-07M.SIOLA_033                                                 6
 STAT SP IPHASW D HRMM SECON CODA AMPLIT PERI AZIMU VELO AIN AR TRES W  DIS CAZ7
 631  0Z IP     D  612 23.68   25                         53   -0.4510  134 344 
 631  0E ES        612 39.94                              53   -0.3710  134 344 
 631  0Z  IAML     612 40.18        15.9 0.31                           134 344 
 632  0Z IP     C  612 26.18   29                         53   -0.55 9  150  10 
 632  0E ES        612 45.14                              53    0.25 9  150  10 
 632  0Z  IAML     612 46.76        15.5 0.19                           150  10 
 626  0Z IP     D  612 34.17   34                         36    0.56 6  200 337 
 626  0E ES        612 58.26                              36    1.27 6  200 337 
 626  0Z  IAML     612 59.42         7.6 0.50                           200 337 
 630  0Z IP     D  612 34.33   35                         36    0.37 6  203   0 
 630  0E ES        612 58.46                              36    0.85 6  203   0 
 630  0Z  IAML     613  0.64         5.7 0.20                           203   0 
                                                                                
 2016  9 7 0612  2.9 L  70.253 128.363  0.0  BER  4 0.7 1.7LBER 1.0CBER        1
 GAP=327        0.80      13.5    40.0 14.7 -0.8300E+02  0.1382E+03 -0.1225E+03E
 ACTION:ARG 20-04-02 17:38 OP:mn   STATUS:               ID:20160907061137     I
 2016-09-07-0611-37M.SIOLA_033                                                 6
 STAT SP IPHASW D HRMM SECON CODA AMPLIT PERI AZIMU VELO AIN AR TRES W  DIS CAZ7
 631  0Z IP     C  612 23.52   26                         53   -0.7210  134 343 
 631  0Z  IAML     612 40.19        16.0 0.31                           134 343 
 631  0E ES        612 40.25                              53   -0.2410  134 343 
 632  0Z IP     C  612 26.24   29                         53   -0.44 9  150  10 
 632  0E ES        612 44.78                              53    0.00 9  150  10 
 632  0Z  IAML     612 46.76        15.1 0.19                           150  10 
 626  0Z IP     D  612 34.40   34                         36    0.68 6  201 336 
 626  0E ES        612 58.25                              36    1.08 6  201 336 
 626  0Z  IAML     613  0.08         8.2 0.32                           201 336 
 630  0Z IP     C  612 34.41   36                         36    0.44 6  203 360 
 630  0E ES        612 59.22                              36    1.61 6  203 360 
 630  0Z  IAML     613  0.64         5.7 0.20                           203 360 
                                                                                
 2016  9 8 0435 55.6 L  72.083 128.041 19.3  BER  3 0.0 1.3LBER-1.6CBER        1
 GAP=179        0.29       2.5     4.2  3.0 -0.2740E+01  0.8624E+01 -0.1146E+01E
 ACTION:ARG 20-04-02 17:38 OP:mn   STATUS:               ID:20160908043432     I
 2016-09-08-0434-32M.SIOLA_033                                                 6
 STAT SP IPHASW D HRMM SECON CODA AMPLIT PERI AZIMU VELO AIN AR TRES W  DIS CAZ7
 630  0Z IP     C  435 59.02    5                        153   -0.0410 9.80  95 
 630  0E ES        436  1.69                             153    0.0210 9.80  95 
 630  0Z  IAML     436  1.74      1326.2 0.04                          9.80  95 
 629  0Z IP     C  436  1.33                             121    0.01 9 30.4 236 
 629  0N ES        436  5.65                             121   -0.00 9 30.4 236 
 629  0Z  IAML     436  6.01         5.5 0.38                          30.4 236 
 627  0Z IP     C  436  2.20    5                        117    0.04 9 36.5 276 
 627  0N ES        436  7.11                             117   -0.02 9 36.5 276 
 627  0Z  IAML     436  7.26        10.4 0.13                          36.5 276 
                                                                                
 2016  9 9  952  8.0 L                       BER                               1
 ACTION:ARG 20-04-02 17:38 OP:mn   STATUS:               ID:20160909095208     I
 2016-09-09-0952-08M.SIOLA_033                                                 6
 STAT SP IPHASW D HRMM SECON CODA AMPLIT PERI AZIMU VELO AIN AR TRES W  DIS CAZ7
 632  0E ES        953 19.01                                                    
 630  0Z  IAML     952 53.31         1.7 0.18                                   
 631  0Z IP     C  952 48.43   50                                               
 631  0Z  IAML     953 37.25         3.1 0.28                                   
 632  0Z IP     C  952 38.61                                                    
 630  0Z IP     C  952 21.22   35                                               
 621  0Z IP     D  952 49.73   58                                               
 621  0Z  IAML     953 38.71         1.5 0.40                                   
 630  0N ES        952 49.89                                                    
 621  0N ES        953 37.32                                                    
 631  0E ES        953 34.01                                                    
 632  0Z  IAML     953 19.89         2.1 0.11                                   
                                                                                
 2016  910 2115 21.8 L  72.430 126.431 12.1  BER  5 0.1 0.6LBER-0.4CBER        1
 GAP=143        0.41       2.4     3.4  3.7 -0.2068E+01 -0.2125E+01  0.7023E+01E
 ACTION:ARG 20-04-02 17:38 OP:mn   STATUS:               ID:20160910211402     I
 2016-09-10-2114-02M.SIOLA_036                                                 6
 STAT SP IPHASW D HRMM SECON CODA AMPLIT PERI AZIMU VELO AIN AR TRES W  DIS CAZ7
 624  0Z IP     C 2115 23.94                             148   -0.1110 7.33 314 
 624  0N ES       2115 25.78                             148    0.0110 7.33 314 
 624  0Z  IAML    2115 25.93        50.5 0.15                          7.33 314 
 628  0Z IP     D 2115 26.04    5                        115   -0.09 9 24.4  98 
 628  0N ES       2115 29.63                             115    0.20 9 24.4  98 
 628  0Z  IAML    2115 29.89        28.4 0.17                          24.4  98 
 623  0Z IP     C 2115 26.09   10                        114   -0.19 9 25.5 243 
 623  0N ES       2115 29.73                             114    0.04 9 25.5 243 
 623  0Z  IAML    2115 29.86         4.2 0.06                          25.5 243 
 621  0Z IP     C 2115 31.59   20                         99    0.20 8 59.1 243 
 621  0N ES       2115 38.93                              99    0.25 8 59.1 243 
 621  0Z  IAML    2115 40.38         2.9 0.42                          59.1 243 
 626  0Z IP       2115 31.72   20                         98   -0.11 8 62.0 193 
 626  0Z ES       2115 39.34                              98   -0.13 8 62.0 193 
                                                                                
 2016  911  928 36.0 L                       BER                               1
 ACTION:ARG 20-04-02 17:38 OP:mn   STATUS:               ID:20160911092836     I
 2016-09-11-0928-36M.SIOLA_039                                                 6
 STAT SP IPHASW D HRMM SECON CODA AMPLIT PERI AZIMU VELO AIN AR TRES W  DIS CAZ7
 632  0N IP        929 22.37                                                    
 632  0N E         929 22.62                   53.2 24.7                        
 632  0N ES        929 50.25                                                    
                                                                                
