 2016  912 0541 13.5 L  72.716 125.716 17.9  BER  5 0.0 1.1LBER-0.2CBER        1
 GAP=282        0.24       2.0     3.5  3.8 -0.1126E+01 -0.7216E+00 -0.4575E+01E
 ACTION:ARG 20-04-02 17:38 OP:mn   STATUS:               ID:20160912053955     I
 2016-09-12-0539-55M.SIOLA_036                                                 6
 STAT SP IPHASW D HRMM SECON CODA AMPLIT PERI AZIMU VELO AIN AR TRES W  DIS CAZ7
 624  0Z IP     D  541 19.41   11                        118   -0.0110 32.7 145 
 624  0E ES        541 23.89                             118   -0.0110 32.7 145 
 624  0Z  IAML     541 24.32        35.4 0.16                          32.7 145 
 622  0Z IP     D  541 19.57    8                        117    0.0510 33.4 204 
 622  0N ES        541 24.05                             117   -0.0310 33.4 204 
 622  0Z  IAML     541 24.68        66.7 0.14                          33.4 204 
 623  0Z IP     D  541 20.96   11                        111   -0.0110 43.6 178 
 623  0E ES        541 26.66                             111    0.0310 43.6 178 
 623  0Z  IAML     541 27.14        25.0 0.19                          43.6 178 
 628  0Z IP     C  541 23.31   19                        105   -0.03 9 59.5 126 
 628  0E ES        541 30.84                             105    0.04 9 59.5 126 
 628  0Z  IAML     541 31.10         9.0 0.18                          59.5 126 
 625  0Z IP     D  541 23.67   22                        104   -0.03 9 61.9 168 
 625  0E ES        541 31.43                             104   -0.01 9 61.9 168 
 625  0Z  IAML     541 31.97         4.2 0.31                          61.9 168 
                                                                                
 2016  914  4 0  0.0 L                       BER                               1
 ACTION:ARG 20-04-02 17:38 OP:mn   STATUS:               ID:20160914040000     I
 2016-09-14-0400-00M.SIOLA_039                                                 6
 STAT SP IPHASW D HRMM SECON CODA AMPLIT PERI AZIMU VELO AIN AR TRES W  DIS CAZ7
                                                                                
 2016  914 1510 34.6 L  70.819 129.577  5.5  BER  4 0.0 1.4LBER 1.0CBER        1
 GAP=340        0.26       4.6    14.2  2.6  0.3493E+02 -0.1321E+02 -0.9045E+00E
 ACTION:ARG 20-04-02 17:38 OP:mn   STATUS:               ID:20160914150941     I
 2016-09-14-1509-41M.SIOLA_039                                                 6
 STAT SP IPHASW D HRMM SECON CODA AMPLIT PERI AZIMU VELO AIN AR TRES W  DIS CAZ7
 631  0Z IP     D 1510 51.45   28                         93   -0.0510  106 309 
 631  0E ES       1511  4.40                              93    0.0410  106 309 
 631  0Z  IAML    1511  8.20        11.5 0.18                           106 309 
 629  0Z IP     C 1510 58.10   34                         92    0.02 8  148 328 
 629  0E ES       1511 15.92                              92   -0.02 8  148 328 
 629  0Z  IAML    1511 18.40         3.9 0.14                           148 328 
 627  0Z IP     D 1511  1.49   35                         48    0.12 7  172 329 
 627  0E ES       1511 21.70                              48   -0.03 7  172 329 
 627  0Z  IAML    1511 22.82         7.3 0.22                           172 329 
 626  0Z IP     D 1511  1.64   32                         48   -0.02 7  174 315 
 626  0E ES       1511 22.20                              48   -0.03 7  174 315 
 626  0Z  IAML    1511 22.70         7.5 0.21                           174 315 
                                                                                
 2016  915 1405 46.0 L  73.041 123.722  0.1  BER  3 0.3 0.9LBER 0.2CBER        1
 GAP=344        0.55     412.3   862.0626.7 -0.3549E+06 -0.5398E+06  0.2584E+06E
 ACTION:ARG 20-04-02 17:38 OP:mn   STATUS:               ID:20160915140423     I
 2016-09-15-1404-23M.SIOLA_039                                                 6
 STAT SP IPHASW D HRMM SECON CODA AMPLIT PERI AZIMU VELO AIN AR TRES W  DIS CAZ7
 620  0Z IP     C 14 5 53.54   12                         53   -0.1310 47.8 154 
 620  0E ES       14 5 59.14                              53   -0.3510 47.8 154 
 620  0Z  IAML    14 5 59.41        11.2 0.20                          47.8 154 
 622  0Z IP     C 14 5 59.57   18                         53   -0.01 9 85.1 141 
 622  0E ES       14 6 10.02                              53    0.12 9 85.1 141 
 622  0Z  IAML    14 6 11.52         6.5 0.25                          85.1 141 
 621  0Z IP     C 14 6  2.70   27                         53    0.22 8  103 157 
 621  0E ES       14 6 15.45                              53    0.45 8  103 157 
 621  0Z  IAML    14 6 16.46         3.2 0.16                           103 157 
                                                                                
 2016  916 1427 48.3 L  73.273 123.249  2.6  BER  4 0.1 1.7LBER 1.3CBER        1
 GAP=353        0.27      31.7   137.5  6.7  0.4325E+04  0.7983E+03  0.1803E+03E
 ACTION:ARG 20-04-02 17:38 OP:mn   STATUS:               ID:20160916142658     I
 2016-09-16-1426-58M.SIOLA_039                                                 6
 STAT SP IPHASW D HRMM SECON CODA AMPLIT PERI AZIMU VELO AIN AR TRES W  DIS CAZ7
 622  0Z IP     C 1428  6.57   32                         91   -0.0410  115 143 
 622  0E ES       1428 20.53                              91    0.0310  115 143 
 622  0Z  IAML    1428 22.95        16.7 0.26                           115 143 
 623  0Z IP     C 1428  9.76   47                         91    0.07 9  134 141 
 623  0N ES       1428 25.92                              91    0.01 9  134 141 
 623  0Z  IAML    1428 28.56        10.0 0.34                           134 141 
 625  0Z IP     C 1428 12.99   41                         91    0.03 8  155 141 
 625  0N ES       1428 31.57                              91   -0.10 8  155 141 
 625  0Z  IAML    1428 34.46         7.4 0.34                           155 141 
 626  0Z IP     C 1428 16.42   32                         48   -0.08 6  180 148 
 626  0E ES       1428 37.95                              48    0.05 6  180 148 
 626  0Z  IAML    1428 41.71        18.0 0.55                           180 148 
                                                                                
 2016  916 2310 15.1 L  71.378 129.051 15.6  BER  1 0.0 1.6LBER                1
 GAP=360        0.30       4.6     2.0  0.0  0.2249E+01  0.7983E+03  0.1803E+03E
 ACTION:ARG 20-04-02 17:38 OP:mn   STATUS:               ID:20160916230851     I
 2016-09-16-2308-51M.SIOLA_039                                                 6
 STAT SP IPHASW D HRMM SECON CODA AMPLIT PERI AZIMU VELO AIN AR TRES W  DIS CAZ7
 632  0Z IP     D 2310 19.41                             124    0.0010 21.9   2 
 632  0Z E        2310 19.51                  182.0  5.9      0        21.9   2 
 632  0E ES       2310 22.66                             124   -0.0010 21.9   2 
 632  0Z  IAML    2310 24.03       119.3 0.11                          21.9   2 
                                                                                
 2016  917 2034 22.1 L  72.229 127.206 23.9  BER  4 0.0 0.5LBER-0.8CBER        1
 GAP=289        0.28       4.4     5.8  4.6  0.6105E+01  0.1460E+02  0.1588E+02E
 ACTION:ARG 20-04-02 17:38 OP:mn   STATUS:               ID:20160917203315     I
 2016-09-17-2033-15M.SIOLA_039                                                 6
 STAT SP IPHASW D HRMM SECON CODA AMPLIT PERI AZIMU VELO AIN AR TRES W  DIS CAZ7
 628  0Z IP     D 2034 26.88    5                        138    0.0210 19.2 354 
 628  0E ES       2034 30.51                             138   -0.0110 19.2 354 
 628  0Z  IAML    2034 30.68        12.0 0.09                          19.2 354 
 624  0Z IP     D 2034 29.62    7                        113    0.03 9 41.9 312 
 624  0E ES       2034 35.29                             113   -0.03 9 41.9 312 
 624  0Z  IAML    2034 35.98         3.7 0.13                          41.9 312 
 623  0Z IP     C 2034 30.64                             108   -0.11 9 50.3 283 
 623  0E ES       2034 37.41                             108    0.06 9 50.3 283 
 623  0Z  IAML    2034 37.63         1.7 0.22                          50.3 283 
 622  0Z IP     C 2034 33.38   19                        100    0.06 8 68.4 291 
 622  0E ES       2034 41.87                             100   -0.02 8 68.4 291 
 622  0Z  IAML    2034 47.35         4.3 0.51                          68.4 291 
                                                                                
 2016  920 0154 13.4 L  72.486 126.864 15.6  BER  4 0.9 0.6LBER 0.7CBER        1
 GAP=225       12.13      17.3    64.2 80.5 -0.5548E+03  0.2682E+03 -0.5026E+02E
 ACTION:UP  20-04-15 04:55 OP:alex STATUS:               ID:20160920015258     I
 OLDACT:UP  20-04-05 22:23 OP:alex STATUS:               ID:20160920015258     3
 OLDACT:ARG 20-04-05 21:50 OP:alex STATUS:               ID:20160920015258     3
 2016-09-20-0152-58M.SIOLA_039                                                 6
 STAT SP IPHASW D HRMM SECON CODA AMPLIT PERI AZIMU VELO AIN AR TRES W  DIS CAZ7
 628  0Z EP     C  154 16.69   29                        138    0.0110 13.5 135 
 628  0Z E         154 16.71                  345.0  7.8     30        13.5 135 
 628  0E ES        154 19.95                             138    0.7710 13.5 135 
 628  0Z  IAML     154 20.12         5.1 0.14                          13.5 135 
 628  0N  IAML     154 20.18         8.1 0.12                          13.5 135 
 624  0Z EP     C  154 16.94   23                        127   -0.4710 19.8 267 
 624  0Z E         154 16.95                  158.6  4.9     72        19.8 267 
 624  0E ES        154 20.19                             127   -0.2710 19.8 267 
 624  0N  IAML     154 20.26        23.2 0.21                          19.8 267 
 624  0E  IAML     154 20.32        28.6 0.11                          19.8 267 
 624  0Z  IAML     154 20.57        16.5 0.26                          19.8 267 
 622  0Z EP     C  154 21.45                             104   -0.60 9 52.4 265 
 622  0E ES        154 28.11                             104   -0.52 9 52.4 265 
 630  0Z EP     C  154 24.91                             100    0.54 8 67.6 132 
 630  0E ES        154 33.31                             100    0.60 8 67.6 132 
                                                                                
 2016  920 0712 48.9 L  71.577 129.102 15.6  BER  3 1.0 0.5LBER 1.1CBER        1
 GAP=302       10.45      52.0   235.0 75.7 -0.1092E+04  0.1304E+05 -0.6989E+03E
 ACTION:UP  20-04-15 05:08 OP:alex STATUS:               ID:20160920071207     I
 OLDACT:UP  20-04-05 22:22 OP:alex STATUS:               ID:20160920071207     3
 OLDACT:ARG 20-04-05 21:50 OP:alex STATUS:               ID:20160920071207     3
 2016-09-20-0712-07M.SIOLA_039                                                 6
 STAT SP IPHASW D HRMM SECON CODA AMPLIT PERI AZIMU VELO AIN AR TRES W  DIS CAZ7
 632  0Z EP     C  712 50.30   34                        176   -1.0910 1.08 252 
 632  0Z E         712 50.31                   19.7  6.6    -52        1.08 252 
 632  0E ES        712 54.08                             176    0.8010 1.08 252 
 632  0Z  IAML     712 54.45        10.4 0.12                          1.08 252 
 631  0Z EP     C  712 57.90   36                        100   -2.14 8 68.7 254 
 631  0Z E         712 57.91                   97.8  5.0     25        68.7 254 
 631  0N ES        713  6.85                             100   -1.67 8 68.7 254 
 627  0Z EP     C  713  5.60   28                         96    1.46 7 95.2 310 
 627  0Z E         713  5.60                  111.6  8.7    -16        95.2 310 
 627  0E ES        713 19.77                              96    4.04 7 95.2 310 
 627  0Z  IAML     713 21.39         2.4 0.18                          95.2 310 
                                                                                
 2016  920 1607 18.3 L                       BER        2.4CBER                1
 ACTION:UP  20-04-15 05:22 OP:alex STATUS:               ID:20160920160640     I
 OLDACT:UP  20-04-05 22:34 OP:alex STATUS:               ID:20160920160640     3
 OLDACT:ARG 20-04-05 21:50 OP:alex STATUS:               ID:20160920160640     3
 2016-09-20-1606-40M.SIOLA_039                                                 6
 STAT SP IPHASW D HRMM SECON CODA AMPLIT PERI AZIMU VELO AIN AR TRES W  DIS CAZ7
 632  0E ES       16 8 23.88                              51                    
 629  0E ES       16 8 37.98                              51                    
 629  0E  IAML    16 8 39.18        32.8 0.50                                   
 629  0Z  IAML    16 8 39.38        17.7 0.63                                   
 629  0N  IAML    16 8 43.77        13.5 0.78                                   
 625  0Z E        16 8 13.65                  163.5  5.7                        
 625  0E ES       16 8 48.87                              51                    
 625  0Z  IAML    16 8 54.77        24.0 0.35                                   
 625  0E  IAML    16 8 58.26        22.6 0.44                                   
 629  0Z E        16 8  6.31                  187.2  5.9                        
 632  0Z  IAML    16 8 28.97        44.1 0.78                                   
 625  0N  IAML    16 9  3.65        26.2 0.52                                   
 632  0Z E        16 7 56.76                  184.1  5.6                        
 631  0Z E        16 7 56.42                  195.4  8.5                        
 631  0E ES       16 8 23.34                              51                    
 631  0E  IAML    16 8 25.86        64.4 0.23                                   
 631  0Z  IAML    16 8 26.84        39.4 0.59                                   
 631  0N  IAML    16 8 31.22        27.8 0.80                                   
 631  0Z EP     C 16 7 56.34   80                         51            245     
 632  0Z EP     C 16 7 56.71   78                         51            262     
 629  0Z EP     C 16 8  6.29   80                         51            303     
 625  0Z EP     C 16 8 13.64   88                         51            338     
                                                                                
 2016  922 1558 52.5 L  72.170 126.744 12.4  BER  3 0.7 0.6LBER 0.3CBER        1
 GAP=275        8.32      34.8    59.1 93.2  0.8222E+01  0.1880E+03 -0.1280E+04E
 ACTION:UP  20-04-15 05:29 OP:alex STATUS:               ID:20160922155740     I
 OLDACT:UP  20-04-05 22:45 OP:alex STATUS:               ID:20160922155740     3
 OLDACT:ARG 20-04-05 21:50 OP:alex STATUS:               ID:20160922155740     3
 2016-09-22-1557-40M.SIOLA_039                                                 6
 STAT SP IPHASW D HRMM SECON CODA AMPLIT PERI AZIMU VELO AIN AR TRES W  DIS CAZ7
 628  0Z EP     C 1558 57.73   18                        112    0.1710 29.1  28 
 628  0Z E        1558 57.74                  228.4  5.2     20        29.1  28 
 628  0E ES       1559  0.21                             112   -1.1910 29.1  28 
 628  0Z  IAML    1559  0.52        16.2 0.14                          29.1  28 
 624  0Z EP     C 1558 58.88   21   12.4 0.24            106    0.0510 37.7 335 
 624  0Z E        1558 58.89                  201.0  4.8     46        37.7 335 
 624  0E ES       1559  2.25                             106   -1.3810 37.7 335 
 624  0Z  IAML    1559  2.48        12.4 0.24                          37.7 335 
 622  0Z EP     C 1559  3.69   19                         99    1.87 9 57.3 303 
 622  0Z E        1559  3.69                  139.4  9.0     18        57.3 303 
 622  0E ES       1559  9.84                              99    0.96 9 57.3 303 
 622  0N  IAML    1559 10.22         2.8 0.21                          57.3 303 
 622  0Z  IAML    1559 10.58         2.9 0.60                          57.3 303 
 622  0E  IAML    1559 10.95         3.0 0.12                          57.3 303 
                                                                                
 2016  923 0206  4.1 L  72.613 125.334 12.9  BER  3 0.2 0.2LBER 0.3CBER        1
 GAP=197        0.82       2.8     7.3 12.5  0.1655E+01 -0.7267E+01 -0.1565E+02E
 ACTION:UP  20-04-15 05:46 OP:alex STATUS:               ID:20160923020443     I
 OLDACT:UP  20-04-05 22:54 OP:alex STATUS:               ID:20160923020443     3
 OLDACT:ARG 20-04-05 21:50 OP:alex STATUS:               ID:20160923020443     3
 2016-09-23-0204-43M.SIOLA_039                                                 6
 STAT SP IPHASW D HRMM SECON CODA AMPLIT PERI AZIMU VELO AIN AR TRES W  DIS CAZ7
 622  0Z IP     D  2 6  7.37                             123   -0.3910 19.1 182 
 622  0E IS        2 6 10.34                             123   -0.2210 19.1 182 
 620  0Z EP     C  2 6  9.59   16                        110   -0.16 9 33.2 278 
 620  0N ES        2 6 14.47                             110    0.42 9 33.2 278 
 620  0Z  IAML     2 6 14.81         2.1 0.14                          33.2 278 
 620  0E  IAML     2 6 14.86         2.3 0.19                          33.2 278 
 624  0Z EP     C  2 6  9.89   24                        108   -0.14 9 35.0 116 
 624  0Z E         2 6  9.91                  297.6 13.4      1        35.0 116 
 624  0E ES        2 6 15.11                             108    0.57 9 35.0 116 
 624  0Z  IAML     2 6 15.22         6.6 0.14                          35.0 116 
 624  0N  IAML     2 6 15.59         2.4 0.18                          35.0 116 
 624  0E  IAML     2 6 15.83         4.3 0.18                          35.0 116 
                                                                                
 2016  924 0948 51.5 L  71.681 129.114 15.6  BER  3 0.3 0.7LBER 0.9CBER        1
 GAP=226        1.86      16.8     9.3 22.7  0.1119E+03 -0.1291E+03 -0.3454E+03E
 ACTION:UP  20-04-15 12:10 OP:alex STATUS:               ID:20160924094805     I
 OLDACT:UP  20-04-05 23:01 OP:alex STATUS:               ID:20160924094805     3
 OLDACT:ARG 20-04-05 21:50 OP:alex STATUS:               ID:20160924094805     3
 2016-09-24-0948-05M.SIOLA_039                                                 6
 STAT SP IPHASW D HRMM SECON CODA AMPLIT PERI AZIMU VELO AIN AR TRES W  DIS CAZ7
 632  0Z IP     C  948 54.34   23                        142   -0.3210 12.1 187 
 632  0Z E         948 54.35                    5.0  5.2     -1        12.1 187 
 632  0E IS        948 57.21                             142    0.1710 12.1 187 
 632  0Z  IAML     948 57.31        16.5 0.18                          12.1 187 
 632  0N  IAML     948 57.39        21.6 0.11                          12.1 187 
 632  0E  IAML     948 57.40        35.8 0.12                          12.1 187 
 628  0Z EP     C  949  8.24                              94   -0.03 7  105 321 
 628  0E ES        949 20.38                              94   -0.63 7  105 321 
 628  0Z  IAML     949 21.13         1.8 0.22                           105 321 
 624  0Z EP     C  949 13.13   36                         70    0.85 6  132 314 
 624  0Z E         949 13.14                  114.4  4.5    -16         132 314 
 624  0E ES        949 28.55                              70    0.49 6  132 314 
 624  0Z  IAML     949 30.94         1.9 0.21                           132 314 
                                                                                
