 2016  8 3 0737 54.6 L  72.821 127.096  0.3  BER  4 0.3 0.5LBER 0.4CBER        1
 GAP=297        0.69      22.0    15.5 27.5  0.1984E+03  0.2436E+03  0.5822E+03E
 ACTION:ARG 20-05-11 21:31 OP:mn   STATUS:               ID:20160803073638     I
 2016-08-03-0736-38M.arct__036                                                 6
 STAT SP IPHASW D HRMM SECON CODA AMPLIT PERI AZIMU VELO AIN AR TRES W  DIS CAZ7
 628  0Z IP     C  738  1.68   16                         53   -0.4310 47.0 178 
 628  0E ES        738  7.39                              53   -0.4310 47.0 178 
 628  0Z  IAML     738  8.97         2.7 0.20                          47.0 178 
 624  0Z IP     C  738  2.16   24                         53    0.0210 47.2 216 
 624  0E ES        738  8.19                              53    0.3110 47.2 216 
 624  0Z  IAML     738 10.18         3.4 0.63                          47.2 216 
 630  0Z IP     D  738  9.70   23                         53    0.31 8 92.9 153 
 630  0E ES        738 21.11                              53    0.48 8 92.9 153 
 630  0Z  IAML     738 22.14         1.1 0.17                          92.9 153 
 631  0Z IP     D  738 19.63                              53   -0.19 6  159 178 
 631  0E ES        738 39.16                              53    0.16 6  159 178 
 631  0Z  IAML     738 40.04         2.1 0.46                           159 178 
                                                                                
 2016  8 3 1524  7.8 L  71.294 130.464  0.0  BER  4 1.1 1.2LBER 1.4CBER        1
 GAP=352        1.16     148.4   278.7 19.1  0.4041E+05 -0.1722E+04 -0.1247E+04E
 ACTION:ARG 20-05-11 21:31 OP:mn   STATUS:               ID:20160803152327     I
 2016-08-03-1523-27M.arct__036                                                 6
 STAT SP IPHASW D HRMM SECON CODA AMPLIT PERI AZIMU VELO AIN AR TRES W  DIS CAZ7
 632  0Z IP     D 1524 16.23   30                         53   -0.9510 58.5 303 
 632  0N ES       1524 24.20                              53   -0.1010 58.5 303 
 632  0Z  IAML    1524 27.19         9.5 0.21                          58.5 303 
 625  0Z IP     C 1524 36.98   44                         36    0.66 5  181 305 
 625  0N ES       1524 58.56                              36    0.56 5  181 305 
 625  0Z  IAML    1524 59.58         2.2 0.23                           181 305 
 623  0Z IP     C 1524 38.99   42                         36    0.43 4  200 307 
 623  0N ES       1525  3.23                              36    1.30 4  200 307 
 623  0Z  IAML    1525  4.31         1.7 0.24                           200 307 
 621  0Z IP     D 1524 42.39   51                         36    1.62 3  219 300 
 621  0N ES       1525  8.29                              36    2.47 3  219 300 
 621  0Z  IAML    1525  9.42         3.6 0.44                           219 300 
                                                                                
 2016  8 4 0253  0.1 L  72.678 124.835  1.2  BER  3 0.1 1.6LBER 1.0CBER        1
 GAP=326        0.32       4.9     9.5174.9 -0.8985E+01  0.4123E+03 -0.7244E+03E
 ACTION:ARG 20-05-11 21:31 OP:mn   STATUS:               ID:20160804025135     I
 2016-08-04-0251-35M.arct__036                                                 6
 STAT SP IPHASW D HRMM SECON CODA AMPLIT PERI AZIMU VELO AIN AR TRES W  DIS CAZ7
 622  0Z IP     D  253  4.96   23                         92   -0.0910 30.8 149 
 622  0E ES        253  8.82                              92    0.0210 30.8 149 
 622  0Z  IAML     253  9.03        46.9 0.14                          30.8 149 
 623  0Z IP     D  253  8.22   30                         91    0.12 9 50.1 141 
 623  0E ES        253 14.15                              91   -0.02 9 50.1 141 
 623  0Z  IAML     253 15.60         8.9 0.22                          50.1 141 
 624  0Z IP     C  253  8.58   44                         91   -0.01 9 53.2 114 
 624  0E ES        253 15.04                              91   -0.00 9 53.2 114 
 624  0Z  IAML     253 18.54       674.9 0.08                          53.2 114 
                                                                                
 2016  8 4 1630 59.0 L                       BER                               1
 ACTION:ARG 20-05-11 21:31 OP:mn   STATUS:               ID:20160804163059     I
 2016-08-04-1630-59M.arct__036                                                 6
 STAT SP IPHASW D HRMM SECON CODA AMPLIT PERI AZIMU VELO AIN AR TRES W  DIS CAZ7
                                                                                
 2016  8 5 0730  9.9 L  72.461 125.601  1.4  BER  3 0.7                        1
 GAP=285        1.54       9.6    45.9184.8 -0.3307E+03  0.3890E+04 -0.9179E+03E
 ACTION:ARG 20-05-11 21:31 OP:mn   STATUS:               ID:20160805072846     I
 2016-08-05-0728-46M.arct__036                                                 6
 STAT SP IPHASW D HRMM SECON CODA AMPLIT PERI AZIMU VELO AIN AR TRES W  DIS CAZ7
 623  0Z IP        730 12.00                              94   -0.5310 16.0 160 
 623  0N ES        730 13.64                              94   -0.8610 16.0 160 
 624  0Z IP        730 13.78                              93    0.1910 22.7  85 
 624  0E ES        730 16.08                              93   -0.3010 22.7  85 
 625  0Z IP        730 16.49                              92    0.74 9 36.3 152 
 625  0E ES        730 21.15                              92    0.99 9 36.3 152 
                                                                                
 2016  8 8 0558 18.2 L  72.407 125.340 14.2  BER  3 0.0-0.3LBER-0.4CBER        1
 GAP=224        0.29       1.9     5.6  2.3  0.3451E+01 -0.7233E+01 -0.2508E+00E
 ACTION:ARG 20-05-11 21:31 OP:mn   STATUS:               ID:20160808055650     I
 2016-08-08-0556-50M.arct__039                                                 6
 STAT SP IPHASW D HRMM SECON CODA AMPLIT PERI AZIMU VELO AIN AR TRES W  DIS CAZ7
 622  0Z IP     D  558 20.51   11                        164   -0.0110 3.97 347 
 622  0E ES        558 22.30                             164    0.0010 3.97 347 
 622  0Z  IAML     558 22.42         2.5 0.08                          3.97 347 
 623  0Z IP     C  558 21.70   11                        129    0.0210 16.9 122 
 623  0E ES        558 24.33                             129   -0.0110 16.9 122 
 623  0Z  IAML     558 24.45         1.2 0.29                          16.9 122 
 624  0Z IP     C  558 23.78   12                        112   -0.02 9 32.4  76 
 624  0E ES        558 28.08                             112    0.01 9 32.4  76 
 624  0Z  IAML     558 28.43         2.0 0.32                          32.4  76 
                                                                                
 2016  8 8 2321 58.0 L  69.897 130.005 41.2  BER  4 1.2 2.4LBER 1.8CBER        1
 GAP=340        0.76     999.9   999.9999.9 -0.1352E+07  0.5730E+07 -0.5443E+07E
 ACTION:ARG 20-05-11 21:31 OP:mn   STATUS:               ID:20160808232119     I
 2016-08-08-2321-19M.arct__039                                                 6
 STAT SP IPHASW D HRMM SECON CODA AMPLIT PERI AZIMU VELO AIN AR TRES W  DIS CAZ7
 632  0Z IP     D 2322 23.75   54                         76   -0.2710  190 350 
 632  0E ES       2322 43.03                              76   -0.7710  190 350 
 632  0Z  IAML    2322 45.32        41.7 0.24                           190 350 
 631  0Z IP     C 2322 24.68   49                         76   -0.05 9  196 330 
 631  0E ES       2322 44.34                              76   -0.70 9  196 330 
 631  0Z  IAML    2322 45.14        55.6 0.34                           196 330 
 629  0Z IP     D 2322 32.16   51                         76    1.46 5  247 338 
 629  0N ES       2322 58.10                              76    2.55 5  247 338 
 629  0Z  IAML    2323  4.87        13.0 0.37                           247 338 
 630  0Z IP     D 2322 32.77   61                         76    1.66 4  251 347 
 630  0N ES       2322 58.53                              76    2.25 4  251 347 
 630  0Z  IAML    2323  0.03        33.0 0.20                           251 347 
                                                                                
 2016  8 9 0648 16.8 L  70.315 128.870 15.6  BER  1 0.0 2.8LBER 1.2CBER        1
 GAP=360        0.30      12.7    38.9  0.0  0.1133E+02  0.5730E+07 -0.5443E+07E
 ACTION:ARG 20-05-11 21:31 OP:mn   STATUS:               ID:20160809064725     I
 2016-08-09-0647-25M.arct__036                                                 6
 STAT SP IPHASW D HRMM SECON CODA AMPLIT PERI AZIMU VELO AIN AR TRES W  DIS CAZ7
 629  0Z IP        648 44.52   36                         49    0.0110  189 343 
 629  0Z E         648 44.61                  162.1 15.5      0         189 343 
 629  0N ES        649  5.57                              49   -0.0110  189 343 
 629  0Z  IAML     649  8.82        97.4 0.02                           189 343 
                                                                                
 2016  810  416  6.0 L                       BER                               1
 ACTION:ARG 20-05-11 21:31 OP:mn   STATUS:               ID:20160810041606     I
 2016-08-10-0416-06M.arct__036                                                 6
 STAT SP IPHASW D HRMM SECON CODA AMPLIT PERI AZIMU VELO AIN AR TRES W  DIS CAZ7
                                                                                
 2016  811 1323 48.1 L  72.831 123.990 15.6  BER  1 0.0 1.2LBER 0.1CBER        1
 GAP=360        0.30       4.0     8.4  0.0 -0.3201E+02  0.5730E+07 -0.5443E+07E
 ACTION:ARG 20-05-11 21:31 OP:mn   STATUS:               ID:20160811132222     I
 2016-08-11-1322-22M.arct__039                                                 6
 STAT SP IPHASW D HRMM SECON CODA AMPLIT PERI AZIMU VELO AIN AR TRES W  DIS CAZ7
 620  0Z IP       1323 52.51   16                        123   -0.0010 23.0 149 
 620  0Z E        1323 52.56                  329.6 14.9      0        23.0 149 
 620  0E ES       1323 55.87                             123    0.0010 23.0 149 
 620  0Z  IAML    1323 56.37        43.5 0.20                          23.0 149 
                                                                                
 2016  815 1125 48.4 L  72.393 124.893  9.3  BER  4 0.2 0.8LBER 0.6CBER        1
 GAP=248        0.52       2.7    10.3  5.9 -0.2095E+02  0.4342E+01 -0.5691E+00E
 ACTION:ARG 20-05-11 21:31 OP:mn   STATUS:               ID:20160815112426     I
 2016-08-15-1124-26M.arct__039                                                 6
 STAT SP IPHASW D HRMM SECON CODA AMPLIT PERI AZIMU VELO AIN AR TRES W  DIS CAZ7
 622  0Z IP     C 1125 51.04                             121   -0.1610 15.2  69 
 622  0E ES       1125 53.42                             121    0.0510 15.2  69 
 622  0E  IAML    1125 53.49        37.5 0.14                          15.2  69 
 621  0Z IP     D 1125 52.48   21                        112    0.0910 23.3 180 
 621  0E ES       1125 55.55                             112    0.0910 23.3 180 
 621  0Z  IAML    1125 56.61        18.1 0.17                          23.3 180 
 623  0Z IP     D 1125 53.09   22                        107   -0.32 9 30.3 104 
 623  0N ES       1125 57.09                             107   -0.16 9 30.3 104 
 623  0Z  IAML    1125 57.82         7.2 0.25                          30.3 104 
 624  0Z IP     D 1125 56.19   26                        101    0.12 9 47.5  78 
 624  0E ES       1126  2.29                             101    0.36 9 47.5  78 
 624  0Z  IAML    1126  2.90        13.7 0.26                          47.5  78 
                                                                                
 2016  815 2012  7.7 L  72.024 127.592 18.9  BER  4 0.1 0.5LBER 0.4CBER        1
 GAP=145        0.39       1.8     3.9  3.9  0.9333E+00 -0.3175E+01 -0.4012E+01E
 ACTION:ARG 20-05-11 21:31 OP:mn   STATUS:               ID:20160815201042     I
 2016-08-15-2010-42M.arct__039                                                 6
 STAT SP IPHASW D HRMM SECON CODA AMPLIT PERI AZIMU VELO AIN AR TRES W  DIS CAZ7
 629  0Z IP     D 2012 11.30   17                        142   -0.1710 14.3 222 
 629  0N ES       2012 14.29                             142   -0.0310 14.3 222 
 629  0Z  IAML    2012 14.76         4.8 0.28                          14.3 222 
 627  0Z IP     D 2012 12.69   31                        128    0.2110 23.4 297 
 627  0E ES       2012 16.20                             128    0.1010 23.4 297 
 627  0Z  IAML    2012 16.26        84.6 0.08                          23.4 297 
 630  0Z IP     C 2012 12.89   15                        125    0.1110 25.8  77 
 630  0E ES       2012 16.63                             125   -0.0010 25.8  77 
 630  0Z  IAML    2012 16.75         5.1 0.10                          25.8  77 
 628  0Z IP     C 2012 15.29   20                        112   -0.09 9 44.6 340 
 628  0E ES       2012 21.05                             112   -0.15 9 44.6 340 
 628  0Z  IAML    2012 21.45         1.5 0.18                          44.6 340 
                                                                                
 2016  816 0316 55.5 L  72.219 125.937  0.1  BER  5 0.6 0.3LBER 0.2CBER        1
 GAP=145        1.50       3.3    17.1 11.2  0.3275E+02 -0.1271E+02 -0.3244E+01E
 ACTION:ARG 20-05-11 21:31 OP:mn   STATUS:               ID:20160816031531     I
 2016-08-16-0315-31M.arct__039                                                 6
 STAT SP IPHASW D HRMM SECON CODA AMPLIT PERI AZIMU VELO AIN AR TRES W  DIS CAZ7
 625  0Z IP     C  316 56.40   17                         53   -0.4110 7.63 131 
 625  0E ES        316 58.11                              53    0.3110 7.63 131 
 625  0Z  IAML     316 58.12        10.1 0.10                          7.63 131 
 623  0Z IP     C  316 56.84   19                         53   -0.8910 13.4 333 
 623  0E ES        316 58.81                              53   -0.6110 13.4 333 
 623  0Z  IAML     316 59.55        27.5 0.23                          13.4 333 
 624  0Z IP     C  317  0.27   17                         53   -0.24 9 30.9  22 
 624  0E ES        317  4.93                              53    0.62 9 30.9  22 
 624  0Z  IAML     317  6.14         4.1 0.14                          30.9  22 
 622  0Z IP     D  317  0.93   23                         53    0.14 9 32.7 320 
 622  0E ES        317  6.03                              53    1.23 9 32.7 320 
 622  0Z  IAML     317  8.09         8.0 0.41                          32.7 320 
 626  0Z IP     C  317  1.11   16                         53   -0.39 9 37.0 175 
 626  0E ES        317  6.54                              53    0.49 9 37.0 175 
 626  0Z  IAML     317  7.76         2.8 0.16                          37.0 175 
                                                                                
 2016  817 1747 20.4 L  72.383 130.603 51.1  BER  3 0.0 1.0LBER 1.0CBER        1
 GAP=299        0.29       6.3    23.3 44.2  0.1210E+03 -0.8244E+03 -0.2365E+03E
 ACTION:ARG 20-05-11 21:31 OP:mn   STATUS:               ID:20160817174623     I
 2016-08-17-1746-23M.arct__039                                                 6
 STAT SP IPHASW D HRMM SECON CODA AMPLIT PERI AZIMU VELO AIN AR TRES W  DIS CAZ7
 632  0Z IP     D 1747 36.39   24                        102   -0.0410  105 211 
 632  0N ES       1747 48.64                             102    0.0210  105 211 
 632  0Z  IAML    1747 51.36         2.8 0.09                           105 211 
 628  0Z IP     C 1747 37.85   30                        100    0.02 9  117 273 
 628  0E ES       1747 51.07                             100   -0.01 9  117 273 
 628  0Z  IAML    1747 56.11         2.3 0.22                           117 273 
 629  0Z IP     D 1747 38.63   39                         99    0.03 9  123 247 
 629  0Z  IAML    1747 49.89         4.8 0.79                           123 247 
 629  0N ES       1747 52.42                              99   -0.02 9  123 247 
                                                                                
 2016  817 1924 55.9 L  71.356 131.149 11.3  BER  4 0.1 1.2LBER 1.4CBER        1
 GAP=323        0.29       3.6     9.7  3.2  0.4425E+01 -0.7549E+01 -0.8871E+00E
 ACTION:ARG 20-05-11 21:31 OP:mn   STATUS:               ID:20160817192418     I
 2016-08-17-1924-18M.arct__039                                                 6
 STAT SP IPHASW D HRMM SECON CODA AMPLIT PERI AZIMU VELO AIN AR TRES W  DIS CAZ7
 632  0Z IP     D 1925  8.21   39                         94   -0.1210 77.6 289 
 632  0E ES       1925 17.84                              94    0.0610 77.6 289 
 632  0Z  IAML    1925 19.48        34.2 0.19                          77.6 289 
 630  0Z IP     C 1925 16.21   42                         91    0.11 8  127 310 
 630  0E ES       1925 31.41                              91   -0.06 8  127 310 
 630  0Z  IAML    1925 33.20         2.7 0.10                           127 310 
 631  0Z IP     C 1925 17.92                              91   -0.04 7  139 274 
 631  0N ES       1925 34.77                              91    0.03 7  139 274 
 631  0Z  IAML    1925 35.62         7.1 0.17                           139 274 
 629  0Z IP     D 1925 19.50   42                         52    0.15 7  149 297 
 629  0N ES       1925 37.09                              52   -0.09 7  149 297 
 629  0Z  IAML    1925 39.59         1.8 0.14                           149 297 
                                                                                
 2016  817 2255 40.0 L                       BER                               1
 ACTION:ARG 20-05-11 21:31 OP:mn   STATUS:               ID:20160817225540     I
 2016-08-17-2255-40M.arct__039                                                 6
 STAT SP IPHASW D HRMM SECON CODA AMPLIT PERI AZIMU VELO AIN AR TRES W  DIS CAZ7
                                                                                
 2016  818 1240 37.3 L  72.764 125.030 20.7  BER  4 0.1 0.7LBER 0.8CBER        1
 GAP=245        0.33       2.3     5.2  4.0  0.2436E+01 -0.1255E+02  0.7446E+00E
 ACTION:ARG 20-05-11 21:31 OP:mn   STATUS:               ID:20160818123912     I
 2016-08-18-1239-12M.arct__039                                                 6
 STAT SP IPHASW D HRMM SECON CODA AMPLIT PERI AZIMU VELO AIN AR TRES W  DIS CAZ7
 620  0Z IP     D 1240 42.55   24                        123    0.0110 25.8 242 
 620  0N ES       1240 46.57                             123    0.0710 25.8 242 
 620  0Z  IAML    1240 46.95         8.2 0.12                          25.8 242 
 622  0Z IP     D 1240 43.82   24                        110   -0.2110 37.2 165 
 622  0E ES       1240 49.08                             110   -0.0510 37.2 165 
 622  0Z  IAML    1240 49.48         7.4 0.27                          37.2 165 
 624  0Z IP     D 1240 46.23   31                         97    0.01 9 52.5 127 
 624  0N ES       1240 53.13                              97    0.14 9 52.5 127 
 624  0Z  IAML    1240 53.22         8.8 0.12                          52.5 127 
 621  0Z IP     D 1240 48.07   29                         92    0.01 9 64.9 184 
 621  0E ES       1240 56.28                              92    0.05 9 64.9 184 
 621  0Z  IAML    1240 56.44         2.8 0.53                          64.9 184 
                                                                                
